<?xml version="1.0" encoding="utf-8"?>
<gpx xmlns="http://www.topografix.com/GPX/1/1" version="1.1" creator="https://mapy.cz/">
	<trk>
		<name>Route from 47.607509N, 18.991298E to Parking lot</name>
		<trkseg>
			<trkpt lat="47.607497" lon="18.991346">
				<ele>219.000000</ele>
			</trkpt>
			<trkpt lat="47.607418" lon="18.991400">
				<ele>219.000000</ele>
			</trkpt>
			<trkpt lat="47.607358" lon="18.991239">
				<ele>219.000000</ele>
			</trkpt>
			<trkpt lat="47.607528" lon="18.991122">
				<ele>220.000000</ele>
			</trkpt>
			<trkpt lat="47.607679" lon="18.991032">
				<ele>221.000000</ele>
			</trkpt>
			<trkpt lat="47.607733" lon="18.991122">
				<ele>221.000000</ele>
			</trkpt>
			<trkpt lat="47.607879" lon="18.991337">
				<ele>222.000000</ele>
			</trkpt>
			<trkpt lat="47.608079" lon="18.991642">
				<ele>224.000000</ele>
			</trkpt>
			<trkpt lat="47.608230" lon="18.991841">
				<ele>226.000000</ele>
			</trkpt>
			<trkpt lat="47.608315" lon="18.991931">
				<ele>228.000000</ele>
			</trkpt>
			<trkpt lat="47.608333" lon="18.991948">
				<ele>228.000000</ele>
			</trkpt>
			<trkpt lat="47.608430" lon="18.992056">
				<ele>230.000000</ele>
			</trkpt>
			<trkpt lat="47.608539" lon="18.992128">
				<ele>231.000000</ele>
			</trkpt>
			<trkpt lat="47.608660" lon="18.992182">
				<ele>232.000000</ele>
			</trkpt>
			<trkpt lat="47.608727" lon="18.992191">
				<ele>233.000000</ele>
			</trkpt>
			<trkpt lat="47.608745" lon="18.992200">
				<ele>233.000000</ele>
			</trkpt>
			<trkpt lat="47.608812" lon="18.992172">
				<ele>233.000000</ele>
			</trkpt>
			<trkpt lat="47.608932" lon="18.992119">
				<ele>234.000000</ele>
			</trkpt>
			<trkpt lat="47.609054" lon="18.992074">
				<ele>235.000000</ele>
			</trkpt>
			<trkpt lat="47.609266" lon="18.992021">
				<ele>237.000000</ele>
			</trkpt>
			<trkpt lat="47.609441" lon="18.991984">
				<ele>239.000000</ele>
			</trkpt>
			<trkpt lat="47.609617" lon="18.992011">
				<ele>241.000000</ele>
			</trkpt>
			<trkpt lat="47.609895" lon="18.992082">
				<ele>244.000000</ele>
			</trkpt>
			<trkpt lat="47.609974" lon="18.992271">
				<ele>246.000000</ele>
			</trkpt>
			<trkpt lat="47.610119" lon="18.992694">
				<ele>249.000000</ele>
			</trkpt>
			<trkpt lat="47.610283" lon="18.993161">
				<ele>253.000000</ele>
			</trkpt>
			<trkpt lat="47.610428" lon="18.993161">
				<ele>254.000000</ele>
			</trkpt>
			<trkpt lat="47.610670" lon="18.993071">
				<ele>256.000000</ele>
			</trkpt>
			<trkpt lat="47.610943" lon="18.992937">
				<ele>257.000000</ele>
			</trkpt>
			<trkpt lat="47.610846" lon="18.993071">
				<ele>257.000000</ele>
			</trkpt>
			<trkpt lat="47.610810" lon="18.993143">
				<ele>257.000000</ele>
			</trkpt>
			<trkpt lat="47.610689" lon="18.993367">
				<ele>258.000000</ele>
			</trkpt>
			<trkpt lat="47.610640" lon="18.993566">
				<ele>259.000000</ele>
			</trkpt>
			<trkpt lat="47.610568" lon="18.994229">
				<ele>262.000000</ele>
			</trkpt>
			<trkpt lat="47.610562" lon="18.994526">
				<ele>262.000000</ele>
			</trkpt>
			<trkpt lat="47.611343" lon="18.995065">
				<ele>266.000000</ele>
			</trkpt>
			<trkpt lat="47.611403" lon="18.995084">
				<ele>267.000000</ele>
			</trkpt>
			<trkpt lat="47.611464" lon="18.995308">
				<ele>268.000000</ele>
			</trkpt>
			<trkpt lat="47.611440" lon="18.995407">
				<ele>268.000000</ele>
			</trkpt>
			<trkpt lat="47.611403" lon="18.995676">
				<ele>268.000000</ele>
			</trkpt>
			<trkpt lat="47.612694" lon="18.996719">
				<ele>291.000000</ele>
			</trkpt>
			<trkpt lat="47.612917" lon="18.996925">
				<ele>300.000000</ele>
			</trkpt>
			<trkpt lat="47.612687" lon="18.997338">
				<ele>302.000000</ele>
			</trkpt>
			<trkpt lat="47.612433" lon="18.997625">
				<ele>298.000000</ele>
			</trkpt>
			<trkpt lat="47.612246" lon="18.997787">
				<ele>295.000000</ele>
			</trkpt>
			<trkpt lat="47.612124" lon="18.997824">
				<ele>291.000000</ele>
			</trkpt>
			<trkpt lat="47.612124" lon="18.997824">
				<ele>291.000000</ele>
			</trkpt>
			<trkpt lat="47.612106" lon="18.997832">
				<ele>291.000000</ele>
			</trkpt>
			<trkpt lat="47.611979" lon="18.997921">
				<ele>288.000000</ele>
			</trkpt>
			<trkpt lat="47.611815" lon="18.998038">
				<ele>285.000000</ele>
			</trkpt>
			<trkpt lat="47.611767" lon="18.998120">
				<ele>285.000000</ele>
			</trkpt>
			<trkpt lat="47.611670" lon="18.998174">
				<ele>283.000000</ele>
			</trkpt>
			<trkpt lat="47.611543" lon="18.998281">
				<ele>281.000000</ele>
			</trkpt>
			<trkpt lat="47.611325" lon="18.998371">
				<ele>277.000000</ele>
			</trkpt>
			<trkpt lat="47.611228" lon="18.998506">
				<ele>276.000000</ele>
			</trkpt>
			<trkpt lat="47.611149" lon="18.998820">
				<ele>277.000000</ele>
			</trkpt>
			<trkpt lat="47.611095" lon="18.999342">
				<ele>278.000000</ele>
			</trkpt>
			<trkpt lat="47.611040" lon="18.999925">
				<ele>282.000000</ele>
			</trkpt>
			<trkpt lat="47.610992" lon="19.000015">
				<ele>282.000000</ele>
			</trkpt>
			<trkpt lat="47.610937" lon="19.000069">
				<ele>281.000000</ele>
			</trkpt>
			<trkpt lat="47.610931" lon="19.000231">
				<ele>282.000000</ele>
			</trkpt>
			<trkpt lat="47.610931" lon="19.000411">
				<ele>284.000000</ele>
			</trkpt>
			<trkpt lat="47.610870" lon="19.000644">
				<ele>284.000000</ele>
			</trkpt>
			<trkpt lat="47.610774" lon="19.000824">
				<ele>283.000000</ele>
			</trkpt>
			<trkpt lat="47.610652" lon="19.001344">
				<ele>285.000000</ele>
			</trkpt>
			<trkpt lat="47.610664" lon="19.001614">
				<ele>289.000000</ele>
			</trkpt>
			<trkpt lat="47.610604" lon="19.002055">
				<ele>294.000000</ele>
			</trkpt>
			<trkpt lat="47.610495" lon="19.002405">
				<ele>295.000000</ele>
			</trkpt>
			<trkpt lat="47.610386" lon="19.002971">
				<ele>300.000000</ele>
			</trkpt>
			<trkpt lat="47.610356" lon="19.003537">
				<ele>306.000000</ele>
			</trkpt>
			<trkpt lat="47.610392" lon="19.003851">
				<ele>310.000000</ele>
			</trkpt>
			<trkpt lat="47.610447" lon="19.004040">
				<ele>312.000000</ele>
			</trkpt>
			<trkpt lat="47.610508" lon="19.004093">
				<ele>314.000000</ele>
			</trkpt>
			<trkpt lat="47.610556" lon="19.004237">
				<ele>316.000000</ele>
			</trkpt>
			<trkpt lat="47.610556" lon="19.004290">
				<ele>316.000000</ele>
			</trkpt>
			<trkpt lat="47.610495" lon="19.004426">
				<ele>315.000000</ele>
			</trkpt>
			<trkpt lat="47.610198" lon="19.004885">
				<ele>313.000000</ele>
			</trkpt>
			<trkpt lat="47.610059" lon="19.005324">
				<ele>314.000000</ele>
			</trkpt>
			<trkpt lat="47.610053" lon="19.005611">
				<ele>317.000000</ele>
			</trkpt>
			<trkpt lat="47.610077" lon="19.006007">
				<ele>322.000000</ele>
			</trkpt>
			<trkpt lat="47.610077" lon="19.006187">
				<ele>324.000000</ele>
			</trkpt>
			<trkpt lat="47.610083" lon="19.006374">
				<ele>326.000000</ele>
			</trkpt>
			<trkpt lat="47.610047" lon="19.006527">
				<ele>326.000000</ele>
			</trkpt>
			<trkpt lat="47.609980" lon="19.006653">
				<ele>325.000000</ele>
			</trkpt>
			<trkpt lat="47.609938" lon="19.006797">
				<ele>325.000000</ele>
			</trkpt>
			<trkpt lat="47.609895" lon="19.006977">
				<ele>324.000000</ele>
			</trkpt>
			<trkpt lat="47.609865" lon="19.007003">
				<ele>324.000000</ele>
			</trkpt>
			<trkpt lat="47.609919" lon="19.007246">
				<ele>326.000000</ele>
			</trkpt>
			<trkpt lat="47.609987" lon="19.007445">
				<ele>328.000000</ele>
			</trkpt>
			<trkpt lat="47.610101" lon="19.007615">
				<ele>330.000000</ele>
			</trkpt>
			<trkpt lat="47.610119" lon="19.007695">
				<ele>330.000000</ele>
			</trkpt>
			<trkpt lat="47.610119" lon="19.007695">
				<ele>330.000000</ele>
			</trkpt>
			<trkpt lat="47.610150" lon="19.007804">
				<ele>331.000000</ele>
			</trkpt>
			<trkpt lat="47.610271" lon="19.007974">
				<ele>332.000000</ele>
			</trkpt>
			<trkpt lat="47.610398" lon="19.008198">
				<ele>334.000000</ele>
			</trkpt>
			<trkpt lat="47.610483" lon="19.008190">
				<ele>335.000000</ele>
			</trkpt>
			<trkpt lat="47.610695" lon="19.008162">
				<ele>339.000000</ele>
			</trkpt>
			<trkpt lat="47.610822" lon="19.008154">
				<ele>341.000000</ele>
			</trkpt>
			<trkpt lat="47.610858" lon="19.008145">
				<ele>341.000000</ele>
			</trkpt>
			<trkpt lat="47.610895" lon="19.008135">
				<ele>342.000000</ele>
			</trkpt>
			<trkpt lat="47.611034" lon="19.008091">
				<ele>343.000000</ele>
			</trkpt>
			<trkpt lat="47.611234" lon="19.008011">
				<ele>345.000000</ele>
			</trkpt>
			<trkpt lat="47.611307" lon="19.007965">
				<ele>346.000000</ele>
			</trkpt>
			<trkpt lat="47.611367" lon="19.007929">
				<ele>346.000000</ele>
			</trkpt>
			<trkpt lat="47.611531" lon="19.007795">
				<ele>349.000000</ele>
			</trkpt>
			<trkpt lat="47.612021" lon="19.007426">
				<ele>353.000000</ele>
			</trkpt>
			<trkpt lat="47.612082" lon="19.007112">
				<ele>355.000000</ele>
			</trkpt>
			<trkpt lat="47.612136" lon="19.006797">
				<ele>358.000000</ele>
			</trkpt>
			<trkpt lat="47.612154" lon="19.006716">
				<ele>359.000000</ele>
			</trkpt>
			<trkpt lat="47.612160" lon="19.006680">
				<ele>360.000000</ele>
			</trkpt>
			<trkpt lat="47.612160" lon="19.006644">
				<ele>360.000000</ele>
			</trkpt>
			<trkpt lat="47.612154" lon="19.006600">
				<ele>360.000000</ele>
			</trkpt>
			<trkpt lat="47.612136" lon="19.006510">
				<ele>361.000000</ele>
			</trkpt>
			<trkpt lat="47.612130" lon="19.006483">
				<ele>362.000000</ele>
			</trkpt>
			<trkpt lat="47.612130" lon="19.006464">
				<ele>362.000000</ele>
			</trkpt>
			<trkpt lat="47.612130" lon="19.006447">
				<ele>362.000000</ele>
			</trkpt>
			<trkpt lat="47.612136" lon="19.006438">
				<ele>362.000000</ele>
			</trkpt>
			<trkpt lat="47.612160" lon="19.006403">
				<ele>363.000000</ele>
			</trkpt>
			<trkpt lat="47.612179" lon="19.006374">
				<ele>363.000000</ele>
			</trkpt>
			<trkpt lat="47.612191" lon="19.006357">
				<ele>363.000000</ele>
			</trkpt>
			<trkpt lat="47.612209" lon="19.006303">
				<ele>364.000000</ele>
			</trkpt>
			<trkpt lat="47.612215" lon="19.006267">
				<ele>364.000000</ele>
			</trkpt>
			<trkpt lat="47.612221" lon="19.006240">
				<ele>365.000000</ele>
			</trkpt>
			<trkpt lat="47.612221" lon="19.006214">
				<ele>365.000000</ele>
			</trkpt>
			<trkpt lat="47.612215" lon="19.006007">
				<ele>368.000000</ele>
			</trkpt>
			<trkpt lat="47.612221" lon="19.005944">
				<ele>369.000000</ele>
			</trkpt>
			<trkpt lat="47.612221" lon="19.005917">
				<ele>369.000000</ele>
			</trkpt>
			<trkpt lat="47.612246" lon="19.005837">
				<ele>370.000000</ele>
			</trkpt>
			<trkpt lat="47.612306" lon="19.005630">
				<ele>373.000000</ele>
			</trkpt>
			<trkpt lat="47.612209" lon="19.005737">
				<ele>371.000000</ele>
			</trkpt>
			<trkpt lat="47.612100" lon="19.005755">
				<ele>369.000000</ele>
			</trkpt>
			<trkpt lat="47.612009" lon="19.005747">
				<ele>365.000000</ele>
			</trkpt>
			<trkpt lat="47.611997" lon="19.005648">
				<ele>366.000000</ele>
			</trkpt>
			<trkpt lat="47.611997" lon="19.005648">
				<ele>366.000000</ele>
			</trkpt>
			<trkpt lat="47.612009" lon="19.005747">
				<ele>365.000000</ele>
			</trkpt>
			<trkpt lat="47.612100" lon="19.005755">
				<ele>369.000000</ele>
			</trkpt>
			<trkpt lat="47.612209" lon="19.005737">
				<ele>371.000000</ele>
			</trkpt>
			<trkpt lat="47.612306" lon="19.005630">
				<ele>373.000000</ele>
			</trkpt>
			<trkpt lat="47.612366" lon="19.005477">
				<ele>376.000000</ele>
			</trkpt>
			<trkpt lat="47.612482" lon="19.005243">
				<ele>379.000000</ele>
			</trkpt>
			<trkpt lat="47.612590" lon="19.005045">
				<ele>381.000000</ele>
			</trkpt>
			<trkpt lat="47.612675" lon="19.004893">
				<ele>382.000000</ele>
			</trkpt>
			<trkpt lat="47.612742" lon="19.004740">
				<ele>382.000000</ele>
			</trkpt>
			<trkpt lat="47.612814" lon="19.004560">
				<ele>384.000000</ele>
			</trkpt>
			<trkpt lat="47.612863" lon="19.004390">
				<ele>386.000000</ele>
			</trkpt>
			<trkpt lat="47.612924" lon="19.004183">
				<ele>388.000000</ele>
			</trkpt>
			<trkpt lat="47.613014" lon="19.003887">
				<ele>391.000000</ele>
			</trkpt>
			<trkpt lat="47.613075" lon="19.003716">
				<ele>392.000000</ele>
			</trkpt>
			<trkpt lat="47.613099" lon="19.003627">
				<ele>392.000000</ele>
			</trkpt>
			<trkpt lat="47.613123" lon="19.003491">
				<ele>393.000000</ele>
			</trkpt>
			<trkpt lat="47.613141" lon="19.003428">
				<ele>393.000000</ele>
			</trkpt>
			<trkpt lat="47.613166" lon="19.003374">
				<ele>393.000000</ele>
			</trkpt>
			<trkpt lat="47.613208" lon="19.003240">
				<ele>394.000000</ele>
			</trkpt>
			<trkpt lat="47.613233" lon="19.003177">
				<ele>394.000000</ele>
			</trkpt>
			<trkpt lat="47.613257" lon="19.003061">
				<ele>395.000000</ele>
			</trkpt>
			<trkpt lat="47.613305" lon="19.002800">
				<ele>397.000000</ele>
			</trkpt>
			<trkpt lat="47.613317" lon="19.002711">
				<ele>397.000000</ele>
			</trkpt>
			<trkpt lat="47.613365" lon="19.002225">
				<ele>400.000000</ele>
			</trkpt>
			<trkpt lat="47.613390" lon="19.001973">
				<ele>400.000000</ele>
			</trkpt>
			<trkpt lat="47.613390" lon="19.001883">
				<ele>401.000000</ele>
			</trkpt>
			<trkpt lat="47.613390" lon="19.001856">
				<ele>401.000000</ele>
			</trkpt>
			<trkpt lat="47.613390" lon="19.001839">
				<ele>401.000000</ele>
			</trkpt>
			<trkpt lat="47.613384" lon="19.001812">
				<ele>401.000000</ele>
			</trkpt>
			<trkpt lat="47.613371" lon="19.001793">
				<ele>401.000000</ele>
			</trkpt>
			<trkpt lat="47.613353" lon="19.001749">
				<ele>401.000000</ele>
			</trkpt>
			<trkpt lat="47.613275" lon="19.001596">
				<ele>401.000000</ele>
			</trkpt>
			<trkpt lat="47.613257" lon="19.001551">
				<ele>401.000000</ele>
			</trkpt>
			<trkpt lat="47.613239" lon="19.001479">
				<ele>400.000000</ele>
			</trkpt>
			<trkpt lat="47.613239" lon="19.001380">
				<ele>400.000000</ele>
			</trkpt>
			<trkpt lat="47.613251" lon="19.001254">
				<ele>400.000000</ele>
			</trkpt>
			<trkpt lat="47.613269" lon="19.001164">
				<ele>400.000000</ele>
			</trkpt>
			<trkpt lat="47.613293" lon="19.001066">
				<ele>401.000000</ele>
			</trkpt>
			<trkpt lat="47.613317" lon="19.000967">
				<ele>401.000000</ele>
			</trkpt>
			<trkpt lat="47.613365" lon="19.000824">
				<ele>401.000000</ele>
			</trkpt>
			<trkpt lat="47.613402" lon="19.000707">
				<ele>401.000000</ele>
			</trkpt>
			<trkpt lat="47.613439" lon="19.000527">
				<ele>400.000000</ele>
			</trkpt>
			<trkpt lat="47.613457" lon="19.000411">
				<ele>400.000000</ele>
			</trkpt>
			<trkpt lat="47.613469" lon="19.000330">
				<ele>399.000000</ele>
			</trkpt>
			<trkpt lat="47.613487" lon="19.000267">
				<ele>399.000000</ele>
			</trkpt>
			<trkpt lat="47.613505" lon="19.000204">
				<ele>399.000000</ele>
			</trkpt>
			<trkpt lat="47.613529" lon="19.000141">
				<ele>398.000000</ele>
			</trkpt>
			<trkpt lat="47.613547" lon="19.000105">
				<ele>398.000000</ele>
			</trkpt>
			<trkpt lat="47.613577" lon="19.000061">
				<ele>398.000000</ele>
			</trkpt>
			<trkpt lat="47.613632" lon="19.000006">
				<ele>399.000000</ele>
			</trkpt>
			<trkpt lat="47.613693" lon="18.999961">
				<ele>399.000000</ele>
			</trkpt>
			<trkpt lat="47.613759" lon="18.999908">
				<ele>400.000000</ele>
			</trkpt>
			<trkpt lat="47.613820" lon="18.999835">
				<ele>400.000000</ele>
			</trkpt>
			<trkpt lat="47.613844" lon="18.999808">
				<ele>400.000000</ele>
			</trkpt>
			<trkpt lat="47.613868" lon="18.999764">
				<ele>400.000000</ele>
			</trkpt>
			<trkpt lat="47.613892" lon="18.999709">
				<ele>400.000000</ele>
			</trkpt>
			<trkpt lat="47.613911" lon="18.999656">
				<ele>399.000000</ele>
			</trkpt>
			<trkpt lat="47.613923" lon="18.999611">
				<ele>399.000000</ele>
			</trkpt>
			<trkpt lat="47.613935" lon="18.999539">
				<ele>399.000000</ele>
			</trkpt>
			<trkpt lat="47.613941" lon="18.999495">
				<ele>399.000000</ele>
			</trkpt>
			<trkpt lat="47.613947" lon="18.999476">
				<ele>399.000000</ele>
			</trkpt>
			<trkpt lat="47.613959" lon="18.999449">
				<ele>399.000000</ele>
			</trkpt>
			<trkpt lat="47.613989" lon="18.999386">
				<ele>399.000000</ele>
			</trkpt>
			<trkpt lat="47.614014" lon="18.999323">
				<ele>399.000000</ele>
			</trkpt>
			<trkpt lat="47.614026" lon="18.999287">
				<ele>399.000000</ele>
			</trkpt>
			<trkpt lat="47.614038" lon="18.999225">
				<ele>399.000000</ele>
			</trkpt>
			<trkpt lat="47.614044" lon="18.999126">
				<ele>398.000000</ele>
			</trkpt>
			<trkpt lat="47.614056" lon="18.999045">
				<ele>398.000000</ele>
			</trkpt>
			<trkpt lat="47.614068" lon="18.999000">
				<ele>398.000000</ele>
			</trkpt>
			<trkpt lat="47.614032" lon="18.998982">
				<ele>396.000000</ele>
			</trkpt>
			<trkpt lat="47.613996" lon="18.998973">
				<ele>395.000000</ele>
			</trkpt>
			<trkpt lat="47.613965" lon="18.998973">
				<ele>393.000000</ele>
			</trkpt>
			<trkpt lat="47.613965" lon="18.998973">
				<ele>393.000000</ele>
			</trkpt>
			<trkpt lat="47.613996" lon="18.998973">
				<ele>395.000000</ele>
			</trkpt>
			<trkpt lat="47.614032" lon="18.998982">
				<ele>396.000000</ele>
			</trkpt>
			<trkpt lat="47.614068" lon="18.999000">
				<ele>398.000000</ele>
			</trkpt>
			<trkpt lat="47.614104" lon="18.998839">
				<ele>397.000000</ele>
			</trkpt>
			<trkpt lat="47.614110" lon="18.998820">
				<ele>396.000000</ele>
			</trkpt>
			<trkpt lat="47.614129" lon="18.998784">
				<ele>397.000000</ele>
			</trkpt>
			<trkpt lat="47.614238" lon="18.998569">
				<ele>398.000000</ele>
			</trkpt>
			<trkpt lat="47.614256" lon="18.998542">
				<ele>398.000000</ele>
			</trkpt>
			<trkpt lat="47.614268" lon="18.998524">
				<ele>398.000000</ele>
			</trkpt>
			<trkpt lat="47.614292" lon="18.998506">
				<ele>399.000000</ele>
			</trkpt>
			<trkpt lat="47.614328" lon="18.998470">
				<ele>400.000000</ele>
			</trkpt>
			<trkpt lat="47.614346" lon="18.998443">
				<ele>400.000000</ele>
			</trkpt>
			<trkpt lat="47.614365" lon="18.998416">
				<ele>401.000000</ele>
			</trkpt>
			<trkpt lat="47.614371" lon="18.998390">
				<ele>400.000000</ele>
			</trkpt>
			<trkpt lat="47.614383" lon="18.998344">
				<ele>400.000000</ele>
			</trkpt>
			<trkpt lat="47.614395" lon="18.998317">
				<ele>400.000000</ele>
			</trkpt>
			<trkpt lat="47.614401" lon="18.998300">
				<ele>400.000000</ele>
			</trkpt>
			<trkpt lat="47.614420" lon="18.998281">
				<ele>401.000000</ele>
			</trkpt>
			<trkpt lat="47.614456" lon="18.998254">
				<ele>402.000000</ele>
			</trkpt>
			<trkpt lat="47.614462" lon="18.998254">
				<ele>402.000000</ele>
			</trkpt>
			<trkpt lat="47.614468" lon="18.998245">
				<ele>403.000000</ele>
			</trkpt>
			<trkpt lat="47.614540" lon="18.998363">
				<ele>406.000000</ele>
			</trkpt>
			<trkpt lat="47.614564" lon="18.998371">
				<ele>407.000000</ele>
			</trkpt>
			<trkpt lat="47.614595" lon="18.998363">
				<ele>407.000000</ele>
			</trkpt>
			<trkpt lat="47.614758" lon="18.998227">
				<ele>407.000000</ele>
			</trkpt>
			<trkpt lat="47.614758" lon="18.998227">
				<ele>407.000000</ele>
			</trkpt>
			<trkpt lat="47.614595" lon="18.998363">
				<ele>407.000000</ele>
			</trkpt>
			<trkpt lat="47.614564" lon="18.998371">
				<ele>407.000000</ele>
			</trkpt>
			<trkpt lat="47.614540" lon="18.998363">
				<ele>406.000000</ele>
			</trkpt>
			<trkpt lat="47.614468" lon="18.998245">
				<ele>403.000000</ele>
			</trkpt>
			<trkpt lat="47.614480" lon="18.998191">
				<ele>402.000000</ele>
			</trkpt>
			<trkpt lat="47.614498" lon="18.998128">
				<ele>401.000000</ele>
			</trkpt>
			<trkpt lat="47.614540" lon="18.998057">
				<ele>402.000000</ele>
			</trkpt>
			<trkpt lat="47.614589" lon="18.997976">
				<ele>402.000000</ele>
			</trkpt>
			<trkpt lat="47.614637" lon="18.997895">
				<ele>403.000000</ele>
			</trkpt>
			<trkpt lat="47.614698" lon="18.997814">
				<ele>404.000000</ele>
			</trkpt>
			<trkpt lat="47.614734" lon="18.997778">
				<ele>404.000000</ele>
			</trkpt>
			<trkpt lat="47.614898" lon="18.997635">
				<ele>407.000000</ele>
			</trkpt>
			<trkpt lat="47.614922" lon="18.997625">
				<ele>407.000000</ele>
			</trkpt>
			<trkpt lat="47.614940" lon="18.997617">
				<ele>408.000000</ele>
			</trkpt>
			<trkpt lat="47.614958" lon="18.997617">
				<ele>408.000000</ele>
			</trkpt>
			<trkpt lat="47.614970" lon="18.997608">
				<ele>408.000000</ele>
			</trkpt>
			<trkpt lat="47.615001" lon="18.997590">
				<ele>408.000000</ele>
			</trkpt>
			<trkpt lat="47.615025" lon="18.997571">
				<ele>409.000000</ele>
			</trkpt>
			<trkpt lat="47.615073" lon="18.997518">
				<ele>409.000000</ele>
			</trkpt>
			<trkpt lat="47.615164" lon="18.997437">
				<ele>409.000000</ele>
			</trkpt>
			<trkpt lat="47.615219" lon="18.997401">
				<ele>410.000000</ele>
			</trkpt>
			<trkpt lat="47.615333" lon="18.997329">
				<ele>411.000000</ele>
			</trkpt>
			<trkpt lat="47.615503" lon="18.997258">
				<ele>412.000000</ele>
			</trkpt>
			<trkpt lat="47.615600" lon="18.997212">
				<ele>411.000000</ele>
			</trkpt>
			<trkpt lat="47.615661" lon="18.997176">
				<ele>411.000000</ele>
			</trkpt>
			<trkpt lat="47.615703" lon="18.997141">
				<ele>411.000000</ele>
			</trkpt>
			<trkpt lat="47.615757" lon="18.997095">
				<ele>411.000000</ele>
			</trkpt>
			<trkpt lat="47.615800" lon="18.997059">
				<ele>411.000000</ele>
			</trkpt>
			<trkpt lat="47.615873" lon="18.997006">
				<ele>411.000000</ele>
			</trkpt>
			<trkpt lat="47.615897" lon="18.996988">
				<ele>410.000000</ele>
			</trkpt>
			<trkpt lat="47.615939" lon="18.996952">
				<ele>410.000000</ele>
			</trkpt>
			<trkpt lat="47.615982" lon="18.996906">
				<ele>410.000000</ele>
			</trkpt>
			<trkpt lat="47.616012" lon="18.996845">
				<ele>409.000000</ele>
			</trkpt>
			<trkpt lat="47.616048" lon="18.996763">
				<ele>409.000000</ele>
			</trkpt>
			<trkpt lat="47.616078" lon="18.996719">
				<ele>408.000000</ele>
			</trkpt>
			<trkpt lat="47.616115" lon="18.996673">
				<ele>408.000000</ele>
			</trkpt>
			<trkpt lat="47.616176" lon="18.996619">
				<ele>408.000000</ele>
			</trkpt>
			<trkpt lat="47.616260" lon="18.996566">
				<ele>409.000000</ele>
			</trkpt>
			<trkpt lat="47.616321" lon="18.996529">
				<ele>409.000000</ele>
			</trkpt>
			<trkpt lat="47.616382" lon="18.996485">
				<ele>409.000000</ele>
			</trkpt>
			<trkpt lat="47.616448" lon="18.996422">
				<ele>409.000000</ele>
			</trkpt>
			<trkpt lat="47.616514" lon="18.996332">
				<ele>410.000000</ele>
			</trkpt>
			<trkpt lat="47.616612" lon="18.996197">
				<ele>409.000000</ele>
			</trkpt>
			<trkpt lat="47.616690" lon="18.996116">
				<ele>408.000000</ele>
			</trkpt>
			<trkpt lat="47.616781" lon="18.996036">
				<ele>408.000000</ele>
			</trkpt>
			<trkpt lat="47.616829" lon="18.996009">
				<ele>407.000000</ele>
			</trkpt>
			<trkpt lat="47.616890" lon="18.995973">
				<ele>407.000000</ele>
			</trkpt>
			<trkpt lat="47.616975" lon="18.995937">
				<ele>406.000000</ele>
			</trkpt>
			<trkpt lat="47.617059" lon="18.995892">
				<ele>407.000000</ele>
			</trkpt>
			<trkpt lat="47.617120" lon="18.995829">
				<ele>407.000000</ele>
			</trkpt>
			<trkpt lat="47.617187" lon="18.995713">
				<ele>408.000000</ele>
			</trkpt>
			<trkpt lat="47.617187" lon="18.995713">
				<ele>408.000000</ele>
			</trkpt>
			<trkpt lat="47.617193" lon="18.995703">
				<ele>408.000000</ele>
			</trkpt>
			<trkpt lat="47.617998" lon="18.994132">
				<ele>414.000000</ele>
			</trkpt>
			<trkpt lat="47.618071" lon="18.993979">
				<ele>414.000000</ele>
			</trkpt>
			<trkpt lat="47.618150" lon="18.993799">
				<ele>416.000000</ele>
			</trkpt>
			<trkpt lat="47.618295" lon="18.993484">
				<ele>417.000000</ele>
			</trkpt>
			<trkpt lat="47.618416" lon="18.993197">
				<ele>420.000000</ele>
			</trkpt>
			<trkpt lat="47.618706" lon="18.992451">
				<ele>426.000000</ele>
			</trkpt>
			<trkpt lat="47.618798" lon="18.992227">
				<ele>427.000000</ele>
			</trkpt>
			<trkpt lat="47.618888" lon="18.991948">
				<ele>428.000000</ele>
			</trkpt>
			<trkpt lat="47.618906" lon="18.991912">
				<ele>428.000000</ele>
			</trkpt>
			<trkpt lat="47.618967" lon="18.991813">
				<ele>429.000000</ele>
			</trkpt>
			<trkpt lat="47.618997" lon="18.991759">
				<ele>429.000000</ele>
			</trkpt>
			<trkpt lat="47.619064" lon="18.991579">
				<ele>431.000000</ele>
			</trkpt>
			<trkpt lat="47.619070" lon="18.991562">
				<ele>431.000000</ele>
			</trkpt>
			<trkpt lat="47.619070" lon="18.991545">
				<ele>431.000000</ele>
			</trkpt>
			<trkpt lat="47.619064" lon="18.991526">
				<ele>431.000000</ele>
			</trkpt>
			<trkpt lat="47.619058" lon="18.991499">
				<ele>431.000000</ele>
			</trkpt>
			<trkpt lat="47.619052" lon="18.991482">
				<ele>431.000000</ele>
			</trkpt>
			<trkpt lat="47.619052" lon="18.991455">
				<ele>431.000000</ele>
			</trkpt>
			<trkpt lat="47.619052" lon="18.991436">
				<ele>431.000000</ele>
			</trkpt>
			<trkpt lat="47.619052" lon="18.991392">
				<ele>431.000000</ele>
			</trkpt>
			<trkpt lat="47.619064" lon="18.991337">
				<ele>432.000000</ele>
			</trkpt>
			<trkpt lat="47.619191" lon="18.990726">
				<ele>438.000000</ele>
			</trkpt>
			<trkpt lat="47.619221" lon="18.990627">
				<ele>439.000000</ele>
			</trkpt>
			<trkpt lat="47.619239" lon="18.990592">
				<ele>439.000000</ele>
			</trkpt>
			<trkpt lat="47.619264" lon="18.990537">
				<ele>440.000000</ele>
			</trkpt>
			<trkpt lat="47.619318" lon="18.990466">
				<ele>442.000000</ele>
			</trkpt>
			<trkpt lat="47.619379" lon="18.990403">
				<ele>443.000000</ele>
			</trkpt>
			<trkpt lat="47.619397" lon="18.990376">
				<ele>444.000000</ele>
			</trkpt>
			<trkpt lat="47.619421" lon="18.990340">
				<ele>444.000000</ele>
			</trkpt>
			<trkpt lat="47.619439" lon="18.990304">
				<ele>445.000000</ele>
			</trkpt>
			<trkpt lat="47.619457" lon="18.990250">
				<ele>445.000000</ele>
			</trkpt>
			<trkpt lat="47.619482" lon="18.990197">
				<ele>446.000000</ele>
			</trkpt>
			<trkpt lat="47.619494" lon="18.990134">
				<ele>446.000000</ele>
			</trkpt>
			<trkpt lat="47.619530" lon="18.990008">
				<ele>447.000000</ele>
			</trkpt>
			<trkpt lat="47.619555" lon="18.989900">
				<ele>447.000000</ele>
			</trkpt>
			<trkpt lat="47.619579" lon="18.989819">
				<ele>448.000000</ele>
			</trkpt>
			<trkpt lat="47.619621" lon="18.989729">
				<ele>449.000000</ele>
			</trkpt>
			<trkpt lat="47.619857" lon="18.989424">
				<ele>453.000000</ele>
			</trkpt>
			<trkpt lat="47.619863" lon="18.989415">
				<ele>454.000000</ele>
			</trkpt>
			<trkpt lat="47.619869" lon="18.989397">
				<ele>454.000000</ele>
			</trkpt>
			<trkpt lat="47.619869" lon="18.989379">
				<ele>454.000000</ele>
			</trkpt>
			<trkpt lat="47.619875" lon="18.989371">
				<ele>454.000000</ele>
			</trkpt>
			<trkpt lat="47.619875" lon="18.989352">
				<ele>454.000000</ele>
			</trkpt>
			<trkpt lat="47.619869" lon="18.989342">
				<ele>454.000000</ele>
			</trkpt>
			<trkpt lat="47.619869" lon="18.989334">
				<ele>454.000000</ele>
			</trkpt>
			<trkpt lat="47.619869" lon="18.989325">
				<ele>454.000000</ele>
			</trkpt>
			<trkpt lat="47.619863" lon="18.989325">
				<ele>454.000000</ele>
			</trkpt>
			<trkpt lat="47.619851" lon="18.989308">
				<ele>454.000000</ele>
			</trkpt>
			<trkpt lat="47.619833" lon="18.989289">
				<ele>453.000000</ele>
			</trkpt>
			<trkpt lat="47.619827" lon="18.989281">
				<ele>453.000000</ele>
			</trkpt>
			<trkpt lat="47.619821" lon="18.989271">
				<ele>453.000000</ele>
			</trkpt>
			<trkpt lat="47.619821" lon="18.989262">
				<ele>453.000000</ele>
			</trkpt>
			<trkpt lat="47.619815" lon="18.989235">
				<ele>453.000000</ele>
			</trkpt>
			<trkpt lat="47.619815" lon="18.989218">
				<ele>453.000000</ele>
			</trkpt>
			<trkpt lat="47.619815" lon="18.989199">
				<ele>453.000000</ele>
			</trkpt>
			<trkpt lat="47.619815" lon="18.989191">
				<ele>453.000000</ele>
			</trkpt>
			<trkpt lat="47.619821" lon="18.989172">
				<ele>453.000000</ele>
			</trkpt>
			<trkpt lat="47.619827" lon="18.989145">
				<ele>453.000000</ele>
			</trkpt>
			<trkpt lat="47.619833" lon="18.989128">
				<ele>454.000000</ele>
			</trkpt>
			<trkpt lat="47.619839" lon="18.989118">
				<ele>454.000000</ele>
			</trkpt>
			<trkpt lat="47.619851" lon="18.989101">
				<ele>454.000000</ele>
			</trkpt>
			<trkpt lat="47.619851" lon="18.989101">
				<ele>454.000000</ele>
			</trkpt>
			<trkpt lat="47.619851" lon="18.989101">
				<ele>454.000000</ele>
			</trkpt>
			<trkpt lat="47.619857" lon="18.989092">
				<ele>455.000000</ele>
			</trkpt>
			<trkpt lat="47.619875" lon="18.989082">
				<ele>455.000000</ele>
			</trkpt>
			<trkpt lat="47.619899" lon="18.989065">
				<ele>456.000000</ele>
			</trkpt>
			<trkpt lat="47.619911" lon="18.989055">
				<ele>456.000000</ele>
			</trkpt>
			<trkpt lat="47.620015" lon="18.989038">
				<ele>459.000000</ele>
			</trkpt>
			<trkpt lat="47.620045" lon="18.989029">
				<ele>460.000000</ele>
			</trkpt>
			<trkpt lat="47.620051" lon="18.989019">
				<ele>460.000000</ele>
			</trkpt>
			<trkpt lat="47.620063" lon="18.989019">
				<ele>461.000000</ele>
			</trkpt>
			<trkpt lat="47.620075" lon="18.989002">
				<ele>461.000000</ele>
			</trkpt>
			<trkpt lat="47.620087" lon="18.988992">
				<ele>461.000000</ele>
			</trkpt>
			<trkpt lat="47.620093" lon="18.988975">
				<ele>462.000000</ele>
			</trkpt>
			<trkpt lat="47.620099" lon="18.988956">
				<ele>462.000000</ele>
			</trkpt>
			<trkpt lat="47.620123" lon="18.988895">
				<ele>462.000000</ele>
			</trkpt>
			<trkpt lat="47.620123" lon="18.988876">
				<ele>463.000000</ele>
			</trkpt>
			<trkpt lat="47.620123" lon="18.988858">
				<ele>463.000000</ele>
			</trkpt>
			<trkpt lat="47.620129" lon="18.988840">
				<ele>463.000000</ele>
			</trkpt>
			<trkpt lat="47.620135" lon="18.988805">
				<ele>463.000000</ele>
			</trkpt>
			<trkpt lat="47.620141" lon="18.988786">
				<ele>463.000000</ele>
			</trkpt>
			<trkpt lat="47.620147" lon="18.988777">
				<ele>463.000000</ele>
			</trkpt>
			<trkpt lat="47.620160" lon="18.988750">
				<ele>464.000000</ele>
			</trkpt>
			<trkpt lat="47.620166" lon="18.988732">
				<ele>464.000000</ele>
			</trkpt>
			<trkpt lat="47.620172" lon="18.988723">
				<ele>464.000000</ele>
			</trkpt>
			<trkpt lat="47.620202" lon="18.988687">
				<ele>465.000000</ele>
			</trkpt>
			<trkpt lat="47.620245" lon="18.988660">
				<ele>466.000000</ele>
			</trkpt>
			<trkpt lat="47.620269" lon="18.988633">
				<ele>467.000000</ele>
			</trkpt>
			<trkpt lat="47.620287" lon="18.988597">
				<ele>468.000000</ele>
			</trkpt>
			<trkpt lat="47.620305" lon="18.988543">
				<ele>468.000000</ele>
			</trkpt>
			<trkpt lat="47.620323" lon="18.988480">
				<ele>469.000000</ele>
			</trkpt>
			<trkpt lat="47.620347" lon="18.988445">
				<ele>470.000000</ele>
			</trkpt>
			<trkpt lat="47.620378" lon="18.988390">
				<ele>471.000000</ele>
			</trkpt>
			<trkpt lat="47.620432" lon="18.988337">
				<ele>473.000000</ele>
			</trkpt>
			<trkpt lat="47.620463" lon="18.988310">
				<ele>474.000000</ele>
			</trkpt>
			<trkpt lat="47.620487" lon="18.988283">
				<ele>475.000000</ele>
			</trkpt>
			<trkpt lat="47.620505" lon="18.988256">
				<ele>475.000000</ele>
			</trkpt>
			<trkpt lat="47.620517" lon="18.988229">
				<ele>475.000000</ele>
			</trkpt>
			<trkpt lat="47.620529" lon="18.988203">
				<ele>476.000000</ele>
			</trkpt>
			<trkpt lat="47.620535" lon="18.988176">
				<ele>476.000000</ele>
			</trkpt>
			<trkpt lat="47.620547" lon="18.988121">
				<ele>476.000000</ele>
			</trkpt>
			<trkpt lat="47.620559" lon="18.988067">
				<ele>477.000000</ele>
			</trkpt>
			<trkpt lat="47.620578" lon="18.988013">
				<ele>477.000000</ele>
			</trkpt>
			<trkpt lat="47.620602" lon="18.987960">
				<ele>478.000000</ele>
			</trkpt>
			<trkpt lat="47.620626" lon="18.987914">
				<ele>479.000000</ele>
			</trkpt>
			<trkpt lat="47.620644" lon="18.987861">
				<ele>479.000000</ele>
			</trkpt>
			<trkpt lat="47.620662" lon="18.987797">
				<ele>480.000000</ele>
			</trkpt>
			<trkpt lat="47.620668" lon="18.987734">
				<ele>480.000000</ele>
			</trkpt>
			<trkpt lat="47.620674" lon="18.987654">
				<ele>479.000000</ele>
			</trkpt>
			<trkpt lat="47.620693" lon="18.987591">
				<ele>479.000000</ele>
			</trkpt>
			<trkpt lat="47.620705" lon="18.987547">
				<ele>479.000000</ele>
			</trkpt>
			<trkpt lat="47.620729" lon="18.987511">
				<ele>480.000000</ele>
			</trkpt>
			<trkpt lat="47.620759" lon="18.987493">
				<ele>481.000000</ele>
			</trkpt>
			<trkpt lat="47.620790" lon="18.987457">
				<ele>482.000000</ele>
			</trkpt>
			<trkpt lat="47.620814" lon="18.987421">
				<ele>483.000000</ele>
			</trkpt>
			<trkpt lat="47.620874" lon="18.987331">
				<ele>485.000000</ele>
			</trkpt>
			<trkpt lat="47.620898" lon="18.987304">
				<ele>486.000000</ele>
			</trkpt>
			<trkpt lat="47.620965" lon="18.987258">
				<ele>489.000000</ele>
			</trkpt>
			<trkpt lat="47.621014" lon="18.987224">
				<ele>491.000000</ele>
			</trkpt>
			<trkpt lat="47.621044" lon="18.987205">
				<ele>492.000000</ele>
			</trkpt>
			<trkpt lat="47.621110" lon="18.987178">
				<ele>495.000000</ele>
			</trkpt>
			<trkpt lat="47.621153" lon="18.987160">
				<ele>497.000000</ele>
			</trkpt>
			<trkpt lat="47.621159" lon="18.987151">
				<ele>497.000000</ele>
			</trkpt>
			<trkpt lat="47.621165" lon="18.987142">
				<ele>497.000000</ele>
			</trkpt>
			<trkpt lat="47.621171" lon="18.987124">
				<ele>497.000000</ele>
			</trkpt>
			<trkpt lat="47.621177" lon="18.987097">
				<ele>498.000000</ele>
			</trkpt>
			<trkpt lat="47.621183" lon="18.987079">
				<ele>498.000000</ele>
			</trkpt>
			<trkpt lat="47.621195" lon="18.987052">
				<ele>498.000000</ele>
			</trkpt>
			<trkpt lat="47.621346" lon="18.986872">
				<ele>503.000000</ele>
			</trkpt>
			<trkpt lat="47.621438" lon="18.986810">
				<ele>506.000000</ele>
			</trkpt>
			<trkpt lat="47.621468" lon="18.986792">
				<ele>506.000000</ele>
			</trkpt>
			<trkpt lat="47.621492" lon="18.986782">
				<ele>507.000000</ele>
			</trkpt>
			<trkpt lat="47.621510" lon="18.986755">
				<ele>507.000000</ele>
			</trkpt>
			<trkpt lat="47.621528" lon="18.986729">
				<ele>508.000000</ele>
			</trkpt>
			<trkpt lat="47.621558" lon="18.986675">
				<ele>509.000000</ele>
			</trkpt>
			<trkpt lat="47.621576" lon="18.986631">
				<ele>510.000000</ele>
			</trkpt>
			<trkpt lat="47.621576" lon="18.986595">
				<ele>510.000000</ele>
			</trkpt>
			<trkpt lat="47.621576" lon="18.986541">
				<ele>511.000000</ele>
			</trkpt>
			<trkpt lat="47.621576" lon="18.986505">
				<ele>511.000000</ele>
			</trkpt>
			<trkpt lat="47.621583" lon="18.986478">
				<ele>511.000000</ele>
			</trkpt>
			<trkpt lat="47.621589" lon="18.986459">
				<ele>512.000000</ele>
			</trkpt>
			<trkpt lat="47.621613" lon="18.986415">
				<ele>513.000000</ele>
			</trkpt>
			<trkpt lat="47.621625" lon="18.986379">
				<ele>513.000000</ele>
			</trkpt>
			<trkpt lat="47.621631" lon="18.986342">
				<ele>514.000000</ele>
			</trkpt>
			<trkpt lat="47.621637" lon="18.986325">
				<ele>514.000000</ele>
			</trkpt>
			<trkpt lat="47.621643" lon="18.986306">
				<ele>514.000000</ele>
			</trkpt>
			<trkpt lat="47.621661" lon="18.986271">
				<ele>514.000000</ele>
			</trkpt>
			<trkpt lat="47.621698" lon="18.986208">
				<ele>515.000000</ele>
			</trkpt>
			<trkpt lat="47.621710" lon="18.986163">
				<ele>515.000000</ele>
			</trkpt>
			<trkpt lat="47.621722" lon="18.986126">
				<ele>515.000000</ele>
			</trkpt>
			<trkpt lat="47.621734" lon="18.986055">
				<ele>516.000000</ele>
			</trkpt>
			<trkpt lat="47.621734" lon="18.986019">
				<ele>516.000000</ele>
			</trkpt>
			<trkpt lat="47.621740" lon="18.985956">
				<ele>515.000000</ele>
			</trkpt>
			<trkpt lat="47.621746" lon="18.985912">
				<ele>514.000000</ele>
			</trkpt>
			<trkpt lat="47.621752" lon="18.985893">
				<ele>514.000000</ele>
			</trkpt>
			<trkpt lat="47.621758" lon="18.985885">
				<ele>514.000000</ele>
			</trkpt>
			<trkpt lat="47.621698" lon="18.985839">
				<ele>511.000000</ele>
			</trkpt>
			<trkpt lat="47.621668" lon="18.985795">
				<ele>509.000000</ele>
			</trkpt>
			<trkpt lat="47.621668" lon="18.985795">
				<ele>509.000000</ele>
			</trkpt>
			<trkpt lat="47.621698" lon="18.985839">
				<ele>511.000000</ele>
			</trkpt>
			<trkpt lat="47.621758" lon="18.985885">
				<ele>514.000000</ele>
			</trkpt>
			<trkpt lat="47.621770" lon="18.985885">
				<ele>515.000000</ele>
			</trkpt>
			<trkpt lat="47.621946" lon="18.985893">
				<ele>520.000000</ele>
			</trkpt>
			<trkpt lat="47.621982" lon="18.985893">
				<ele>521.000000</ele>
			</trkpt>
			<trkpt lat="47.621988" lon="18.985893">
				<ele>521.000000</ele>
			</trkpt>
			<trkpt lat="47.621988" lon="18.985885">
				<ele>521.000000</ele>
			</trkpt>
			<trkpt lat="47.621995" lon="18.985885">
				<ele>521.000000</ele>
			</trkpt>
			<trkpt lat="47.622007" lon="18.985858">
				<ele>521.000000</ele>
			</trkpt>
			<trkpt lat="47.622025" lon="18.985822">
				<ele>522.000000</ele>
			</trkpt>
			<trkpt lat="47.622073" lon="18.985750">
				<ele>523.000000</ele>
			</trkpt>
			<trkpt lat="47.622103" lon="18.985713">
				<ele>524.000000</ele>
			</trkpt>
			<trkpt lat="47.622195" lon="18.985642">
				<ele>526.000000</ele>
			</trkpt>
			<trkpt lat="47.622231" lon="18.985616">
				<ele>527.000000</ele>
			</trkpt>
			<trkpt lat="47.622243" lon="18.985606">
				<ele>527.000000</ele>
			</trkpt>
			<trkpt lat="47.622255" lon="18.985579">
				<ele>527.000000</ele>
			</trkpt>
			<trkpt lat="47.622267" lon="18.985561">
				<ele>527.000000</ele>
			</trkpt>
			<trkpt lat="47.622279" lon="18.985526">
				<ele>527.000000</ele>
			</trkpt>
			<trkpt lat="47.622291" lon="18.985516">
				<ele>527.000000</ele>
			</trkpt>
			<trkpt lat="47.622327" lon="18.985463">
				<ele>528.000000</ele>
			</trkpt>
			<trkpt lat="47.622351" lon="18.985444">
				<ele>528.000000</ele>
			</trkpt>
			<trkpt lat="47.622388" lon="18.985426">
				<ele>529.000000</ele>
			</trkpt>
			<trkpt lat="47.622406" lon="18.985409">
				<ele>529.000000</ele>
			</trkpt>
			<trkpt lat="47.622431" lon="18.985381">
				<ele>530.000000</ele>
			</trkpt>
			<trkpt lat="47.622461" lon="18.985346">
				<ele>530.000000</ele>
			</trkpt>
			<trkpt lat="47.622485" lon="18.985310">
				<ele>531.000000</ele>
			</trkpt>
			<trkpt lat="47.622509" lon="18.985256">
				<ele>530.000000</ele>
			</trkpt>
			<trkpt lat="47.622533" lon="18.985174">
				<ele>530.000000</ele>
			</trkpt>
			<trkpt lat="47.622557" lon="18.985113">
				<ele>529.000000</ele>
			</trkpt>
			<trkpt lat="47.622581" lon="18.985050">
				<ele>529.000000</ele>
			</trkpt>
			<trkpt lat="47.622600" lon="18.985013">
				<ele>529.000000</ele>
			</trkpt>
			<trkpt lat="47.622624" lon="18.984960">
				<ele>528.000000</ele>
			</trkpt>
			<trkpt lat="47.622751" lon="18.984788">
				<ele>528.000000</ele>
			</trkpt>
			<trkpt lat="47.622763" lon="18.984771">
				<ele>528.000000</ele>
			</trkpt>
			<trkpt lat="47.622763" lon="18.984771">
				<ele>528.000000</ele>
			</trkpt>
			<trkpt lat="47.622763" lon="18.984771">
				<ele>528.000000</ele>
			</trkpt>
			<trkpt lat="47.622781" lon="18.984761">
				<ele>528.000000</ele>
			</trkpt>
			<trkpt lat="47.622793" lon="18.984753">
				<ele>528.000000</ele>
			</trkpt>
			<trkpt lat="47.622799" lon="18.984753">
				<ele>529.000000</ele>
			</trkpt>
			<trkpt lat="47.622860" lon="18.984744">
				<ele>530.000000</ele>
			</trkpt>
			<trkpt lat="47.622897" lon="18.984753">
				<ele>531.000000</ele>
			</trkpt>
			<trkpt lat="47.622927" lon="18.984753">
				<ele>532.000000</ele>
			</trkpt>
			<trkpt lat="47.622951" lon="18.984753">
				<ele>532.000000</ele>
			</trkpt>
			<trkpt lat="47.622969" lon="18.984734">
				<ele>532.000000</ele>
			</trkpt>
			<trkpt lat="47.623030" lon="18.984654">
				<ele>532.000000</ele>
			</trkpt>
			<trkpt lat="47.623181" lon="18.984447">
				<ele>530.000000</ele>
			</trkpt>
			<trkpt lat="47.623224" lon="18.984394">
				<ele>529.000000</ele>
			</trkpt>
			<trkpt lat="47.623236" lon="18.984375">
				<ele>529.000000</ele>
			</trkpt>
			<trkpt lat="47.623272" lon="18.984348">
				<ele>529.000000</ele>
			</trkpt>
			<trkpt lat="47.623308" lon="18.984331">
				<ele>529.000000</ele>
			</trkpt>
			<trkpt lat="47.623345" lon="18.984304">
				<ele>529.000000</ele>
			</trkpt>
			<trkpt lat="47.623357" lon="18.984295">
				<ele>529.000000</ele>
			</trkpt>
			<trkpt lat="47.623369" lon="18.984277">
				<ele>529.000000</ele>
			</trkpt>
			<trkpt lat="47.623393" lon="18.984241">
				<ele>528.000000</ele>
			</trkpt>
			<trkpt lat="47.623411" lon="18.984214">
				<ele>528.000000</ele>
			</trkpt>
			<trkpt lat="47.623436" lon="18.984187">
				<ele>528.000000</ele>
			</trkpt>
			<trkpt lat="47.623466" lon="18.984168">
				<ele>528.000000</ele>
			</trkpt>
			<trkpt lat="47.623502" lon="18.984160">
				<ele>528.000000</ele>
			</trkpt>
			<trkpt lat="47.623538" lon="18.984142">
				<ele>528.000000</ele>
			</trkpt>
			<trkpt lat="47.623575" lon="18.984105">
				<ele>527.000000</ele>
			</trkpt>
			<trkpt lat="47.623605" lon="18.984071">
				<ele>527.000000</ele>
			</trkpt>
			<trkpt lat="47.623648" lon="18.983962">
				<ele>526.000000</ele>
			</trkpt>
			<trkpt lat="47.623684" lon="18.983863">
				<ele>524.000000</ele>
			</trkpt>
			<trkpt lat="47.623696" lon="18.983845">
				<ele>524.000000</ele>
			</trkpt>
			<trkpt lat="47.623714" lon="18.983809">
				<ele>523.000000</ele>
			</trkpt>
			<trkpt lat="47.623738" lon="18.983773">
				<ele>523.000000</ele>
			</trkpt>
			<trkpt lat="47.623920" lon="18.983558">
				<ele>522.000000</ele>
			</trkpt>
			<trkpt lat="47.623938" lon="18.983531">
				<ele>521.000000</ele>
			</trkpt>
			<trkpt lat="47.623950" lon="18.983495">
				<ele>521.000000</ele>
			</trkpt>
			<trkpt lat="47.623980" lon="18.983396">
				<ele>519.000000</ele>
			</trkpt>
			<trkpt lat="47.623998" lon="18.983360">
				<ele>519.000000</ele>
			</trkpt>
			<trkpt lat="47.624023" lon="18.983333">
				<ele>519.000000</ele>
			</trkpt>
			<trkpt lat="47.624059" lon="18.983306">
				<ele>519.000000</ele>
			</trkpt>
			<trkpt lat="47.624084" lon="18.983289">
				<ele>519.000000</ele>
			</trkpt>
			<trkpt lat="47.624096" lon="18.983270">
				<ele>519.000000</ele>
			</trkpt>
			<trkpt lat="47.624102" lon="18.983243">
				<ele>519.000000</ele>
			</trkpt>
			<trkpt lat="47.624132" lon="18.983153">
				<ele>518.000000</ele>
			</trkpt>
			<trkpt lat="47.624144" lon="18.983126">
				<ele>518.000000</ele>
			</trkpt>
			<trkpt lat="47.624156" lon="18.983109">
				<ele>517.000000</ele>
			</trkpt>
			<trkpt lat="47.624186" lon="18.983082">
				<ele>517.000000</ele>
			</trkpt>
			<trkpt lat="47.624198" lon="18.983073">
				<ele>517.000000</ele>
			</trkpt>
			<trkpt lat="47.624210" lon="18.983055">
				<ele>517.000000</ele>
			</trkpt>
			<trkpt lat="47.624222" lon="18.983029">
				<ele>517.000000</ele>
			</trkpt>
			<trkpt lat="47.624222" lon="18.983010">
				<ele>516.000000</ele>
			</trkpt>
			<trkpt lat="47.624234" lon="18.982956">
				<ele>516.000000</ele>
			</trkpt>
			<trkpt lat="47.624240" lon="18.982929">
				<ele>515.000000</ele>
			</trkpt>
			<trkpt lat="47.624253" lon="18.982884">
				<ele>515.000000</ele>
			</trkpt>
			<trkpt lat="47.624277" lon="18.982839">
				<ele>514.000000</ele>
			</trkpt>
			<trkpt lat="47.624289" lon="18.982813">
				<ele>514.000000</ele>
			</trkpt>
			<trkpt lat="47.624326" lon="18.982750">
				<ele>514.000000</ele>
			</trkpt>
			<trkpt lat="47.624332" lon="18.982740">
				<ele>514.000000</ele>
			</trkpt>
			<trkpt lat="47.624332" lon="18.982740">
				<ele>514.000000</ele>
			</trkpt>
			<trkpt lat="47.624465" lon="18.982552">
				<ele>512.000000</ele>
			</trkpt>
			<trkpt lat="47.624483" lon="18.982524">
				<ele>512.000000</ele>
			</trkpt>
			<trkpt lat="47.624507" lon="18.982480">
				<ele>512.000000</ele>
			</trkpt>
			<trkpt lat="47.624519" lon="18.982444">
				<ele>511.000000</ele>
			</trkpt>
			<trkpt lat="47.624531" lon="18.982408">
				<ele>511.000000</ele>
			</trkpt>
			<trkpt lat="47.624550" lon="18.982390">
				<ele>511.000000</ele>
			</trkpt>
			<trkpt lat="47.624580" lon="18.982381">
				<ele>511.000000</ele>
			</trkpt>
			<trkpt lat="47.624604" lon="18.982363">
				<ele>511.000000</ele>
			</trkpt>
			<trkpt lat="47.624616" lon="18.982337">
				<ele>511.000000</ele>
			</trkpt>
			<trkpt lat="47.624622" lon="18.982300">
				<ele>510.000000</ele>
			</trkpt>
			<trkpt lat="47.624622" lon="18.982174">
				<ele>508.000000</ele>
			</trkpt>
			<trkpt lat="47.624628" lon="18.982147">
				<ele>507.000000</ele>
			</trkpt>
			<trkpt lat="47.624640" lon="18.982103">
				<ele>506.000000</ele>
			</trkpt>
			<trkpt lat="47.624664" lon="18.982067">
				<ele>506.000000</ele>
			</trkpt>
			<trkpt lat="47.624713" lon="18.981995">
				<ele>505.000000</ele>
			</trkpt>
			<trkpt lat="47.624792" lon="18.981923">
				<ele>505.000000</ele>
			</trkpt>
			<trkpt lat="47.624816" lon="18.981897">
				<ele>505.000000</ele>
			</trkpt>
			<trkpt lat="47.624834" lon="18.981851">
				<ele>504.000000</ele>
			</trkpt>
			<trkpt lat="47.624852" lon="18.981807">
				<ele>503.000000</ele>
			</trkpt>
			<trkpt lat="47.624889" lon="18.981725">
				<ele>501.000000</ele>
			</trkpt>
			<trkpt lat="47.624925" lon="18.981645">
				<ele>499.000000</ele>
			</trkpt>
			<trkpt lat="47.624997" lon="18.981510">
				<ele>497.000000</ele>
			</trkpt>
			<trkpt lat="47.625034" lon="18.981429">
				<ele>496.000000</ele>
			</trkpt>
			<trkpt lat="47.625058" lon="18.981358">
				<ele>494.000000</ele>
			</trkpt>
			<trkpt lat="47.625070" lon="18.981294">
				<ele>493.000000</ele>
			</trkpt>
			<trkpt lat="47.625082" lon="18.981268">
				<ele>492.000000</ele>
			</trkpt>
			<trkpt lat="47.625107" lon="18.981249">
				<ele>492.000000</ele>
			</trkpt>
			<trkpt lat="47.625131" lon="18.981213">
				<ele>491.000000</ele>
			</trkpt>
			<trkpt lat="47.625137" lon="18.981205">
				<ele>491.000000</ele>
			</trkpt>
			<trkpt lat="47.625143" lon="18.981195">
				<ele>491.000000</ele>
			</trkpt>
			<trkpt lat="47.625221" lon="18.980935">
				<ele>486.000000</ele>
			</trkpt>
			<trkpt lat="47.625234" lon="18.980916">
				<ele>486.000000</ele>
			</trkpt>
			<trkpt lat="47.625252" lon="18.980881">
				<ele>486.000000</ele>
			</trkpt>
			<trkpt lat="47.625295" lon="18.980818">
				<ele>484.000000</ele>
			</trkpt>
			<trkpt lat="47.625319" lon="18.980773">
				<ele>483.000000</ele>
			</trkpt>
			<trkpt lat="47.625331" lon="18.980719">
				<ele>482.000000</ele>
			</trkpt>
			<trkpt lat="47.625349" lon="18.980513">
				<ele>477.000000</ele>
			</trkpt>
			<trkpt lat="47.625361" lon="18.980468">
				<ele>475.000000</ele>
			</trkpt>
			<trkpt lat="47.625379" lon="18.980413">
				<ele>474.000000</ele>
			</trkpt>
			<trkpt lat="47.625409" lon="18.980360">
				<ele>473.000000</ele>
			</trkpt>
			<trkpt lat="47.625555" lon="18.980189">
				<ele>470.000000</ele>
			</trkpt>
			<trkpt lat="47.625573" lon="18.980163">
				<ele>470.000000</ele>
			</trkpt>
			<trkpt lat="47.625585" lon="18.980126">
				<ele>469.000000</ele>
			</trkpt>
			<trkpt lat="47.625609" lon="18.980046">
				<ele>467.000000</ele>
			</trkpt>
			<trkpt lat="47.625639" lon="18.979920">
				<ele>465.000000</ele>
			</trkpt>
			<trkpt lat="47.625663" lon="18.979847">
				<ele>464.000000</ele>
			</trkpt>
			<trkpt lat="47.625706" lon="18.979750">
				<ele>463.000000</ele>
			</trkpt>
			<trkpt lat="47.625761" lon="18.979633">
				<ele>461.000000</ele>
			</trkpt>
			<trkpt lat="47.625827" lon="18.979534">
				<ele>460.000000</ele>
			</trkpt>
			<trkpt lat="47.625851" lon="18.979471">
				<ele>459.000000</ele>
			</trkpt>
			<trkpt lat="47.625863" lon="18.979444">
				<ele>458.000000</ele>
			</trkpt>
			<trkpt lat="47.625875" lon="18.979390">
				<ele>457.000000</ele>
			</trkpt>
			<trkpt lat="47.625881" lon="18.979371">
				<ele>457.000000</ele>
			</trkpt>
			<trkpt lat="47.625893" lon="18.979345">
				<ele>456.000000</ele>
			</trkpt>
			<trkpt lat="47.625899" lon="18.979327">
				<ele>456.000000</ele>
			</trkpt>
			<trkpt lat="47.625924" lon="18.979300">
				<ele>456.000000</ele>
			</trkpt>
			<trkpt lat="47.625954" lon="18.979264">
				<ele>455.000000</ele>
			</trkpt>
			<trkpt lat="47.626009" lon="18.979228">
				<ele>455.000000</ele>
			</trkpt>
			<trkpt lat="47.626051" lon="18.979218">
				<ele>454.000000</ele>
			</trkpt>
			<trkpt lat="47.626063" lon="18.979210">
				<ele>454.000000</ele>
			</trkpt>
			<trkpt lat="47.626075" lon="18.979192">
				<ele>454.000000</ele>
			</trkpt>
			<trkpt lat="47.626111" lon="18.979138">
				<ele>453.000000</ele>
			</trkpt>
			<trkpt lat="47.626148" lon="18.979067">
				<ele>452.000000</ele>
			</trkpt>
			<trkpt lat="47.626196" lon="18.978922">
				<ele>450.000000</ele>
			</trkpt>
			<trkpt lat="47.626227" lon="18.978815">
				<ele>448.000000</ele>
			</trkpt>
			<trkpt lat="47.626233" lon="18.978734">
				<ele>447.000000</ele>
			</trkpt>
			<trkpt lat="47.626239" lon="18.978653">
				<ele>446.000000</ele>
			</trkpt>
			<trkpt lat="47.626251" lon="18.978599">
				<ele>445.000000</ele>
			</trkpt>
			<trkpt lat="47.626257" lon="18.978563">
				<ele>445.000000</ele>
			</trkpt>
			<trkpt lat="47.626281" lon="18.978518">
				<ele>444.000000</ele>
			</trkpt>
			<trkpt lat="47.626311" lon="18.978473">
				<ele>444.000000</ele>
			</trkpt>
			<trkpt lat="47.626342" lon="18.978419">
				<ele>443.000000</ele>
			</trkpt>
			<trkpt lat="47.626360" lon="18.978383">
				<ele>443.000000</ele>
			</trkpt>
			<trkpt lat="47.626384" lon="18.978329">
				<ele>442.000000</ele>
			</trkpt>
			<trkpt lat="47.626408" lon="18.978258">
				<ele>442.000000</ele>
			</trkpt>
			<trkpt lat="47.626432" lon="18.978176">
				<ele>441.000000</ele>
			</trkpt>
			<trkpt lat="47.626741" lon="18.977090">
				<ele>435.000000</ele>
			</trkpt>
			<trkpt lat="47.626741" lon="18.977054">
				<ele>434.000000</ele>
			</trkpt>
			<trkpt lat="47.626747" lon="18.976991">
				<ele>434.000000</ele>
			</trkpt>
			<trkpt lat="47.626753" lon="18.976947">
				<ele>434.000000</ele>
			</trkpt>
			<trkpt lat="47.626778" lon="18.976857">
				<ele>434.000000</ele>
			</trkpt>
			<trkpt lat="47.626790" lon="18.976838">
				<ele>434.000000</ele>
			</trkpt>
			<trkpt lat="47.626790" lon="18.976838">
				<ele>434.000000</ele>
			</trkpt>
			<trkpt lat="47.626796" lon="18.976821">
				<ele>434.000000</ele>
			</trkpt>
			<trkpt lat="47.626814" lon="18.976784">
				<ele>434.000000</ele>
			</trkpt>
			<trkpt lat="47.626832" lon="18.976748">
				<ele>434.000000</ele>
			</trkpt>
			<trkpt lat="47.626856" lon="18.976614">
				<ele>434.000000</ele>
			</trkpt>
			<trkpt lat="47.626868" lon="18.976479">
				<ele>434.000000</ele>
			</trkpt>
			<trkpt lat="47.626862" lon="18.976281">
				<ele>433.000000</ele>
			</trkpt>
			<trkpt lat="47.626886" lon="18.976102">
				<ele>433.000000</ele>
			</trkpt>
			<trkpt lat="47.626923" lon="18.975913">
				<ele>433.000000</ele>
			</trkpt>
			<trkpt lat="47.626959" lon="18.975769">
				<ele>434.000000</ele>
			</trkpt>
			<trkpt lat="47.627014" lon="18.975644">
				<ele>435.000000</ele>
			</trkpt>
			<trkpt lat="47.627050" lon="18.975536">
				<ele>436.000000</ele>
			</trkpt>
			<trkpt lat="47.627068" lon="18.975410">
				<ele>437.000000</ele>
			</trkpt>
			<trkpt lat="47.627086" lon="18.975302">
				<ele>437.000000</ele>
			</trkpt>
			<trkpt lat="47.627129" lon="18.975230">
				<ele>438.000000</ele>
			</trkpt>
			<trkpt lat="47.627177" lon="18.975186">
				<ele>439.000000</ele>
			</trkpt>
			<trkpt lat="47.627244" lon="18.975060">
				<ele>441.000000</ele>
			</trkpt>
			<trkpt lat="47.627292" lon="18.974926">
				<ele>441.000000</ele>
			</trkpt>
			<trkpt lat="47.627322" lon="18.974863">
				<ele>442.000000</ele>
			</trkpt>
			<trkpt lat="47.627383" lon="18.974817">
				<ele>443.000000</ele>
			</trkpt>
			<trkpt lat="47.627468" lon="18.974719">
				<ele>445.000000</ele>
			</trkpt>
			<trkpt lat="47.627576" lon="18.974664">
				<ele>447.000000</ele>
			</trkpt>
			<trkpt lat="47.627607" lon="18.974629">
				<ele>448.000000</ele>
			</trkpt>
			<trkpt lat="47.627631" lon="18.974557">
				<ele>448.000000</ele>
			</trkpt>
			<trkpt lat="47.627619" lon="18.974423">
				<ele>448.000000</ele>
			</trkpt>
			<trkpt lat="47.627692" lon="18.974377">
				<ele>449.000000</ele>
			</trkpt>
			<trkpt lat="47.627758" lon="18.974360">
				<ele>451.000000</ele>
			</trkpt>
			<trkpt lat="47.627788" lon="18.974251">
				<ele>451.000000</ele>
			</trkpt>
			<trkpt lat="47.627892" lon="18.974098">
				<ele>454.000000</ele>
			</trkpt>
			<trkpt lat="47.627886" lon="18.974044">
				<ele>453.000000</ele>
			</trkpt>
			<trkpt lat="47.627946" lon="18.973947">
				<ele>454.000000</ele>
			</trkpt>
			<trkpt lat="47.628000" lon="18.973847">
				<ele>456.000000</ele>
			</trkpt>
			<trkpt lat="47.628018" lon="18.973767">
				<ele>456.000000</ele>
			</trkpt>
			<trkpt lat="47.628031" lon="18.973668">
				<ele>456.000000</ele>
			</trkpt>
			<trkpt lat="47.628018" lon="18.973559">
				<ele>454.000000</ele>
			</trkpt>
			<trkpt lat="47.628128" lon="18.973497">
				<ele>456.000000</ele>
			</trkpt>
			<trkpt lat="47.628236" lon="18.973470">
				<ele>459.000000</ele>
			</trkpt>
			<trkpt lat="47.628321" lon="18.973389">
				<ele>460.000000</ele>
			</trkpt>
			<trkpt lat="47.628430" lon="18.973299">
				<ele>461.000000</ele>
			</trkpt>
			<trkpt lat="47.628467" lon="18.973236">
				<ele>461.000000</ele>
			</trkpt>
			<trkpt lat="47.628527" lon="18.973146">
				<ele>461.000000</ele>
			</trkpt>
			<trkpt lat="47.628576" lon="18.973083">
				<ele>462.000000</ele>
			</trkpt>
			<trkpt lat="47.628654" lon="18.973102">
				<ele>463.000000</ele>
			</trkpt>
			<trkpt lat="47.628727" lon="18.973021">
				<ele>464.000000</ele>
			</trkpt>
			<trkpt lat="47.628818" lon="18.972886">
				<ele>464.000000</ele>
			</trkpt>
			<trkpt lat="47.628878" lon="18.972815">
				<ele>464.000000</ele>
			</trkpt>
			<trkpt lat="47.628951" lon="18.972787">
				<ele>465.000000</ele>
			</trkpt>
			<trkpt lat="47.629169" lon="18.972689">
				<ele>470.000000</ele>
			</trkpt>
			<trkpt lat="47.629235" lon="18.972563">
				<ele>469.000000</ele>
			</trkpt>
			<trkpt lat="47.629339" lon="18.972446">
				<ele>470.000000</ele>
			</trkpt>
			<trkpt lat="47.629405" lon="18.972356">
				<ele>471.000000</ele>
			</trkpt>
			<trkpt lat="47.629453" lon="18.972320">
				<ele>472.000000</ele>
			</trkpt>
			<trkpt lat="47.629557" lon="18.972284">
				<ele>474.000000</ele>
			</trkpt>
			<trkpt lat="47.629635" lon="18.972293">
				<ele>476.000000</ele>
			</trkpt>
			<trkpt lat="47.629677" lon="18.972239">
				<ele>476.000000</ele>
			</trkpt>
			<trkpt lat="47.629713" lon="18.972159">
				<ele>476.000000</ele>
			</trkpt>
			<trkpt lat="47.629787" lon="18.972096">
				<ele>477.000000</ele>
			</trkpt>
			<trkpt lat="47.629847" lon="18.971960">
				<ele>478.000000</ele>
			</trkpt>
			<trkpt lat="47.629956" lon="18.971763">
				<ele>478.000000</ele>
			</trkpt>
			<trkpt lat="47.629968" lon="18.971691">
				<ele>477.000000</ele>
			</trkpt>
			<trkpt lat="47.629974" lon="18.971647">
				<ele>477.000000</ele>
			</trkpt>
			<trkpt lat="47.629992" lon="18.971628">
				<ele>477.000000</ele>
			</trkpt>
			<trkpt lat="47.630035" lon="18.971601">
				<ele>478.000000</ele>
			</trkpt>
			<trkpt lat="47.630101" lon="18.971457">
				<ele>477.000000</ele>
			</trkpt>
			<trkpt lat="47.630155" lon="18.971440">
				<ele>478.000000</ele>
			</trkpt>
			<trkpt lat="47.630192" lon="18.971421">
				<ele>478.000000</ele>
			</trkpt>
			<trkpt lat="47.630216" lon="18.971377">
				<ele>478.000000</ele>
			</trkpt>
			<trkpt lat="47.630222" lon="18.971323">
				<ele>477.000000</ele>
			</trkpt>
			<trkpt lat="47.630228" lon="18.971268">
				<ele>476.000000</ele>
			</trkpt>
			<trkpt lat="47.630216" lon="18.971134">
				<ele>472.000000</ele>
			</trkpt>
			<trkpt lat="47.630216" lon="18.971044">
				<ele>470.000000</ele>
			</trkpt>
			<trkpt lat="47.630235" lon="18.970964">
				<ele>468.000000</ele>
			</trkpt>
			<trkpt lat="47.630210" lon="18.970901">
				<ele>468.000000</ele>
			</trkpt>
			<trkpt lat="47.630210" lon="18.970901">
				<ele>468.000000</ele>
			</trkpt>
			<trkpt lat="47.630235" lon="18.970964">
				<ele>468.000000</ele>
			</trkpt>
			<trkpt lat="47.630216" lon="18.971044">
				<ele>470.000000</ele>
			</trkpt>
			<trkpt lat="47.630216" lon="18.971134">
				<ele>472.000000</ele>
			</trkpt>
			<trkpt lat="47.630228" lon="18.971268">
				<ele>476.000000</ele>
			</trkpt>
			<trkpt lat="47.630222" lon="18.971323">
				<ele>477.000000</ele>
			</trkpt>
			<trkpt lat="47.630216" lon="18.971377">
				<ele>478.000000</ele>
			</trkpt>
			<trkpt lat="47.630192" lon="18.971421">
				<ele>478.000000</ele>
			</trkpt>
			<trkpt lat="47.630155" lon="18.971440">
				<ele>478.000000</ele>
			</trkpt>
			<trkpt lat="47.630101" lon="18.971457">
				<ele>477.000000</ele>
			</trkpt>
			<trkpt lat="47.630035" lon="18.971601">
				<ele>478.000000</ele>
			</trkpt>
			<trkpt lat="47.629992" lon="18.971628">
				<ele>477.000000</ele>
			</trkpt>
			<trkpt lat="47.629974" lon="18.971647">
				<ele>477.000000</ele>
			</trkpt>
			<trkpt lat="47.629968" lon="18.971691">
				<ele>477.000000</ele>
			</trkpt>
			<trkpt lat="47.629956" lon="18.971763">
				<ele>478.000000</ele>
			</trkpt>
			<trkpt lat="47.629847" lon="18.971960">
				<ele>478.000000</ele>
			</trkpt>
			<trkpt lat="47.629787" lon="18.972096">
				<ele>477.000000</ele>
			</trkpt>
			<trkpt lat="47.629713" lon="18.972159">
				<ele>476.000000</ele>
			</trkpt>
			<trkpt lat="47.629677" lon="18.972239">
				<ele>476.000000</ele>
			</trkpt>
			<trkpt lat="47.629635" lon="18.972293">
				<ele>476.000000</ele>
			</trkpt>
			<trkpt lat="47.629557" lon="18.972284">
				<ele>474.000000</ele>
			</trkpt>
			<trkpt lat="47.629453" lon="18.972320">
				<ele>472.000000</ele>
			</trkpt>
			<trkpt lat="47.629405" lon="18.972356">
				<ele>471.000000</ele>
			</trkpt>
			<trkpt lat="47.629339" lon="18.972446">
				<ele>470.000000</ele>
			</trkpt>
			<trkpt lat="47.629235" lon="18.972563">
				<ele>469.000000</ele>
			</trkpt>
			<trkpt lat="47.629169" lon="18.972689">
				<ele>470.000000</ele>
			</trkpt>
			<trkpt lat="47.628951" lon="18.972787">
				<ele>465.000000</ele>
			</trkpt>
			<trkpt lat="47.628878" lon="18.972815">
				<ele>464.000000</ele>
			</trkpt>
			<trkpt lat="47.628818" lon="18.972886">
				<ele>464.000000</ele>
			</trkpt>
			<trkpt lat="47.628727" lon="18.973021">
				<ele>464.000000</ele>
			</trkpt>
			<trkpt lat="47.628654" lon="18.973102">
				<ele>463.000000</ele>
			</trkpt>
			<trkpt lat="47.628576" lon="18.973083">
				<ele>462.000000</ele>
			</trkpt>
			<trkpt lat="47.628527" lon="18.973146">
				<ele>461.000000</ele>
			</trkpt>
			<trkpt lat="47.628467" lon="18.973236">
				<ele>461.000000</ele>
			</trkpt>
			<trkpt lat="47.628430" lon="18.973299">
				<ele>461.000000</ele>
			</trkpt>
			<trkpt lat="47.628321" lon="18.973389">
				<ele>460.000000</ele>
			</trkpt>
			<trkpt lat="47.628236" lon="18.973470">
				<ele>459.000000</ele>
			</trkpt>
			<trkpt lat="47.628128" lon="18.973497">
				<ele>456.000000</ele>
			</trkpt>
			<trkpt lat="47.628018" lon="18.973559">
				<ele>454.000000</ele>
			</trkpt>
			<trkpt lat="47.628031" lon="18.973668">
				<ele>456.000000</ele>
			</trkpt>
			<trkpt lat="47.628018" lon="18.973767">
				<ele>456.000000</ele>
			</trkpt>
			<trkpt lat="47.628000" lon="18.973847">
				<ele>456.000000</ele>
			</trkpt>
			<trkpt lat="47.627946" lon="18.973947">
				<ele>454.000000</ele>
			</trkpt>
			<trkpt lat="47.627886" lon="18.974044">
				<ele>453.000000</ele>
			</trkpt>
			<trkpt lat="47.627892" lon="18.974098">
				<ele>454.000000</ele>
			</trkpt>
			<trkpt lat="47.627788" lon="18.974251">
				<ele>451.000000</ele>
			</trkpt>
			<trkpt lat="47.627758" lon="18.974360">
				<ele>451.000000</ele>
			</trkpt>
			<trkpt lat="47.627692" lon="18.974377">
				<ele>449.000000</ele>
			</trkpt>
			<trkpt lat="47.627619" lon="18.974423">
				<ele>448.000000</ele>
			</trkpt>
			<trkpt lat="47.627631" lon="18.974557">
				<ele>448.000000</ele>
			</trkpt>
			<trkpt lat="47.627607" lon="18.974629">
				<ele>448.000000</ele>
			</trkpt>
			<trkpt lat="47.627576" lon="18.974664">
				<ele>447.000000</ele>
			</trkpt>
			<trkpt lat="47.627468" lon="18.974719">
				<ele>445.000000</ele>
			</trkpt>
			<trkpt lat="47.627383" lon="18.974817">
				<ele>443.000000</ele>
			</trkpt>
			<trkpt lat="47.627322" lon="18.974863">
				<ele>442.000000</ele>
			</trkpt>
			<trkpt lat="47.627292" lon="18.974926">
				<ele>441.000000</ele>
			</trkpt>
			<trkpt lat="47.627244" lon="18.975060">
				<ele>441.000000</ele>
			</trkpt>
			<trkpt lat="47.627177" lon="18.975186">
				<ele>439.000000</ele>
			</trkpt>
			<trkpt lat="47.627129" lon="18.975230">
				<ele>438.000000</ele>
			</trkpt>
			<trkpt lat="47.627086" lon="18.975302">
				<ele>437.000000</ele>
			</trkpt>
			<trkpt lat="47.627068" lon="18.975410">
				<ele>437.000000</ele>
			</trkpt>
			<trkpt lat="47.627050" lon="18.975536">
				<ele>436.000000</ele>
			</trkpt>
			<trkpt lat="47.627014" lon="18.975644">
				<ele>435.000000</ele>
			</trkpt>
			<trkpt lat="47.626959" lon="18.975769">
				<ele>434.000000</ele>
			</trkpt>
			<trkpt lat="47.626923" lon="18.975913">
				<ele>433.000000</ele>
			</trkpt>
			<trkpt lat="47.626886" lon="18.976102">
				<ele>433.000000</ele>
			</trkpt>
			<trkpt lat="47.626862" lon="18.976281">
				<ele>433.000000</ele>
			</trkpt>
			<trkpt lat="47.626868" lon="18.976479">
				<ele>434.000000</ele>
			</trkpt>
			<trkpt lat="47.626856" lon="18.976614">
				<ele>434.000000</ele>
			</trkpt>
			<trkpt lat="47.626832" lon="18.976748">
				<ele>434.000000</ele>
			</trkpt>
			<trkpt lat="47.626814" lon="18.976784">
				<ele>434.000000</ele>
			</trkpt>
			<trkpt lat="47.626796" lon="18.976821">
				<ele>434.000000</ele>
			</trkpt>
			<trkpt lat="47.626778" lon="18.976857">
				<ele>434.000000</ele>
			</trkpt>
			<trkpt lat="47.626753" lon="18.976947">
				<ele>434.000000</ele>
			</trkpt>
			<trkpt lat="47.626747" lon="18.976991">
				<ele>434.000000</ele>
			</trkpt>
			<trkpt lat="47.626741" lon="18.977054">
				<ele>434.000000</ele>
			</trkpt>
			<trkpt lat="47.626741" lon="18.977090">
				<ele>435.000000</ele>
			</trkpt>
			<trkpt lat="47.626711" lon="18.977108">
				<ele>435.000000</ele>
			</trkpt>
			<trkpt lat="47.626687" lon="18.977117">
				<ele>435.000000</ele>
			</trkpt>
			<trkpt lat="47.626669" lon="18.977134">
				<ele>435.000000</ele>
			</trkpt>
			<trkpt lat="47.626626" lon="18.977180">
				<ele>434.000000</ele>
			</trkpt>
			<trkpt lat="47.626608" lon="18.977197">
				<ele>434.000000</ele>
			</trkpt>
			<trkpt lat="47.626584" lon="18.977216">
				<ele>434.000000</ele>
			</trkpt>
			<trkpt lat="47.626572" lon="18.977224">
				<ele>434.000000</ele>
			</trkpt>
			<trkpt lat="47.626554" lon="18.977224">
				<ele>434.000000</ele>
			</trkpt>
			<trkpt lat="47.626269" lon="18.977287">
				<ele>429.000000</ele>
			</trkpt>
			<trkpt lat="47.626245" lon="18.977306">
				<ele>429.000000</ele>
			</trkpt>
			<trkpt lat="47.626227" lon="18.977314">
				<ele>428.000000</ele>
			</trkpt>
			<trkpt lat="47.626117" lon="18.977423">
				<ele>426.000000</ele>
			</trkpt>
			<trkpt lat="47.626045" lon="18.977486">
				<ele>425.000000</ele>
			</trkpt>
			<trkpt lat="47.625924" lon="18.977584">
				<ele>422.000000</ele>
			</trkpt>
			<trkpt lat="47.625887" lon="18.977629">
				<ele>422.000000</ele>
			</trkpt>
			<trkpt lat="47.625863" lon="18.977656">
				<ele>421.000000</ele>
			</trkpt>
			<trkpt lat="47.625803" lon="18.977755">
				<ele>421.000000</ele>
			</trkpt>
			<trkpt lat="47.625773" lon="18.977809">
				<ele>421.000000</ele>
			</trkpt>
			<trkpt lat="47.625687" lon="18.977970">
				<ele>422.000000</ele>
			</trkpt>
			<trkpt lat="47.625627" lon="18.978060">
				<ele>421.000000</ele>
			</trkpt>
			<trkpt lat="47.625573" lon="18.978142">
				<ele>421.000000</ele>
			</trkpt>
			<trkpt lat="47.625488" lon="18.978249">
				<ele>420.000000</ele>
			</trkpt>
			<trkpt lat="47.625415" lon="18.978339">
				<ele>419.000000</ele>
			</trkpt>
			<trkpt lat="47.625367" lon="18.978392">
				<ele>418.000000</ele>
			</trkpt>
			<trkpt lat="47.625288" lon="18.978446">
				<ele>416.000000</ele>
			</trkpt>
			<trkpt lat="47.625258" lon="18.978482">
				<ele>416.000000</ele>
			</trkpt>
			<trkpt lat="47.625227" lon="18.978501">
				<ele>415.000000</ele>
			</trkpt>
			<trkpt lat="47.625119" lon="18.978563">
				<ele>411.000000</ele>
			</trkpt>
			<trkpt lat="47.625016" lon="18.978608">
				<ele>408.000000</ele>
			</trkpt>
			<trkpt lat="47.624967" lon="18.978644">
				<ele>406.000000</ele>
			</trkpt>
			<trkpt lat="47.624919" lon="18.978689">
				<ele>405.000000</ele>
			</trkpt>
			<trkpt lat="47.624883" lon="18.978725">
				<ele>404.000000</ele>
			</trkpt>
			<trkpt lat="47.624852" lon="18.978771">
				<ele>404.000000</ele>
			</trkpt>
			<trkpt lat="47.624792" lon="18.978851">
				<ele>403.000000</ele>
			</trkpt>
			<trkpt lat="47.624761" lon="18.978895">
				<ele>403.000000</ele>
			</trkpt>
			<trkpt lat="47.624743" lon="18.978922">
				<ele>403.000000</ele>
			</trkpt>
			<trkpt lat="47.624719" lon="18.978941">
				<ele>403.000000</ele>
			</trkpt>
			<trkpt lat="47.624677" lon="18.978977">
				<ele>402.000000</ele>
			</trkpt>
			<trkpt lat="47.624550" lon="18.979067">
				<ele>399.000000</ele>
			</trkpt>
			<trkpt lat="47.624253" lon="18.979327">
				<ele>396.000000</ele>
			</trkpt>
			<trkpt lat="47.624198" lon="18.979381">
				<ele>395.000000</ele>
			</trkpt>
			<trkpt lat="47.624162" lon="18.979408">
				<ele>394.000000</ele>
			</trkpt>
			<trkpt lat="47.624132" lon="18.979434">
				<ele>394.000000</ele>
			</trkpt>
			<trkpt lat="47.624071" lon="18.979461">
				<ele>392.000000</ele>
			</trkpt>
			<trkpt lat="47.623666" lon="18.979587">
				<ele>384.000000</ele>
			</trkpt>
			<trkpt lat="47.623623" lon="18.979597">
				<ele>383.000000</ele>
			</trkpt>
			<trkpt lat="47.623611" lon="18.979597">
				<ele>383.000000</ele>
			</trkpt>
			<trkpt lat="47.623593" lon="18.979597">
				<ele>383.000000</ele>
			</trkpt>
			<trkpt lat="47.623575" lon="18.979597">
				<ele>383.000000</ele>
			</trkpt>
			<trkpt lat="47.623575" lon="18.979597">
				<ele>383.000000</ele>
			</trkpt>
			<trkpt lat="47.623550" lon="18.979587">
				<ele>382.000000</ele>
			</trkpt>
			<trkpt lat="47.623490" lon="18.979578">
				<ele>381.000000</ele>
			</trkpt>
			<trkpt lat="47.622097" lon="18.979237">
				<ele>355.000000</ele>
			</trkpt>
			<trkpt lat="47.621873" lon="18.979184">
				<ele>353.000000</ele>
			</trkpt>
			<trkpt lat="47.621431" lon="18.979543">
				<ele>357.000000</ele>
			</trkpt>
			<trkpt lat="47.621134" lon="18.979839">
				<ele>360.000000</ele>
			</trkpt>
			<trkpt lat="47.620656" lon="18.980495">
				<ele>359.000000</ele>
			</trkpt>
			<trkpt lat="47.619451" lon="18.981698">
				<ele>347.000000</ele>
			</trkpt>
			<trkpt lat="47.618804" lon="18.982597">
				<ele>344.000000</ele>
			</trkpt>
			<trkpt lat="47.618731" lon="18.982669">
				<ele>343.000000</ele>
			</trkpt>
			<trkpt lat="47.618568" lon="18.982776">
				<ele>340.000000</ele>
			</trkpt>
			<trkpt lat="47.618428" lon="18.982803">
				<ele>339.000000</ele>
			</trkpt>
			<trkpt lat="47.618198" lon="18.982786">
				<ele>335.000000</ele>
			</trkpt>
			<trkpt lat="47.617931" lon="18.982866">
				<ele>330.000000</ele>
			</trkpt>
			<trkpt lat="47.617871" lon="18.982939">
				<ele>328.000000</ele>
			</trkpt>
			<trkpt lat="47.617811" lon="18.983046">
				<ele>326.000000</ele>
			</trkpt>
			<trkpt lat="47.617689" lon="18.983243">
				<ele>324.000000</ele>
			</trkpt>
			<trkpt lat="47.617689" lon="18.983243">
				<ele>324.000000</ele>
			</trkpt>
			<trkpt lat="47.617465" lon="18.983612">
				<ele>319.000000</ele>
			</trkpt>
			<trkpt lat="47.617344" lon="18.983809">
				<ele>319.000000</ele>
			</trkpt>
			<trkpt lat="47.617096" lon="18.984097">
				<ele>317.000000</ele>
			</trkpt>
			<trkpt lat="47.616896" lon="18.984547">
				<ele>315.000000</ele>
			</trkpt>
			<trkpt lat="47.616805" lon="18.984780">
				<ele>314.000000</ele>
			</trkpt>
			<trkpt lat="47.616751" lon="18.984941">
				<ele>313.000000</ele>
			</trkpt>
			<trkpt lat="47.616612" lon="18.985346">
				<ele>312.000000</ele>
			</trkpt>
			<trkpt lat="47.616563" lon="18.985750">
				<ele>312.000000</ele>
			</trkpt>
			<trkpt lat="47.616557" lon="18.986163">
				<ele>311.000000</ele>
			</trkpt>
			<trkpt lat="47.616575" lon="18.986432">
				<ele>310.000000</ele>
			</trkpt>
			<trkpt lat="47.616563" lon="18.986810">
				<ele>308.000000</ele>
			</trkpt>
			<trkpt lat="47.616532" lon="18.987025">
				<ele>307.000000</ele>
			</trkpt>
			<trkpt lat="47.616502" lon="18.987151">
				<ele>306.000000</ele>
			</trkpt>
			<trkpt lat="47.616472" lon="18.987205">
				<ele>305.000000</ele>
			</trkpt>
			<trkpt lat="47.616406" lon="18.987268">
				<ele>304.000000</ele>
			</trkpt>
			<trkpt lat="47.616260" lon="18.987367">
				<ele>301.000000</ele>
			</trkpt>
			<trkpt lat="47.615951" lon="18.987591">
				<ele>297.000000</ele>
			</trkpt>
			<trkpt lat="47.615685" lon="18.987771">
				<ele>292.000000</ele>
			</trkpt>
			<trkpt lat="47.615321" lon="18.987969">
				<ele>286.000000</ele>
			</trkpt>
			<trkpt lat="47.615219" lon="18.988067">
				<ele>284.000000</ele>
			</trkpt>
			<trkpt lat="47.614922" lon="18.988715">
				<ele>279.000000</ele>
			</trkpt>
			<trkpt lat="47.614686" lon="18.989191">
				<ele>276.000000</ele>
			</trkpt>
			<trkpt lat="47.614316" lon="18.989874">
				<ele>272.000000</ele>
			</trkpt>
			<trkpt lat="47.614238" lon="18.990017">
				<ele>271.000000</ele>
			</trkpt>
			<trkpt lat="47.614116" lon="18.990268">
				<ele>271.000000</ele>
			</trkpt>
			<trkpt lat="47.613935" lon="18.990663">
				<ele>271.000000</ele>
			</trkpt>
			<trkpt lat="47.613886" lon="18.990753">
				<ele>271.000000</ele>
			</trkpt>
			<trkpt lat="47.613832" lon="18.990843">
				<ele>271.000000</ele>
			</trkpt>
			<trkpt lat="47.613608" lon="18.991229">
				<ele>270.000000</ele>
			</trkpt>
			<trkpt lat="47.613547" lon="18.991310">
				<ele>270.000000</ele>
			</trkpt>
			<trkpt lat="47.613547" lon="18.991310">
				<ele>270.000000</ele>
			</trkpt>
			<trkpt lat="47.612924" lon="18.992092">
				<ele>269.000000</ele>
			</trkpt>
			<trkpt lat="47.612700" lon="18.992262">
				<ele>269.000000</ele>
			</trkpt>
			<trkpt lat="47.612185" lon="18.992388">
				<ele>265.000000</ele>
			</trkpt>
			<trkpt lat="47.611930" lon="18.992451">
				<ele>263.000000</ele>
			</trkpt>
			<trkpt lat="47.611543" lon="18.992595">
				<ele>260.000000</ele>
			</trkpt>
			<trkpt lat="47.611198" lon="18.992738">
				<ele>258.000000</ele>
			</trkpt>
			<trkpt lat="47.610943" lon="18.992937">
				<ele>257.000000</ele>
			</trkpt>
			<trkpt lat="47.610670" lon="18.993071">
				<ele>256.000000</ele>
			</trkpt>
			<trkpt lat="47.610428" lon="18.993161">
				<ele>254.000000</ele>
			</trkpt>
			<trkpt lat="47.610283" lon="18.993161">
				<ele>253.000000</ele>
			</trkpt>
			<trkpt lat="47.610119" lon="18.992694">
				<ele>249.000000</ele>
			</trkpt>
			<trkpt lat="47.609974" lon="18.992271">
				<ele>246.000000</ele>
			</trkpt>
			<trkpt lat="47.609895" lon="18.992082">
				<ele>244.000000</ele>
			</trkpt>
			<trkpt lat="47.609617" lon="18.992011">
				<ele>241.000000</ele>
			</trkpt>
			<trkpt lat="47.609441" lon="18.991984">
				<ele>239.000000</ele>
			</trkpt>
			<trkpt lat="47.609266" lon="18.992021">
				<ele>237.000000</ele>
			</trkpt>
			<trkpt lat="47.609054" lon="18.992074">
				<ele>235.000000</ele>
			</trkpt>
			<trkpt lat="47.608932" lon="18.992119">
				<ele>234.000000</ele>
			</trkpt>
			<trkpt lat="47.608812" lon="18.992172">
				<ele>233.000000</ele>
			</trkpt>
			<trkpt lat="47.608745" lon="18.992200">
				<ele>233.000000</ele>
			</trkpt>
			<trkpt lat="47.608727" lon="18.992191">
				<ele>233.000000</ele>
			</trkpt>
			<trkpt lat="47.608660" lon="18.992182">
				<ele>232.000000</ele>
			</trkpt>
			<trkpt lat="47.608539" lon="18.992128">
				<ele>231.000000</ele>
			</trkpt>
			<trkpt lat="47.608430" lon="18.992056">
				<ele>230.000000</ele>
			</trkpt>
			<trkpt lat="47.608333" lon="18.991948">
				<ele>228.000000</ele>
			</trkpt>
			<trkpt lat="47.608315" lon="18.991931">
				<ele>228.000000</ele>
			</trkpt>
			<trkpt lat="47.608230" lon="18.991841">
				<ele>226.000000</ele>
			</trkpt>
			<trkpt lat="47.608079" lon="18.991642">
				<ele>224.000000</ele>
			</trkpt>
			<trkpt lat="47.607879" lon="18.991337">
				<ele>222.000000</ele>
			</trkpt>
			<trkpt lat="47.607733" lon="18.991122">
				<ele>221.000000</ele>
			</trkpt>
			<trkpt lat="47.607679" lon="18.991032">
				<ele>221.000000</ele>
			</trkpt>
			<trkpt lat="47.607528" lon="18.991122">
				<ele>220.000000</ele>
			</trkpt>
			<trkpt lat="47.607358" lon="18.991239">
				<ele>219.000000</ele>
			</trkpt>
			<trkpt lat="47.607418" lon="18.991400">
				<ele>219.000000</ele>
			</trkpt>
			<trkpt lat="47.607388" lon="18.991418">
				<ele>219.000000</ele>
			</trkpt>
		</trkseg>
	</trk>
</gpx>

