<?xml version="1.0" encoding="UTF-8"?>
<gpx xmlns="http://www.topografix.com/GPX/1/1" creator="turistautak.openstreetmap.hu" version="1.1" xmlns:xsi="http://www.w3.org/2001/XMLSchema-instance" xsi:schemaLocation="http://www.garmin.com/xmlschemas/GpxExtensions/v3 http://www.garmin.com/xmlschemas/GpxExtensions/v3/GpxExtensionsv3.xsd http://www.topografix.com/GPX/1/1 http://www.topografix.com/GPX/1/1/gpx.xsd">
	<metadata>
		<name>1677231742a9rp útvonal</name>
		<desc>1677231742a9rp útvonal</desc>
	</metadata>
<trk>
  <name>utv</name>
<trkseg><trkpt lat="47.695250" lon="19.061465">
        <ele>243</ele>
      </trkpt>
<trkpt lat="47.695186" lon="19.061229">
        <ele>243.6</ele>
      </trkpt>
<trkpt lat="47.695399" lon="19.061170">
        <ele>247.2</ele>
      </trkpt>
<trkpt lat="47.695412" lon="19.061342">
        <ele>254.2</ele>
      </trkpt>
<trkpt lat="47.695319" lon="19.061604">
        <ele>264.6</ele>
      </trkpt>
<trkpt lat="47.696180" lon="19.062384">
        <ele>273.8</ele>
      </trkpt>
<trkpt lat="47.696512" lon="19.062685">
        <ele>283.2</ele>
      </trkpt>
<trkpt lat="47.697323" lon="19.063421">
        <ele>289</ele>
      </trkpt>
<trkpt lat="47.697608" lon="19.063131">
        <ele>292</ele>
      </trkpt>
<trkpt lat="47.698073" lon="19.062423">
        <ele>292.6</ele>
      </trkpt>
<trkpt lat="47.698186" lon="19.062249">
        <ele>293.2</ele>
      </trkpt>
<trkpt lat="47.698568" lon="19.061947">
        <ele>295</ele>
      </trkpt>
<trkpt lat="47.698845" lon="19.061810">
        <ele>296.8</ele>
      </trkpt>
<trkpt lat="47.699245" lon="19.061278">
        <ele>300.2</ele>
      </trkpt>
<trkpt lat="47.699999" lon="19.060167">
        <ele>302.6</ele>
      </trkpt>
<trkpt lat="47.700055" lon="19.060012">
        <ele>306</ele>
      </trkpt>
<trkpt lat="47.700122" lon="19.059549">
        <ele>308</ele>
      </trkpt>
<trkpt lat="47.700180" lon="19.059320">
        <ele>310.4</ele>
      </trkpt>
<trkpt lat="47.700346" lon="19.058670">
        <ele>313.2</ele>
      </trkpt>
<trkpt lat="47.700414" lon="19.058465">
        <ele>317.6</ele>
      </trkpt>
<trkpt lat="47.700857" lon="19.058142">
        <ele>322</ele>
      </trkpt>
<trkpt lat="47.701177" lon="19.057499">
        <ele>327.2</ele>
      </trkpt>
<trkpt lat="47.701403" lon="19.056618">
        <ele>331.8</ele>
      </trkpt>
<trkpt lat="47.702124" lon="19.055427">
        <ele>335.8</ele>
      </trkpt>
<trkpt lat="47.702748" lon="19.054827">
        <ele>337.8</ele>
      </trkpt>
<trkpt lat="47.703032" lon="19.054661">
        <ele>340.6</ele>
      </trkpt>
<trkpt lat="47.703495" lon="19.053882">
        <ele>342.6</ele>
      </trkpt>
<trkpt lat="47.703746" lon="19.053581">
        <ele>344.6</ele>
      </trkpt>
<trkpt lat="47.703974" lon="19.053443">
        <ele>345.8</ele>
      </trkpt>
<trkpt lat="47.704248" lon="19.052978">
        <ele>350</ele>
      </trkpt>
<trkpt lat="47.704405" lon="19.052800">
        <ele>352.4</ele>
      </trkpt>
<trkpt lat="47.704497" lon="19.052541">
        <ele>358.4</ele>
      </trkpt>
<trkpt lat="47.704724" lon="19.052524">
        <ele>369.2</ele>
      </trkpt>
<trkpt lat="47.705163" lon="19.052245">
        <ele>383.4</ele>
      </trkpt>
<trkpt lat="47.705735" lon="19.051725">
        <ele>395.2</ele>
      </trkpt>
<trkpt lat="47.707016" lon="19.050948">
        <ele>407</ele>
      </trkpt>
<trkpt lat="47.707510" lon="19.050890">
        <ele>415</ele>
      </trkpt>
<trkpt lat="47.707779" lon="19.049966">
        <ele>418.4</ele>
      </trkpt>
<trkpt lat="47.707850" lon="19.049852">
        <ele>418.4</ele>
      </trkpt>
<trkpt lat="47.707919" lon="19.049961">
        <ele>419.8</ele>
      </trkpt>
<trkpt lat="47.707988" lon="19.050070">
        <ele>421.8</ele>
      </trkpt>
<trkpt lat="47.708187" lon="19.050204">
        <ele>424</ele>
      </trkpt>
<trkpt lat="47.708548" lon="19.050506">
        <ele>426.2</ele>
      </trkpt>
<trkpt lat="47.708754" lon="19.050547">
        <ele>428.4</ele>
      </trkpt>
<trkpt lat="47.708981" lon="19.050466">
        <ele>431</ele>
      </trkpt>
<trkpt lat="47.709214" lon="19.050463">
        <ele>429.4</ele>
      </trkpt>
<trkpt lat="47.709450" lon="19.050489">
        <ele>432.8</ele>
      </trkpt>
<trkpt lat="47.709945" lon="19.050467">
        <ele>436.2</ele>
      </trkpt>
<trkpt lat="47.710386" lon="19.050278">
        <ele>435</ele>
      </trkpt>
<trkpt lat="47.710598" lon="19.050146">
        <ele>439</ele>
      </trkpt>
<trkpt lat="47.710867" lon="19.049895">
        <ele>446.6</ele>
      </trkpt>
<trkpt lat="47.711183" lon="19.049346">
        <ele>449.2</ele>
      </trkpt>
<trkpt lat="47.711406" lon="19.048982">
        <ele>453.2</ele>
      </trkpt>
<trkpt lat="47.711532" lon="19.049065">
        <ele>461.8</ele>
      </trkpt>
<trkpt lat="47.711834" lon="19.048857">
        <ele>458</ele>
      </trkpt>
<trkpt lat="47.712565" lon="19.049062">
        <ele>454.8</ele>
      </trkpt>
<trkpt lat="47.712893" lon="19.049209">
        <ele>452</ele>
      </trkpt>
<trkpt lat="47.714394" lon="19.048574">
        <ele>449</ele>
      </trkpt>
<trkpt lat="47.714905" lon="19.048136">
        <ele>446</ele>
      </trkpt>
<trkpt lat="47.716144" lon="19.048279">
        <ele>444.4</ele>
      </trkpt>
<trkpt lat="47.716396" lon="19.048308">
        <ele>443.6</ele>
      </trkpt>
<trkpt lat="47.716733" lon="19.048164">
        <ele>439.8</ele>
      </trkpt>
<trkpt lat="47.717069" lon="19.047602">
        <ele>434.8</ele>
      </trkpt>
<trkpt lat="47.717157" lon="19.047147">
        <ele>428.4</ele>
      </trkpt>
<trkpt lat="47.717396" lon="19.046619">
        <ele>424.8</ele>
      </trkpt>
<trkpt lat="47.717532" lon="19.046296">
        <ele>418</ele>
      </trkpt>
<trkpt lat="47.717555" lon="19.046051">
        <ele>410.2</ele>
      </trkpt>
<trkpt lat="47.717856" lon="19.045405">
        <ele>402.4</ele>
      </trkpt>
<trkpt lat="47.718737" lon="19.044667">
        <ele>395.8</ele>
      </trkpt>
<trkpt lat="47.719005" lon="19.044458">
        <ele>392.8</ele>
      </trkpt>
<trkpt lat="47.719461" lon="19.044533">
        <ele>391.6</ele>
      </trkpt>
<trkpt lat="47.720132" lon="19.045254">
        <ele>392.4</ele>
      </trkpt>
<trkpt lat="47.721626" lon="19.047126">
        <ele>394.2</ele>
      </trkpt>
<trkpt lat="47.721867" lon="19.047428">
        <ele>395.8</ele>
      </trkpt>
<trkpt lat="47.722124" lon="19.047667">
        <ele>394</ele>
      </trkpt>
<trkpt lat="47.722911" lon="19.048073">
        <ele>393.8</ele>
      </trkpt>
<trkpt lat="47.723019" lon="19.048002">
        <ele>392.2</ele>
      </trkpt>
<trkpt lat="47.722917" lon="19.048946">
        <ele>391.6</ele>
      </trkpt>
<trkpt lat="47.722849" lon="19.049257">
        <ele>389.8</ele>
      </trkpt>
<trkpt lat="47.721503" lon="19.052270">
        <ele>386.8</ele>
      </trkpt>
<trkpt lat="47.721244" lon="19.053394">
        <ele>384.6</ele>
      </trkpt>
<trkpt lat="47.720976" lon="19.053783">
        <ele>383.4</ele>
      </trkpt>
<trkpt lat="47.720488" lon="19.055908">
        <ele>378.4</ele>
      </trkpt>
<trkpt lat="47.720416" lon="19.056995">
        <ele>375.6</ele>
      </trkpt>
<trkpt lat="47.720152" lon="19.058239">
        <ele>375.6</ele>
      </trkpt>
<trkpt lat="47.719742" lon="19.059111">
        <ele>373.2</ele>
      </trkpt>
<trkpt lat="47.719148" lon="19.059646">
        <ele>371.8</ele>
      </trkpt>
<trkpt lat="47.718528" lon="19.060613">
        <ele>372.2</ele>
      </trkpt>
<trkpt lat="47.718408" lon="19.060960">
        <ele>372</ele>
      </trkpt>
<trkpt lat="47.717686" lon="19.062368">
        <ele>370.2</ele>
      </trkpt>
<trkpt lat="47.717435" lon="19.062707">
        <ele>368.4</ele>
      </trkpt>
<trkpt lat="47.717313" lon="19.062872">
        <ele>367.6</ele>
      </trkpt>
<trkpt lat="47.717019" lon="19.063105">
        <ele>364.2</ele>
      </trkpt>
<trkpt lat="47.716653" lon="19.063527">
        <ele>360.2</ele>
      </trkpt>
<trkpt lat="47.716251" lon="19.063744">
        <ele>357</ele>
      </trkpt>
<trkpt lat="47.715550" lon="19.063874">
        <ele>353.4</ele>
      </trkpt>
<trkpt lat="47.715381" lon="19.063907">
        <ele>349.8</ele>
      </trkpt>
<trkpt lat="47.715118" lon="19.064242">
        <ele>348.8</ele>
      </trkpt>
<trkpt lat="47.714400" lon="19.064708">
        <ele>343</ele>
      </trkpt>
<trkpt lat="47.714236" lon="19.064958">
        <ele>336.2</ele>
      </trkpt>
<trkpt lat="47.714092" lon="19.065291">
        <ele>329.8</ele>
      </trkpt>
<trkpt lat="47.712656" lon="19.069001">
        <ele>324.6</ele>
      </trkpt>
<trkpt lat="47.712177" lon="19.069765">
        <ele>319.4</ele>
      </trkpt>
<trkpt lat="47.712118" lon="19.070089">
        <ele>320.6</ele>
      </trkpt>
<trkpt lat="47.711706" lon="19.070636">
        <ele>321.2</ele>
      </trkpt>
<trkpt lat="47.711443" lon="19.070893">
        <ele>321.8</ele>
      </trkpt>
<trkpt lat="47.711136" lon="19.071062">
        <ele>321.2</ele>
      </trkpt>
<trkpt lat="47.710529" lon="19.071589">
        <ele>319.4</ele>
      </trkpt>
<trkpt lat="47.709940" lon="19.071793">
        <ele>315</ele>
      </trkpt>
<trkpt lat="47.709598" lon="19.071719">
        <ele>312.2</ele>
      </trkpt>
<trkpt lat="47.708996" lon="19.071726">
        <ele>309.4</ele>
      </trkpt>
<trkpt lat="47.708608" lon="19.071551">
        <ele>306.2</ele>
      </trkpt>
<trkpt lat="47.708538" lon="19.071557">
        <ele>304.2</ele>
      </trkpt>
<trkpt lat="47.708409" lon="19.071637">
        <ele>301.8</ele>
      </trkpt>
<trkpt lat="47.708121" lon="19.072317">
        <ele>299.4</ele>
      </trkpt>
<trkpt lat="47.708015" lon="19.072456">
        <ele>297</ele>
      </trkpt>
<trkpt lat="47.707584" lon="19.072624">
        <ele>293.6</ele>
      </trkpt>
<trkpt lat="47.707455" lon="19.072612">
        <ele>290.2</ele>
      </trkpt>
<trkpt lat="47.707191" lon="19.072449">
        <ele>288.4</ele>
      </trkpt>
<trkpt lat="47.707066" lon="19.072601">
        <ele>286.6</ele>
      </trkpt>
<trkpt lat="47.706943" lon="19.072765">
        <ele>283</ele>
      </trkpt>
<trkpt lat="47.706890" lon="19.072948">
        <ele>280.8</ele>
      </trkpt>
<trkpt lat="47.706743" lon="19.073611">
        <ele>276.2</ele>
      </trkpt>
<trkpt lat="47.706518" lon="19.074127">
        <ele>271</ele>
      </trkpt>
<trkpt lat="47.706421" lon="19.074516">
        <ele>264.2</ele>
      </trkpt>
<trkpt lat="47.706324" lon="19.074905">
        <ele>260.8</ele>
      </trkpt>
<trkpt lat="47.706074" lon="19.075362">
        <ele>257.4</ele>
      </trkpt>
<trkpt lat="47.705723" lon="19.075446">
        <ele>257.2</ele>
      </trkpt>
<trkpt lat="47.705638" lon="19.074902">
        <ele>258</ele>
      </trkpt>
<trkpt lat="47.705548" lon="19.074601">
        <ele>262.2</ele>
      </trkpt>
<trkpt lat="47.705639" lon="19.074390">
        <ele>264.8</ele>
      </trkpt>
<trkpt lat="47.705717" lon="19.073857">
        <ele>266.2</ele>
      </trkpt>
<trkpt lat="47.705478" lon="19.072741">
        <ele>268.8</ele>
      </trkpt>
<trkpt lat="47.705434" lon="19.072636">
        <ele>271.4</ele>
      </trkpt>
<trkpt lat="47.705364" lon="19.072514">
        <ele>269.6</ele>
      </trkpt>
<trkpt lat="47.704897" lon="19.072051">
        <ele>265.2</ele>
      </trkpt>
<trkpt lat="47.704626" lon="19.072049">
        <ele>259.6</ele>
      </trkpt>
<trkpt lat="47.704141" lon="19.072463">
        <ele>252</ele>
      </trkpt>
<trkpt lat="47.703100" lon="19.073722">
        <ele>245</ele>
      </trkpt>
<trkpt lat="47.702734" lon="19.073898">
        <ele>238.6</ele>
      </trkpt>
<trkpt lat="47.702272" lon="19.073920">
        <ele>233</ele>
      </trkpt>
<trkpt lat="47.701992" lon="19.074034">
        <ele>229.8</ele>
      </trkpt>
<trkpt lat="47.700616" lon="19.075801">
        <ele>222.8</ele>
      </trkpt>
<trkpt lat="47.700091" lon="19.076280">
        <ele>216.2</ele>
      </trkpt>
<trkpt lat="47.699956" lon="19.076341">
        <ele>214.8</ele>
      </trkpt>
<trkpt lat="47.698606" lon="19.077599">
        <ele>215.8</ele>
      </trkpt>
<trkpt lat="47.698249" lon="19.076817">
        <ele>216.8</ele>
      </trkpt>
<trkpt lat="47.697839" lon="19.075736">
        <ele>222.8</ele>
      </trkpt>
<trkpt lat="47.698460" lon="19.075185">
        <ele>230</ele>
      </trkpt>
<trkpt lat="47.698649" lon="19.074934">
        <ele>234</ele>
      </trkpt>
<trkpt lat="47.698994" lon="19.074271">
        <ele>237.4</ele>
      </trkpt>
<trkpt lat="47.699044" lon="19.073670">
        <ele>242</ele>
      </trkpt>
<trkpt lat="47.698994" lon="19.073371">
        <ele>245.4</ele>
      </trkpt>
<trkpt lat="47.698807" lon="19.073235">
        <ele>246.6</ele>
      </trkpt>
<trkpt lat="47.698571" lon="19.073319">
        <ele>247.8</ele>
      </trkpt>
<trkpt lat="47.698125" lon="19.073713">
        <ele>252.2</ele>
      </trkpt>
<trkpt lat="47.698020" lon="19.073627">
        <ele>255.4</ele>
      </trkpt>
<trkpt lat="47.698243" lon="19.072939">
        <ele>258.6</ele>
      </trkpt>
<trkpt lat="47.698328" lon="19.072305">
        <ele>262.6</ele>
      </trkpt>
<trkpt lat="47.698162" lon="19.072228">
        <ele>266.6</ele>
      </trkpt>
<trkpt lat="47.698042" lon="19.072263">
        <ele>267.4</ele>
      </trkpt>
<trkpt lat="47.697899" lon="19.072437">
        <ele>268.2</ele>
      </trkpt>
<trkpt lat="47.697596" lon="19.072588">
        <ele>269</ele>
      </trkpt>
<trkpt lat="47.697604" lon="19.072850">
        <ele>269</ele>
      </trkpt>
<trkpt lat="47.697428" lon="19.073134">
        <ele>269</ele>
      </trkpt>
<trkpt lat="47.697434" lon="19.073327">
        <ele>269</ele>
      </trkpt>
<trkpt lat="47.697374" lon="19.073501">
        <ele>269</ele>
      </trkpt>
<trkpt lat="47.697309" lon="19.073540">
        <ele>269</ele>
      </trkpt>
<trkpt lat="47.696780" lon="19.074261">
        <ele>269</ele>
      </trkpt>
<trkpt lat="47.697309" lon="19.073540">
        <ele>269</ele>
      </trkpt>
<trkpt lat="47.697374" lon="19.073501">
        <ele>269</ele>
      </trkpt>
<trkpt lat="47.697434" lon="19.073327">
        <ele>269</ele>
      </trkpt>
<trkpt lat="47.697428" lon="19.073134">
        <ele>269</ele>
      </trkpt>
<trkpt lat="47.697477" lon="19.072955">
        <ele>263.8</ele>
      </trkpt>
<trkpt lat="47.697305" lon="19.072733">
        <ele>258.6</ele>
      </trkpt>
<trkpt lat="47.697216" lon="19.072777">
        <ele>253.4</ele>
      </trkpt>
<trkpt lat="47.696202" lon="19.073232">
        <ele>246.2</ele>
      </trkpt>
<trkpt lat="47.695940" lon="19.073317">
        <ele>239</ele>
      </trkpt>
<trkpt lat="47.695522" lon="19.073748">
        <ele>237</ele>
      </trkpt>
<trkpt lat="47.695044" lon="19.073980">
        <ele>231.2</ele>
      </trkpt>
<trkpt lat="47.694915" lon="19.074199">
        <ele>225.4</ele>
      </trkpt>
<trkpt lat="47.694778" lon="19.074428">
        <ele>221.6</ele>
      </trkpt>
<trkpt lat="47.693334" lon="19.074520">
        <ele>217.8</ele>
      </trkpt>
<trkpt lat="47.693271" lon="19.074523">
        <ele>214.4</ele>
      </trkpt>
<trkpt lat="47.693319" lon="19.074437">
        <ele>214.8</ele>
      </trkpt>
<trkpt lat="47.693353" lon="19.074121">
        <ele>217.4</ele>
      </trkpt>
<trkpt lat="47.693300" lon="19.072222">
        <ele>219.2</ele>
      </trkpt>
<trkpt lat="47.693067" lon="19.071817">
        <ele>221.8</ele>
      </trkpt>
<trkpt lat="47.693791" lon="19.070864">
        <ele>224</ele>
      </trkpt>
<trkpt lat="47.694426" lon="19.070411">
        <ele>228.2</ele>
      </trkpt>
<trkpt lat="47.694870" lon="19.070251">
        <ele>228.6</ele>
      </trkpt>
<trkpt lat="47.695132" lon="19.069932">
        <ele>232.6</ele>
      </trkpt>
<trkpt lat="47.695555" lon="19.069634">
        <ele>235.8</ele>
      </trkpt>
<trkpt lat="47.696136" lon="19.069523">
        <ele>243.2</ele>
      </trkpt>
<trkpt lat="47.696554" lon="19.069308">
        <ele>247</ele>
      </trkpt>
<trkpt lat="47.696943" lon="19.069151">
        <ele>252.4</ele>
      </trkpt>
<trkpt lat="47.697216" lon="19.068847">
        <ele>255.4</ele>
      </trkpt>
<trkpt lat="47.697643" lon="19.068469">
        <ele>258.4</ele>
      </trkpt>
<trkpt lat="47.697736" lon="19.068187">
        <ele>259</ele>
      </trkpt>
<trkpt lat="47.697777" lon="19.067607">
        <ele>261.6</ele>
      </trkpt>
<trkpt lat="47.697831" lon="19.067499">
        <ele>265.4</ele>
      </trkpt>
<trkpt lat="47.698202" lon="19.067383">
        <ele>268.6</ele>
      </trkpt>
<trkpt lat="47.698609" lon="19.067038">
        <ele>271.8</ele>
      </trkpt>
<trkpt lat="47.698863" lon="19.066494">
        <ele>273.2</ele>
      </trkpt>
<trkpt lat="47.699029" lon="19.066154">
        <ele>275.2</ele>
      </trkpt>
<trkpt lat="47.699093" lon="19.066006">
        <ele>274.8</ele>
      </trkpt>
<trkpt lat="47.699325" lon="19.065417">
        <ele>275.4</ele>
      </trkpt>
<trkpt lat="47.699630" lon="19.064721">
        <ele>276</ele>
      </trkpt>
<trkpt lat="47.700411" lon="19.062937">
        <ele>276.6</ele>
      </trkpt>
<trkpt lat="47.700360" lon="19.062631">
        <ele>276.2</ele>
      </trkpt>
<trkpt lat="47.700241" lon="19.062500">
        <ele>277</ele>
      </trkpt>
<trkpt lat="47.700049" lon="19.062481">
        <ele>278.8</ele>
      </trkpt>
<trkpt lat="47.699728" lon="19.062728">
        <ele>281</ele>
      </trkpt>
<trkpt lat="47.699189" lon="19.063422">
        <ele>282.2</ele>
      </trkpt>
<trkpt lat="47.697187" lon="19.064564">
        <ele>284.4</ele>
      </trkpt>
<trkpt lat="47.696817" lon="19.064579">
        <ele>283.2</ele>
      </trkpt>
<trkpt lat="47.696303" lon="19.064599">
        <ele>278.8</ele>
      </trkpt>
<trkpt lat="47.696806" lon="19.063814">
        <ele>270.4</ele>
      </trkpt>
<trkpt lat="47.695854" lon="19.063151">
        <ele>263</ele>
      </trkpt>
<trkpt lat="47.696180" lon="19.062384">
        <ele>253.4</ele>
      </trkpt>
<trkpt lat="47.695319" lon="19.061604">
        <ele>247.2</ele>
      </trkpt>
<trkpt lat="47.695412" lon="19.061342">
        <ele>243.6</ele>
      </trkpt>
<trkpt lat="47.695399" lon="19.061170">
        <ele>243</ele>
      </trkpt>
<trkpt lat="47.695186" lon="19.061229">
        <ele>242</ele>
      </trkpt>
<trkpt lat="47.695222" lon="19.061360">
        <ele>243</ele>
      </trkpt>
</trkseg>
</trk>
</gpx>



