<?xml version="1.0" encoding="UTF-8"?>
<gpx xmlns="http://www.topografix.com/GPX/1/1" creator="turistautak.openstreetmap.hu" version="1.1" xmlns:xsi="http://www.w3.org/2001/XMLSchema-instance" xsi:schemaLocation="http://www.garmin.com/xmlschemas/GpxExtensions/v3 http://www.garmin.com/xmlschemas/GpxExtensions/v3/GpxExtensionsv3.xsd http://www.topografix.com/GPX/1/1 http://www.topografix.com/GPX/1/1/gpx.xsd">
	<metadata>
		<name>1516985712irfu útvonal</name>
		<desc>1516985712irfu útvonal</desc>
	</metadata>
<trk>
  <name>utv</name>
<trkseg><trkpt lat="47.459786" lon="18.921748">
        <ele>182.5</ele>
      </trkpt>
<trkpt lat="47.459917" lon="18.921661">
        <ele>182.6</ele>
      </trkpt>
<trkpt lat="47.459875" lon="18.921385">
        <ele>184</ele>
      </trkpt>
<trkpt lat="47.459686" lon="18.920352">
        <ele>185.2</ele>
      </trkpt>
<trkpt lat="47.459114" lon="18.918716">
        <ele>186.4</ele>
      </trkpt>
<trkpt lat="47.459905" lon="18.917986">
        <ele>189.4</ele>
      </trkpt>
<trkpt lat="47.460089" lon="18.917756">
        <ele>192.6</ele>
      </trkpt>
<trkpt lat="47.460281" lon="18.917437">
        <ele>195.4</ele>
      </trkpt>
<trkpt lat="47.460770" lon="18.917029">
        <ele>198.4</ele>
      </trkpt>
<trkpt lat="47.460767" lon="18.916328">
        <ele>202.2</ele>
      </trkpt>
<trkpt lat="47.460509" lon="18.914768">
        <ele>205.8</ele>
      </trkpt>
<trkpt lat="47.460519" lon="18.914593">
        <ele>212</ele>
      </trkpt>
<trkpt lat="47.460597" lon="18.914384">
        <ele>220.4</ele>
      </trkpt>
<trkpt lat="47.461158" lon="18.913625">
        <ele>230.6</ele>
      </trkpt>
<trkpt lat="47.461476" lon="18.912918">
        <ele>240</ele>
      </trkpt>
<trkpt lat="47.462043" lon="18.912077">
        <ele>247.4</ele>
      </trkpt>
<trkpt lat="47.462141" lon="18.911927">
        <ele>251.6</ele>
      </trkpt>
<trkpt lat="47.462258" lon="18.911701">
        <ele>254.8</ele>
      </trkpt>
<trkpt lat="47.462221" lon="18.911350">
        <ele>258</ele>
      </trkpt>
<trkpt lat="47.461995" lon="18.910827">
        <ele>261.2</ele>
      </trkpt>
<trkpt lat="47.462097" lon="18.910523">
        <ele>264.4</ele>
      </trkpt>
<trkpt lat="47.462172" lon="18.910224">
        <ele>269.2</ele>
      </trkpt>
<trkpt lat="47.462420" lon="18.909855">
        <ele>272</ele>
      </trkpt>
<trkpt lat="47.462560" lon="18.909695">
        <ele>273.6</ele>
      </trkpt>
<trkpt lat="47.462650" lon="18.909318">
        <ele>275.2</ele>
      </trkpt>
<trkpt lat="47.462573" lon="18.908924">
        <ele>276.8</ele>
      </trkpt>
<trkpt lat="47.462962" lon="18.908069">
        <ele>277.4</ele>
      </trkpt>
<trkpt lat="47.463166" lon="18.907804">
        <ele>278</ele>
      </trkpt>
<trkpt lat="47.463482" lon="18.907284">
        <ele>278</ele>
      </trkpt>
<trkpt lat="47.463634" lon="18.907161">
        <ele>278</ele>
      </trkpt>
<trkpt lat="47.463482" lon="18.907284">
        <ele>277.4</ele>
      </trkpt>
<trkpt lat="47.463166" lon="18.907804">
        <ele>276.8</ele>
      </trkpt>
<trkpt lat="47.462962" lon="18.908069">
        <ele>275.2</ele>
      </trkpt>
<trkpt lat="47.462573" lon="18.908924">
        <ele>273.6</ele>
      </trkpt>
<trkpt lat="47.462650" lon="18.909318">
        <ele>272</ele>
      </trkpt>
<trkpt lat="47.462560" lon="18.909695">
        <ele>269.2</ele>
      </trkpt>
<trkpt lat="47.462420" lon="18.909855">
        <ele>265.8</ele>
      </trkpt>
<trkpt lat="47.462763" lon="18.910291">
        <ele>263.4</ele>
      </trkpt>
<trkpt lat="47.462848" lon="18.910579">
        <ele>261.2</ele>
      </trkpt>
<trkpt lat="47.462979" lon="18.910750">
        <ele>259</ele>
      </trkpt>
<trkpt lat="47.463020" lon="18.910990">
        <ele>258.4</ele>
      </trkpt>
<trkpt lat="47.463022" lon="18.911698">
        <ele>258.4</ele>
      </trkpt>
<trkpt lat="47.462944" lon="18.911967">
        <ele>258.4</ele>
      </trkpt>
<trkpt lat="47.462777" lon="18.912288">
        <ele>258.4</ele>
      </trkpt>
<trkpt lat="47.462618" lon="18.912580">
        <ele>258.4</ele>
      </trkpt>
<trkpt lat="47.462529" lon="18.912833">
        <ele>256.6</ele>
      </trkpt>
<trkpt lat="47.462510" lon="18.913088">
        <ele>258.2</ele>
      </trkpt>
<trkpt lat="47.462635" lon="18.913522">
        <ele>259.8</ele>
      </trkpt>
<trkpt lat="47.462855" lon="18.913841">
        <ele>261.2</ele>
      </trkpt>
<trkpt lat="47.463053" lon="18.913966">
        <ele>260.8</ele>
      </trkpt>
<trkpt lat="47.463132" lon="18.913930">
        <ele>262.4</ele>
      </trkpt>
<trkpt lat="47.463280" lon="18.913981">
        <ele>260.6</ele>
      </trkpt>
<trkpt lat="47.463458" lon="18.914988">
        <ele>260.8</ele>
      </trkpt>
<trkpt lat="47.463575" lon="18.915185">
        <ele>261</ele>
      </trkpt>
<trkpt lat="47.463750" lon="18.915322">
        <ele>259.2</ele>
      </trkpt>
<trkpt lat="47.464042" lon="18.915428">
        <ele>262.2</ele>
      </trkpt>
<trkpt lat="47.463870" lon="18.916078">
        <ele>266.6</ele>
      </trkpt>
<trkpt lat="47.463722" lon="18.916490">
        <ele>264</ele>
      </trkpt>
<trkpt lat="47.463790" lon="18.916902">
        <ele>260.8</ele>
      </trkpt>
<trkpt lat="47.463800" lon="18.917307">
        <ele>261.4</ele>
      </trkpt>
<trkpt lat="47.463517" lon="18.918579">
        <ele>262.2</ele>
      </trkpt>
<trkpt lat="47.463568" lon="18.919953">
        <ele>257.4</ele>
      </trkpt>
<trkpt lat="47.463674" lon="18.920344">
        <ele>257.6</ele>
      </trkpt>
<trkpt lat="47.463785" lon="18.920489">
        <ele>263.8</ele>
      </trkpt>
<trkpt lat="47.464143" lon="18.921373">
        <ele>270</ele>
      </trkpt>
<trkpt lat="47.464462" lon="18.921513">
        <ele>269.6</ele>
      </trkpt>
<trkpt lat="47.465064" lon="18.920966">
        <ele>276.6</ele>
      </trkpt>
<trkpt lat="47.465393" lon="18.920940">
        <ele>280</ele>
      </trkpt>
<trkpt lat="47.465832" lon="18.920439">
        <ele>278</ele>
      </trkpt>
<trkpt lat="47.466530" lon="18.919989">
        <ele>276.2</ele>
      </trkpt>
<trkpt lat="47.466886" lon="18.920499">
        <ele>274.6</ele>
      </trkpt>
<trkpt lat="47.466972" lon="18.920750">
        <ele>269.8</ele>
      </trkpt>
<trkpt lat="47.467401" lon="18.920882">
        <ele>265.8</ele>
      </trkpt>
<trkpt lat="47.467642" lon="18.921434">
        <ele>261.8</ele>
      </trkpt>
<trkpt lat="47.467519" lon="18.921950">
        <ele>259</ele>
      </trkpt>
<trkpt lat="47.467039" lon="18.923201">
        <ele>257.6</ele>
      </trkpt>
<trkpt lat="47.467033" lon="18.923712">
        <ele>256.2</ele>
      </trkpt>
<trkpt lat="47.467135" lon="18.923969">
        <ele>260.8</ele>
      </trkpt>
<trkpt lat="47.467358" lon="18.924145">
        <ele>262</ele>
      </trkpt>
<trkpt lat="47.467712" lon="18.924201">
        <ele>261.8</ele>
      </trkpt>
<trkpt lat="47.468135" lon="18.924445">
        <ele>260.6</ele>
      </trkpt>
<trkpt lat="47.468426" lon="18.924853">
        <ele>259.4</ele>
      </trkpt>
<trkpt lat="47.468517" lon="18.925181">
        <ele>253.6</ele>
      </trkpt>
<trkpt lat="47.468554" lon="18.925611">
        <ele>248.4</ele>
      </trkpt>
<trkpt lat="47.468464" lon="18.926345">
        <ele>243.4</ele>
      </trkpt>
<trkpt lat="47.467984" lon="18.928382">
        <ele>238.6</ele>
      </trkpt>
<trkpt lat="47.467581" lon="18.929837">
        <ele>233.8</ele>
      </trkpt>
<trkpt lat="47.467387" lon="18.930901">
        <ele>230.4</ele>
      </trkpt>
<trkpt lat="47.466803" lon="18.932555">
        <ele>229.8</ele>
      </trkpt>
<trkpt lat="47.466707" lon="18.933105">
        <ele>229</ele>
      </trkpt>
<trkpt lat="47.466694" lon="18.933229">
        <ele>226.8</ele>
      </trkpt>
<trkpt lat="47.466684" lon="18.933325">
        <ele>228.4</ele>
      </trkpt>
<trkpt lat="47.466587" lon="18.933166">
        <ele>231.4</ele>
      </trkpt>
<trkpt lat="47.466138" lon="18.931546">
        <ele>234.4</ele>
      </trkpt>
<trkpt lat="47.464958" lon="18.933166">
        <ele>237.4</ele>
      </trkpt>
<trkpt lat="47.464291" lon="18.933606">
        <ele>242.6</ele>
      </trkpt>
<trkpt lat="47.464258" lon="18.933732">
        <ele>244</ele>
      </trkpt>
<trkpt lat="47.464296" lon="18.933797">
        <ele>244</ele>
      </trkpt>
<trkpt lat="47.464200" lon="18.933880">
        <ele>244</ele>
      </trkpt>
<trkpt lat="47.464144" lon="18.933928">
        <ele>244</ele>
      </trkpt>
<trkpt lat="47.464279" lon="18.933914">
        <ele>244</ele>
      </trkpt>
<trkpt lat="47.464358" lon="18.934005">
        <ele>244</ele>
      </trkpt>
<trkpt lat="47.464602" lon="18.934031">
        <ele>244</ele>
      </trkpt>
<trkpt lat="47.464716" lon="18.934119">
        <ele>244</ele>
      </trkpt>
<trkpt lat="47.464812" lon="18.934324">
        <ele>244</ele>
      </trkpt>
<trkpt lat="47.464850" lon="18.934262">
        <ele>241.2</ele>
      </trkpt>
<trkpt lat="47.465004" lon="18.934012">
        <ele>237</ele>
      </trkpt>
<trkpt lat="47.465273" lon="18.933890">
        <ele>232.8</ele>
      </trkpt>
<trkpt lat="47.465724" lon="18.934440">
        <ele>225.8</ele>
      </trkpt>
<trkpt lat="47.465854" lon="18.934827">
        <ele>218.8</ele>
      </trkpt>
<trkpt lat="47.465839" lon="18.935207">
        <ele>217.4</ele>
      </trkpt>
<trkpt lat="47.465605" lon="18.935852">
        <ele>216</ele>
      </trkpt>
<trkpt lat="47.466009" lon="18.935444">
        <ele>216.6</ele>
      </trkpt>
<trkpt lat="47.466173" lon="18.934931">
        <ele>220.6</ele>
      </trkpt>
<trkpt lat="47.466341" lon="18.934782">
        <ele>223.6</ele>
      </trkpt>
<trkpt lat="47.466564" lon="18.934381">
        <ele>226</ele>
      </trkpt>
<trkpt lat="47.466878" lon="18.933731">
        <ele>229.8</ele>
      </trkpt>
<trkpt lat="47.467369" lon="18.933824">
        <ele>226.6</ele>
      </trkpt>
<trkpt lat="47.467579" lon="18.933707">
        <ele>221.4</ele>
      </trkpt>
<trkpt lat="47.467685" lon="18.933746">
        <ele>215.6</ele>
      </trkpt>
<trkpt lat="47.467276" lon="18.935005">
        <ele>207.6</ele>
      </trkpt>
<trkpt lat="47.466973" lon="18.935769">
        <ele>199.6</ele>
      </trkpt>
<trkpt lat="47.466614" lon="18.936254">
        <ele>194.6</ele>
      </trkpt>
<trkpt lat="47.466162" lon="18.936501">
        <ele>191</ele>
      </trkpt>
<trkpt lat="47.465737" lon="18.936946">
        <ele>189</ele>
      </trkpt>
<trkpt lat="47.465175" lon="18.937190">
        <ele>187</ele>
      </trkpt>
<trkpt lat="47.464767" lon="18.937691">
        <ele>185</ele>
      </trkpt>
<trkpt lat="47.464776" lon="18.937770">
        <ele>185.2</ele>
      </trkpt>
<trkpt lat="47.464767" lon="18.937691">
        <ele>187.8</ele>
      </trkpt>
<trkpt lat="47.464985" lon="18.937658">
        <ele>190.4</ele>
      </trkpt>
<trkpt lat="47.465263" lon="18.938010">
        <ele>193</ele>
      </trkpt>
<trkpt lat="47.465423" lon="18.938048">
        <ele>195.6</ele>
      </trkpt>
<trkpt lat="47.465478" lon="18.938223">
        <ele>200.6</ele>
      </trkpt>
<trkpt lat="47.465454" lon="18.938399">
        <ele>205.4</ele>
      </trkpt>
<trkpt lat="47.465566" lon="18.938686">
        <ele>211.4</ele>
      </trkpt>
<trkpt lat="47.465574" lon="18.938964">
        <ele>219.6</ele>
      </trkpt>
<trkpt lat="47.465873" lon="18.939804">
        <ele>227.8</ele>
      </trkpt>
<trkpt lat="47.466458" lon="18.940675">
        <ele>235</ele>
      </trkpt>
<trkpt lat="47.466587" lon="18.941310">
        <ele>240</ele>
      </trkpt>
<trkpt lat="47.466614" lon="18.941760">
        <ele>243.8</ele>
      </trkpt>
<trkpt lat="47.466708" lon="18.942084">
        <ele>244</ele>
      </trkpt>
<trkpt lat="47.466847" lon="18.942484">
        <ele>246.2</ele>
      </trkpt>
<trkpt lat="47.466926" lon="18.942703">
        <ele>246.8</ele>
      </trkpt>
<trkpt lat="47.467117" lon="18.942827">
        <ele>250.2</ele>
      </trkpt>
<trkpt lat="47.467283" lon="18.943217">
        <ele>253.6</ele>
      </trkpt>
<trkpt lat="47.467510" lon="18.943611">
        <ele>260.4</ele>
      </trkpt>
<trkpt lat="47.467411" lon="18.943902">
        <ele>266.6</ele>
      </trkpt>
<trkpt lat="47.467422" lon="18.944064">
        <ele>273.8</ele>
      </trkpt>
<trkpt lat="47.467753" lon="18.944617">
        <ele>277.6</ele>
      </trkpt>
<trkpt lat="47.467954" lon="18.945395">
        <ele>281.2</ele>
      </trkpt>
<trkpt lat="47.467960" lon="18.945736">
        <ele>281</ele>
      </trkpt>
<trkpt lat="47.467914" lon="18.946023">
        <ele>277.6</ele>
      </trkpt>
<trkpt lat="47.467800" lon="18.946740">
        <ele>273.2</ele>
      </trkpt>
<trkpt lat="47.468079" lon="18.947672">
        <ele>265.4</ele>
      </trkpt>
<trkpt lat="47.468366" lon="18.948055">
        <ele>257.8</ele>
      </trkpt>
<trkpt lat="47.468360" lon="18.948523">
        <ele>252</ele>
      </trkpt>
<trkpt lat="47.468469" lon="18.948945">
        <ele>248</ele>
      </trkpt>
<trkpt lat="47.468411" lon="18.949067">
        <ele>241.8</ele>
      </trkpt>
<trkpt lat="47.468401" lon="18.949458">
        <ele>239.6</ele>
      </trkpt>
<trkpt lat="47.468453" lon="18.949406">
        <ele>237.4</ele>
      </trkpt>
<trkpt lat="47.469016" lon="18.948843">
        <ele>235.2</ele>
      </trkpt>
<trkpt lat="47.469133" lon="18.949074">
        <ele>233</ele>
      </trkpt>
<trkpt lat="47.469433" lon="18.949360">
        <ele>231</ele>
      </trkpt>
<trkpt lat="47.469466" lon="18.949434">
        <ele>229</ele>
      </trkpt>
<trkpt lat="47.469367" lon="18.949572">
        <ele>222.8</ele>
      </trkpt>
<trkpt lat="47.469235" lon="18.949807">
        <ele>216.6</ele>
      </trkpt>
<trkpt lat="47.469151" lon="18.950067">
        <ele>210.2</ele>
      </trkpt>
<trkpt lat="47.468549" lon="18.950690">
        <ele>203.6</ele>
      </trkpt>
<trkpt lat="47.468323" lon="18.950995">
        <ele>197</ele>
      </trkpt>
<trkpt lat="47.468123" lon="18.951541">
        <ele>192.6</ele>
      </trkpt>
<trkpt lat="47.467856" lon="18.952058">
        <ele>186.4</ele>
      </trkpt>
<trkpt lat="47.467096" lon="18.952683">
        <ele>180.4</ele>
      </trkpt>
<trkpt lat="47.466763" lon="18.952927">
        <ele>176.6</ele>
      </trkpt>
<trkpt lat="47.465968" lon="18.953518">
        <ele>172.8</ele>
      </trkpt>
<trkpt lat="47.465875" lon="18.953574">
        <ele>171</ele>
      </trkpt>
<trkpt lat="47.465805" lon="18.953616">
        <ele>171</ele>
      </trkpt>
<trkpt lat="47.465742" lon="18.953654">
        <ele>171</ele>
      </trkpt>
<trkpt lat="47.465641" lon="18.953714">
        <ele>169.2</ele>
      </trkpt>
<trkpt lat="47.465585" lon="18.953748">
        <ele>166.6</ele>
      </trkpt>
<trkpt lat="47.465033" lon="18.952994">
        <ele>164</ele>
      </trkpt>
<trkpt lat="47.464506" lon="18.952560">
        <ele>161.4</ele>
      </trkpt>
<trkpt lat="47.463734" lon="18.952189">
        <ele>157.6</ele>
      </trkpt>
<trkpt lat="47.463499" lon="18.952215">
        <ele>155.6</ele>
      </trkpt>
<trkpt lat="47.463100" lon="18.952498">
        <ele>154.4</ele>
      </trkpt>
<trkpt lat="47.462833" lon="18.952642">
        <ele>152</ele>
      </trkpt>
<trkpt lat="47.462690" lon="18.952712">
        <ele>148.8</ele>
      </trkpt>
<trkpt lat="47.462561" lon="18.952784">
        <ele>146.8</ele>
      </trkpt>
<trkpt lat="47.461052" lon="18.953349">
        <ele>145.5</ele>
      </trkpt>
<trkpt lat="47.460346" lon="18.953593">
        <ele>143.33333333333</ele>
      </trkpt>
<trkpt lat="47.460246" lon="18.953627">
        <ele>142</ele>
      </trkpt>
</trkseg>
</trk>
</gpx>



