<?xml version="1.0" encoding="UTF-8"?>
<gpx xmlns="http://www.topografix.com/GPX/1/1" creator="turistautak.openstreetmap.hu" version="1.1" xmlns:xsi="http://www.w3.org/2001/XMLSchema-instance" xsi:schemaLocation="http://www.garmin.com/xmlschemas/GpxExtensions/v3 http://www.garmin.com/xmlschemas/GpxExtensions/v3/GpxExtensionsv3.xsd http://www.topografix.com/GPX/1/1 http://www.topografix.com/GPX/1/1/gpx.xsd">
	<metadata>
		<name>1611743896h7pn útvonal</name>
		<desc>1611743896h7pn útvonal</desc>
	</metadata>
<trk>
  <name>utv</name>
<trkseg><trkpt lat="47.561253" lon="18.823832">
        <ele>264.5</ele>
      </trkpt>
<trkpt lat="47.561919" lon="18.824711">
        <ele>266.2</ele>
      </trkpt>
<trkpt lat="47.561979" lon="18.824837">
        <ele>269.4</ele>
      </trkpt>
<trkpt lat="47.562202" lon="18.824900">
        <ele>271.2</ele>
      </trkpt>
<trkpt lat="47.562326" lon="18.824870">
        <ele>275.2</ele>
      </trkpt>
<trkpt lat="47.562452" lon="18.824941">
        <ele>277.4</ele>
      </trkpt>
<trkpt lat="47.562643" lon="18.825289">
        <ele>279.6</ele>
      </trkpt>
<trkpt lat="47.562827" lon="18.826418">
        <ele>283.2</ele>
      </trkpt>
<trkpt lat="47.562781" lon="18.826680">
        <ele>286.8</ele>
      </trkpt>
<trkpt lat="47.562792" lon="18.826982">
        <ele>288.2</ele>
      </trkpt>
<trkpt lat="47.562717" lon="18.827177">
        <ele>291</ele>
      </trkpt>
<trkpt lat="47.562497" lon="18.827368">
        <ele>292.6</ele>
      </trkpt>
<trkpt lat="47.562426" lon="18.827430">
        <ele>293.6</ele>
      </trkpt>
<trkpt lat="47.562109" lon="18.828076">
        <ele>295</ele>
      </trkpt>
<trkpt lat="47.561938" lon="18.828675">
        <ele>296.4</ele>
      </trkpt>
<trkpt lat="47.561922" lon="18.829385">
        <ele>296.4</ele>
      </trkpt>
<trkpt lat="47.562015" lon="18.829741">
        <ele>297.6</ele>
      </trkpt>
<trkpt lat="47.561941" lon="18.829956">
        <ele>298</ele>
      </trkpt>
<trkpt lat="47.561559" lon="18.829769">
        <ele>299.8</ele>
      </trkpt>
<trkpt lat="47.561372" lon="18.829781">
        <ele>301.6</ele>
      </trkpt>
<trkpt lat="47.561256" lon="18.829855">
        <ele>303.4</ele>
      </trkpt>
<trkpt lat="47.561665" lon="18.830863">
        <ele>307.4</ele>
      </trkpt>
<trkpt lat="47.561688" lon="18.831059">
        <ele>312.6</ele>
      </trkpt>
<trkpt lat="47.561651" lon="18.831190">
        <ele>316.6</ele>
      </trkpt>
<trkpt lat="47.561368" lon="18.831471">
        <ele>321.2</ele>
      </trkpt>
<trkpt lat="47.561951" lon="18.832919">
        <ele>325.8</ele>
      </trkpt>
<trkpt lat="47.562858" lon="18.832071">
        <ele>328.2</ele>
      </trkpt>
<trkpt lat="47.563130" lon="18.831886">
        <ele>329.4</ele>
      </trkpt>
<trkpt lat="47.563296" lon="18.831616">
        <ele>329.2</ele>
      </trkpt>
<trkpt lat="47.563297" lon="18.831345">
        <ele>328.4</ele>
      </trkpt>
<trkpt lat="47.563298" lon="18.831259">
        <ele>329.8</ele>
      </trkpt>
<trkpt lat="47.563346" lon="18.831042">
        <ele>332</ele>
      </trkpt>
<trkpt lat="47.563521" lon="18.830921">
        <ele>334.2</ele>
      </trkpt>
<trkpt lat="47.563823" lon="18.830522">
        <ele>336.4</ele>
      </trkpt>
<trkpt lat="47.564129" lon="18.830284">
        <ele>338.6</ele>
      </trkpt>
<trkpt lat="47.564294" lon="18.830309">
        <ele>341.4</ele>
      </trkpt>
<trkpt lat="47.564437" lon="18.830497">
        <ele>343.4</ele>
      </trkpt>
<trkpt lat="47.564526" lon="18.830533">
        <ele>347.8</ele>
      </trkpt>
<trkpt lat="47.564732" lon="18.830452">
        <ele>353</ele>
      </trkpt>
<trkpt lat="47.565153" lon="18.830501">
        <ele>357.8</ele>
      </trkpt>
<trkpt lat="47.565425" lon="18.830613">
        <ele>359.8</ele>
      </trkpt>
<trkpt lat="47.565591" lon="18.830718">
        <ele>361.8</ele>
      </trkpt>
<trkpt lat="47.565548" lon="18.830405">
        <ele>360.8</ele>
      </trkpt>
<trkpt lat="47.565645" lon="18.830026">
        <ele>359.8</ele>
      </trkpt>
<trkpt lat="47.565869" lon="18.829619">
        <ele>357.6</ele>
      </trkpt>
<trkpt lat="47.566108" lon="18.828946">
        <ele>355.4</ele>
      </trkpt>
<trkpt lat="47.566134" lon="18.828762">
        <ele>353.2</ele>
      </trkpt>
<trkpt lat="47.566225" lon="18.828134">
        <ele>351.6</ele>
      </trkpt>
<trkpt lat="47.566319" lon="18.827882">
        <ele>347.6</ele>
      </trkpt>
<trkpt lat="47.566581" lon="18.827536">
        <ele>342.8</ele>
      </trkpt>
<trkpt lat="47.566605" lon="18.827139">
        <ele>338.8</ele>
      </trkpt>
<trkpt lat="47.566749" lon="18.826562">
        <ele>334.8</ele>
      </trkpt>
<trkpt lat="47.566956" lon="18.825791">
        <ele>329.4</ele>
      </trkpt>
<trkpt lat="47.567150" lon="18.824844">
        <ele>324.4</ele>
      </trkpt>
<trkpt lat="47.567195" lon="18.824623">
        <ele>319.4</ele>
      </trkpt>
<trkpt lat="47.567168" lon="18.824218">
        <ele>313.6</ele>
      </trkpt>
<trkpt lat="47.567101" lon="18.823556">
        <ele>304.4</ele>
      </trkpt>
<trkpt lat="47.566882" lon="18.822821">
        <ele>296.6</ele>
      </trkpt>
<trkpt lat="47.566386" lon="18.822304">
        <ele>290.8</ele>
      </trkpt>
<trkpt lat="47.566201" lon="18.822080">
        <ele>285.4</ele>
      </trkpt>
<trkpt lat="47.565774" lon="18.821941">
        <ele>280</ele>
      </trkpt>
<trkpt lat="47.565596" lon="18.821884">
        <ele>279</ele>
      </trkpt>
<trkpt lat="47.565260" lon="18.821889">
        <ele>278</ele>
      </trkpt>
<trkpt lat="47.564977" lon="18.821959">
        <ele>276.4</ele>
      </trkpt>
<trkpt lat="47.564713" lon="18.822337">
        <ele>277.8</ele>
      </trkpt>
<trkpt lat="47.564588" lon="18.822766">
        <ele>279.2</ele>
      </trkpt>
<trkpt lat="47.564306" lon="18.823363">
        <ele>278.2</ele>
      </trkpt>
<trkpt lat="47.564026" lon="18.824071">
        <ele>277.2</ele>
      </trkpt>
<trkpt lat="47.563884" lon="18.824298">
        <ele>276.6</ele>
      </trkpt>
<trkpt lat="47.563599" lon="18.824384">
        <ele>275</ele>
      </trkpt>
<trkpt lat="47.563145" lon="18.824520">
        <ele>271.6</ele>
      </trkpt>
<trkpt lat="47.562326" lon="18.824870">
        <ele>269.6</ele>
      </trkpt>
<trkpt lat="47.562202" lon="18.824900">
        <ele>266.2</ele>
      </trkpt>
<trkpt lat="47.561979" lon="18.824837">
        <ele>261.6</ele>
      </trkpt>
<trkpt lat="47.561919" lon="18.824711">
        <ele>258.75</ele>
      </trkpt>
<trkpt lat="47.561253" lon="18.823832">
        <ele>257</ele>
      </trkpt>
<trkpt lat="47.561160" lon="18.823837">
        <ele>253.5</ele>
      </trkpt>
</trkseg>
</trk>
</gpx>



