<?xml version="1.0" encoding="UTF-8"?>
<gpx xmlns="http://www.topografix.com/GPX/1/1" creator="turistautak.openstreetmap.hu" version="1.1" xmlns:xsi="http://www.w3.org/2001/XMLSchema-instance" xsi:schemaLocation="http://www.garmin.com/xmlschemas/GpxExtensions/v3 http://www.garmin.com/xmlschemas/GpxExtensions/v3/GpxExtensionsv3.xsd http://www.topografix.com/GPX/1/1 http://www.topografix.com/GPX/1/1/gpx.xsd">
	<metadata>
		<name>1516890158xesy útvonal</name>
		<desc>1516890158xesy útvonal</desc>
	</metadata>
<trk>
  <name>utv</name>
<trkseg><trkpt lat="47.694970" lon="18.999864">
        <ele>255.5</ele>
      </trkpt>
<trkpt lat="47.695023" lon="18.999602">
        <ele>258.4</ele>
      </trkpt>
<trkpt lat="47.695845" lon="18.998510">
        <ele>262.2</ele>
      </trkpt>
<trkpt lat="47.695920" lon="18.998306">
        <ele>267.4</ele>
      </trkpt>
<trkpt lat="47.695932" lon="18.997751">
        <ele>273.2</ele>
      </trkpt>
<trkpt lat="47.695939" lon="18.997467">
        <ele>279.2</ele>
      </trkpt>
<trkpt lat="47.696240" lon="18.996435">
        <ele>282</ele>
      </trkpt>
<trkpt lat="47.696369" lon="18.995344">
        <ele>284.2</ele>
      </trkpt>
<trkpt lat="47.696239" lon="18.993598">
        <ele>285.4</ele>
      </trkpt>
<trkpt lat="47.696572" lon="18.991594">
        <ele>284.2</ele>
      </trkpt>
<trkpt lat="47.696897" lon="18.990290">
        <ele>283.4</ele>
      </trkpt>
<trkpt lat="47.697297" lon="18.989322">
        <ele>283.8</ele>
      </trkpt>
<trkpt lat="47.697854" lon="18.988769">
        <ele>285</ele>
      </trkpt>
<trkpt lat="47.697944" lon="18.988430">
        <ele>285.8</ele>
      </trkpt>
<trkpt lat="47.698502" lon="18.987969">
        <ele>286.6</ele>
      </trkpt>
<trkpt lat="47.698757" lon="18.987516">
        <ele>287</ele>
      </trkpt>
<trkpt lat="47.699027" lon="18.987316">
        <ele>287.4</ele>
      </trkpt>
<trkpt lat="47.699365" lon="18.987198">
        <ele>287.6</ele>
      </trkpt>
<trkpt lat="47.699666" lon="18.986985">
        <ele>289</ele>
      </trkpt>
<trkpt lat="47.699737" lon="18.986924">
        <ele>291.8</ele>
      </trkpt>
<trkpt lat="47.700201" lon="18.986525">
        <ele>293.8</ele>
      </trkpt>
<trkpt lat="47.701004" lon="18.985709">
        <ele>295.8</ele>
      </trkpt>
<trkpt lat="47.701776" lon="18.985408">
        <ele>297</ele>
      </trkpt>
<trkpt lat="47.702253" lon="18.984575">
        <ele>297</ele>
      </trkpt>
<trkpt lat="47.702282" lon="18.984215">
        <ele>295.6</ele>
      </trkpt>
<trkpt lat="47.702229" lon="18.983606">
        <ele>296.8</ele>
      </trkpt>
<trkpt lat="47.702296" lon="18.983373">
        <ele>297</ele>
      </trkpt>
<trkpt lat="47.702706" lon="18.983099">
        <ele>298</ele>
      </trkpt>
<trkpt lat="47.702928" lon="18.983111">
        <ele>299</ele>
      </trkpt>
<trkpt lat="47.703076" lon="18.982909">
        <ele>300</ele>
      </trkpt>
<trkpt lat="47.702955" lon="18.982603">
        <ele>299</ele>
      </trkpt>
<trkpt lat="47.702990" lon="18.982043">
        <ele>299</ele>
      </trkpt>
<trkpt lat="47.703181" lon="18.981800">
        <ele>299.4</ele>
      </trkpt>
<trkpt lat="47.703405" lon="18.981740">
        <ele>299.8</ele>
      </trkpt>
<trkpt lat="47.703638" lon="18.981807">
        <ele>300.2</ele>
      </trkpt>
<trkpt lat="47.704035" lon="18.981571">
        <ele>300.2</ele>
      </trkpt>
<trkpt lat="47.704074" lon="18.981267">
        <ele>300.2</ele>
      </trkpt>
<trkpt lat="47.704636" lon="18.981040">
        <ele>301.4</ele>
      </trkpt>
<trkpt lat="47.705141" lon="18.980153">
        <ele>302.2</ele>
      </trkpt>
<trkpt lat="47.705318" lon="18.979859">
        <ele>303</ele>
      </trkpt>
<trkpt lat="47.706126" lon="18.979644">
        <ele>304.4</ele>
      </trkpt>
<trkpt lat="47.706421" lon="18.979191">
        <ele>307</ele>
      </trkpt>
<trkpt lat="47.706478" lon="18.978805">
        <ele>308</ele>
      </trkpt>
<trkpt lat="47.706666" lon="18.978455">
        <ele>309</ele>
      </trkpt>
<trkpt lat="47.707061" lon="18.977306">
        <ele>310</ele>
      </trkpt>
<trkpt lat="47.707071" lon="18.977088">
        <ele>310.8</ele>
      </trkpt>
<trkpt lat="47.707345" lon="18.976552">
        <ele>310.4</ele>
      </trkpt>
<trkpt lat="47.707439" lon="18.976227">
        <ele>310.8</ele>
      </trkpt>
<trkpt lat="47.707475" lon="18.975886">
        <ele>311.6</ele>
      </trkpt>
<trkpt lat="47.707405" lon="18.975542">
        <ele>312.4</ele>
      </trkpt>
<trkpt lat="47.707496" lon="18.974392">
        <ele>313.4</ele>
      </trkpt>
<trkpt lat="47.707651" lon="18.973835">
        <ele>314.4</ele>
      </trkpt>
<trkpt lat="47.707652" lon="18.973808">
        <ele>314.6</ele>
      </trkpt>
<trkpt lat="47.707651" lon="18.973720">
        <ele>315</ele>
      </trkpt>
<trkpt lat="47.707655" lon="18.973565">
        <ele>315.4</ele>
      </trkpt>
<trkpt lat="47.707831" lon="18.973031">
        <ele>315.6</ele>
      </trkpt>
<trkpt lat="47.707728" lon="18.972132">
        <ele>316.2</ele>
      </trkpt>
<trkpt lat="47.707621" lon="18.972131">
        <ele>316.8</ele>
      </trkpt>
<trkpt lat="47.707558" lon="18.972131">
        <ele>317.2</ele>
      </trkpt>
<trkpt lat="47.707486" lon="18.971987">
        <ele>319.2</ele>
      </trkpt>
<trkpt lat="47.707422" lon="18.971832">
        <ele>320.8</ele>
      </trkpt>
<trkpt lat="47.707322" lon="18.971265">
        <ele>322</ele>
      </trkpt>
<trkpt lat="47.706919" lon="18.969631">
        <ele>323.6</ele>
      </trkpt>
<trkpt lat="47.706716" lon="18.969353">
        <ele>325.8</ele>
      </trkpt>
<trkpt lat="47.706291" lon="18.969094">
        <ele>326.4</ele>
      </trkpt>
<trkpt lat="47.705812" lon="18.969114">
        <ele>327.4</ele>
      </trkpt>
<trkpt lat="47.705312" lon="18.969378">
        <ele>328.4</ele>
      </trkpt>
<trkpt lat="47.705176" lon="18.969342">
        <ele>329.2</ele>
      </trkpt>
<trkpt lat="47.705062" lon="18.969198">
        <ele>330.6</ele>
      </trkpt>
<trkpt lat="47.704973" lon="18.968902">
        <ele>331.8</ele>
      </trkpt>
<trkpt lat="47.704966" lon="18.968414">
        <ele>333</ele>
      </trkpt>
<trkpt lat="47.704790" lon="18.967823">
        <ele>334.8</ele>
      </trkpt>
<trkpt lat="47.704164" lon="18.966830">
        <ele>336.4</ele>
      </trkpt>
<trkpt lat="47.704121" lon="18.966632">
        <ele>335.8</ele>
      </trkpt>
<trkpt lat="47.704120" lon="18.966109">
        <ele>335.4</ele>
      </trkpt>
<trkpt lat="47.704247" lon="18.965587">
        <ele>335</ele>
      </trkpt>
<trkpt lat="47.704783" lon="18.964544">
        <ele>336.2</ele>
      </trkpt>
<trkpt lat="47.704985" lon="18.964309">
        <ele>335</ele>
      </trkpt>
<trkpt lat="47.705319" lon="18.964098">
        <ele>334.8</ele>
      </trkpt>
<trkpt lat="47.705438" lon="18.963910">
        <ele>334.6</ele>
      </trkpt>
<trkpt lat="47.705544" lon="18.963743">
        <ele>332.8</ele>
      </trkpt>
<trkpt lat="47.705608" lon="18.963481">
        <ele>328.8</ele>
      </trkpt>
<trkpt lat="47.705529" lon="18.963155">
        <ele>327</ele>
      </trkpt>
<trkpt lat="47.705537" lon="18.962407">
        <ele>326</ele>
      </trkpt>
<trkpt lat="47.705598" lon="18.962185">
        <ele>325.6</ele>
      </trkpt>
<trkpt lat="47.705554" lon="18.961953">
        <ele>326.8</ele>
      </trkpt>
<trkpt lat="47.705412" lon="18.961898">
        <ele>328.6</ele>
      </trkpt>
<trkpt lat="47.705136" lon="18.961110">
        <ele>332.4</ele>
      </trkpt>
<trkpt lat="47.704635" lon="18.960895">
        <ele>335.4</ele>
      </trkpt>
<trkpt lat="47.704416" lon="18.960643">
        <ele>337.8</ele>
      </trkpt>
<trkpt lat="47.703599" lon="18.957778">
        <ele>340.2</ele>
      </trkpt>
<trkpt lat="47.703394" lon="18.957392">
        <ele>342</ele>
      </trkpt>
<trkpt lat="47.702929" lon="18.957058">
        <ele>342.8</ele>
      </trkpt>
<trkpt lat="47.703056" lon="18.956628">
        <ele>344.4</ele>
      </trkpt>
<trkpt lat="47.703096" lon="18.956323">
        <ele>349</ele>
      </trkpt>
<trkpt lat="47.703015" lon="18.956114">
        <ele>353.8</ele>
      </trkpt>
<trkpt lat="47.702938" lon="18.955074">
        <ele>356.2</ele>
      </trkpt>
<trkpt lat="47.702853" lon="18.954787">
        <ele>358.6</ele>
      </trkpt>
<trkpt lat="47.702872" lon="18.954572">
        <ele>360.2</ele>
      </trkpt>
<trkpt lat="47.703123" lon="18.953918">
        <ele>359.2</ele>
      </trkpt>
<trkpt lat="47.703278" lon="18.953328">
        <ele>360</ele>
      </trkpt>
<trkpt lat="47.703241" lon="18.952955">
        <ele>363.2</ele>
      </trkpt>
<trkpt lat="47.703042" lon="18.952786">
        <ele>365.6</ele>
      </trkpt>
<trkpt lat="47.702773" lon="18.952758">
        <ele>368.4</ele>
      </trkpt>
<trkpt lat="47.702567" lon="18.952555">
        <ele>369.8</ele>
      </trkpt>
<trkpt lat="47.702430" lon="18.952265">
        <ele>369.2</ele>
      </trkpt>
<trkpt lat="47.701852" lon="18.951339">
        <ele>368.6</ele>
      </trkpt>
<trkpt lat="47.701511" lon="18.951016">
        <ele>368</ele>
      </trkpt>
<trkpt lat="47.701443" lon="18.950806">
        <ele>369.4</ele>
      </trkpt>
<trkpt lat="47.701515" lon="18.950748">
        <ele>371.8</ele>
      </trkpt>
<trkpt lat="47.701443" lon="18.950806">
        <ele>374.6</ele>
      </trkpt>
<trkpt lat="47.701140" lon="18.950922">
        <ele>380.2</ele>
      </trkpt>
<trkpt lat="47.700522" lon="18.951501">
        <ele>385.8</ele>
      </trkpt>
<trkpt lat="47.699712" lon="18.952836">
        <ele>389</ele>
      </trkpt>
<trkpt lat="47.699458" lon="18.953164">
        <ele>395</ele>
      </trkpt>
<trkpt lat="47.699251" lon="18.953357">
        <ele>400.6</ele>
      </trkpt>
<trkpt lat="47.698943" lon="18.953519">
        <ele>407</ele>
      </trkpt>
<trkpt lat="47.698177" lon="18.953433">
        <ele>412.8</ele>
      </trkpt>
<trkpt lat="47.697981" lon="18.953512">
        <ele>422</ele>
      </trkpt>
<trkpt lat="47.697782" lon="18.953707">
        <ele>427.2</ele>
      </trkpt>
<trkpt lat="47.697514" lon="18.954104">
        <ele>432.4</ele>
      </trkpt>
<trkpt lat="47.697083" lon="18.955255">
        <ele>436.4</ele>
      </trkpt>
<trkpt lat="47.696683" lon="18.955780">
        <ele>440</ele>
      </trkpt>
<trkpt lat="47.696548" lon="18.956176">
        <ele>443.6</ele>
      </trkpt>
<trkpt lat="47.696044" lon="18.957535">
        <ele>448.4</ele>
      </trkpt>
<trkpt lat="47.695751" lon="18.957947">
        <ele>453.8</ele>
      </trkpt>
<trkpt lat="47.694973" lon="18.958406">
        <ele>452.2</ele>
      </trkpt>
<trkpt lat="47.694730" lon="18.958548">
        <ele>453.4</ele>
      </trkpt>
<trkpt lat="47.695223" lon="18.958895">
        <ele>451.2</ele>
      </trkpt>
<trkpt lat="47.695575" lon="18.959389">
        <ele>449</ele>
      </trkpt>
<trkpt lat="47.695977" lon="18.959628">
        <ele>441.8</ele>
      </trkpt>
<trkpt lat="47.696091" lon="18.959839">
        <ele>438</ele>
      </trkpt>
<trkpt lat="47.696122" lon="18.960139">
        <ele>429.6</ele>
      </trkpt>
<trkpt lat="47.696325" lon="18.960480">
        <ele>423.4</ele>
      </trkpt>
<trkpt lat="47.697088" lon="18.961292">
        <ele>418</ele>
      </trkpt>
<trkpt lat="47.698025" lon="18.962045">
        <ele>417</ele>
      </trkpt>
<trkpt lat="47.698230" lon="18.963471">
        <ele>419.2</ele>
      </trkpt>
<trkpt lat="47.698220" lon="18.963866">
        <ele>424.2</ele>
      </trkpt>
<trkpt lat="47.698107" lon="18.964372">
        <ele>427.2</ele>
      </trkpt>
<trkpt lat="47.697812" lon="18.965084">
        <ele>429.2</ele>
      </trkpt>
<trkpt lat="47.697765" lon="18.965375">
        <ele>430.8</ele>
      </trkpt>
<trkpt lat="47.697713" lon="18.966541">
        <ele>430.4</ele>
      </trkpt>
<trkpt lat="47.697564" lon="18.967691">
        <ele>431.2</ele>
      </trkpt>
<trkpt lat="47.697413" lon="18.968210">
        <ele>431.8</ele>
      </trkpt>
<trkpt lat="47.697191" lon="18.968691">
        <ele>436.2</ele>
      </trkpt>
<trkpt lat="47.696907" lon="18.969612">
        <ele>441</ele>
      </trkpt>
<trkpt lat="47.696729" lon="18.970206">
        <ele>448.4</ele>
      </trkpt>
<trkpt lat="47.696145" lon="18.971237">
        <ele>454</ele>
      </trkpt>
<trkpt lat="47.695612" lon="18.971841">
        <ele>464.4</ele>
      </trkpt>
<trkpt lat="47.695251" lon="18.972719">
        <ele>471.2</ele>
      </trkpt>
<trkpt lat="47.694791" lon="18.973524">
        <ele>478.8</ele>
      </trkpt>
<trkpt lat="47.693643" lon="18.974286">
        <ele>484</ele>
      </trkpt>
<trkpt lat="47.693577" lon="18.974375">
        <ele>489.8</ele>
      </trkpt>
<trkpt lat="47.693524" lon="18.975405">
        <ele>491.2</ele>
      </trkpt>
<trkpt lat="47.693294" lon="18.976028">
        <ele>494.2</ele>
      </trkpt>
<trkpt lat="47.693357" lon="18.976195">
        <ele>500</ele>
      </trkpt>
<trkpt lat="47.693543" lon="18.976672">
        <ele>505.6</ele>
      </trkpt>
<trkpt lat="47.693507" lon="18.977685">
        <ele>510.6</ele>
      </trkpt>
<trkpt lat="47.693670" lon="18.979073">
        <ele>515.2</ele>
      </trkpt>
<trkpt lat="47.693672" lon="18.979493">
        <ele>518.2</ele>
      </trkpt>
<trkpt lat="47.693504" lon="18.980570">
        <ele>516</ele>
      </trkpt>
<trkpt lat="47.693410" lon="18.980848">
        <ele>510.8</ele>
      </trkpt>
<trkpt lat="47.693410" lon="18.980955">
        <ele>509.2</ele>
      </trkpt>
<trkpt lat="47.693407" lon="18.981467">
        <ele>501.2</ele>
      </trkpt>
<trkpt lat="47.693171" lon="18.982233">
        <ele>494.2</ele>
      </trkpt>
<trkpt lat="47.692711" lon="18.982914">
        <ele>488.8</ele>
      </trkpt>
<trkpt lat="47.691575" lon="18.984002">
        <ele>486.4</ele>
      </trkpt>
<trkpt lat="47.691154" lon="18.984094">
        <ele>475.8</ele>
      </trkpt>
<trkpt lat="47.690728" lon="18.984364">
        <ele>468.6</ele>
      </trkpt>
<trkpt lat="47.690629" lon="18.984488">
        <ele>464</ele>
      </trkpt>
<trkpt lat="47.689727" lon="18.985309">
        <ele>459.4</ele>
      </trkpt>
<trkpt lat="47.689560" lon="18.985452">
        <ele>454.8</ele>
      </trkpt>
<trkpt lat="47.689230" lon="18.985351">
        <ele>451.8</ele>
      </trkpt>
<trkpt lat="47.689136" lon="18.985391">
        <ele>454.8</ele>
      </trkpt>
<trkpt lat="47.689230" lon="18.985351">
        <ele>451.8</ele>
      </trkpt>
<trkpt lat="47.689560" lon="18.985452">
        <ele>448.8</ele>
      </trkpt>
<trkpt lat="47.689727" lon="18.985309">
        <ele>443.6</ele>
      </trkpt>
<trkpt lat="47.690343" lon="18.985657">
        <ele>442</ele>
      </trkpt>
<trkpt lat="47.690695" lon="18.986167">
        <ele>437.4</ele>
      </trkpt>
<trkpt lat="47.690836" lon="18.986274">
        <ele>434</ele>
      </trkpt>
<trkpt lat="47.690957" lon="18.986601">
        <ele>428.6</ele>
      </trkpt>
<trkpt lat="47.691145" lon="18.986730">
        <ele>423.6</ele>
      </trkpt>
<trkpt lat="47.691377" lon="18.987111">
        <ele>418.6</ele>
      </trkpt>
<trkpt lat="47.691607" lon="18.988620">
        <ele>410.2</ele>
      </trkpt>
<trkpt lat="47.691594" lon="18.988876">
        <ele>403</ele>
      </trkpt>
<trkpt lat="47.691664" lon="18.989179">
        <ele>397.8</ele>
      </trkpt>
<trkpt lat="47.692183" lon="18.989684">
        <ele>394.4</ele>
      </trkpt>
<trkpt lat="47.692359" lon="18.989943">
        <ele>387.4</ele>
      </trkpt>
<trkpt lat="47.692649" lon="18.990186">
        <ele>383.8</ele>
      </trkpt>
<trkpt lat="47.692844" lon="18.990269">
        <ele>376.6</ele>
      </trkpt>
<trkpt lat="47.693208" lon="18.990220">
        <ele>369.4</ele>
      </trkpt>
<trkpt lat="47.693433" lon="18.990013">
        <ele>358.6</ele>
      </trkpt>
<trkpt lat="47.693999" lon="18.989811">
        <ele>351.4</ele>
      </trkpt>
<trkpt lat="47.694569" lon="18.989733">
        <ele>344.2</ele>
      </trkpt>
<trkpt lat="47.695026" lon="18.989595">
        <ele>340.6</ele>
      </trkpt>
<trkpt lat="47.695103" lon="18.989637">
        <ele>332</ele>
      </trkpt>
<trkpt lat="47.695185" lon="18.989838">
        <ele>327</ele>
      </trkpt>
<trkpt lat="47.695348" lon="18.990087">
        <ele>321.2</ele>
      </trkpt>
<trkpt lat="47.695715" lon="18.990164">
        <ele>314.8</ele>
      </trkpt>
<trkpt lat="47.695746" lon="18.990261">
        <ele>308.4</ele>
      </trkpt>
<trkpt lat="47.695595" lon="18.991075">
        <ele>313.6</ele>
      </trkpt>
<trkpt lat="47.695572" lon="18.991449">
        <ele>318.4</ele>
      </trkpt>
<trkpt lat="47.695530" lon="18.991553">
        <ele>323.4</ele>
      </trkpt>
<trkpt lat="47.695294" lon="18.992145">
        <ele>329</ele>
      </trkpt>
<trkpt lat="47.695130" lon="18.993075">
        <ele>336.8</ele>
      </trkpt>
<trkpt lat="47.694883" lon="18.993960">
        <ele>338</ele>
      </trkpt>
<trkpt lat="47.694851" lon="18.994577">
        <ele>338.4</ele>
      </trkpt>
<trkpt lat="47.694543" lon="18.995752">
        <ele>336.2</ele>
      </trkpt>
<trkpt lat="47.694420" lon="18.995898">
        <ele>330</ele>
      </trkpt>
<trkpt lat="47.694348" lon="18.996391">
        <ele>321.6</ele>
      </trkpt>
<trkpt lat="47.693900" lon="18.997416">
        <ele>310.6</ele>
      </trkpt>
<trkpt lat="47.693403" lon="18.998789">
        <ele>300.8</ele>
      </trkpt>
<trkpt lat="47.693342" lon="18.999562">
        <ele>288.8</ele>
      </trkpt>
<trkpt lat="47.693517" lon="19.000230">
        <ele>283</ele>
      </trkpt>
<trkpt lat="47.693607" lon="19.000368">
        <ele>277.2</ele>
      </trkpt>
<trkpt lat="47.693941" lon="19.000431">
        <ele>271.4</ele>
      </trkpt>
<trkpt lat="47.694062" lon="19.000364">
        <ele>263.8</ele>
      </trkpt>
<trkpt lat="47.694283" lon="18.999979">
        <ele>261.6</ele>
      </trkpt>
<trkpt lat="47.694694" lon="18.999521">
        <ele>257.2</ele>
      </trkpt>
<trkpt lat="47.694753" lon="18.999781">
        <ele>252.8</ele>
      </trkpt>
<trkpt lat="47.695023" lon="18.999602">
        <ele>251</ele>
      </trkpt>
<trkpt lat="47.694970" lon="18.999864">
        <ele>251</ele>
      </trkpt>
<trkpt lat="47.694967" lon="19.000005">
        <ele>251</ele>
      </trkpt>
</trkseg>
</trk>
</gpx>



