<?xml version="1.0" encoding="UTF-8"?>
<gpx xmlns="http://www.topografix.com/GPX/1/1" creator="turistautak.openstreetmap.hu" version="1.1" xmlns:xsi="http://www.w3.org/2001/XMLSchema-instance" xsi:schemaLocation="http://www.garmin.com/xmlschemas/GpxExtensions/v3 http://www.garmin.com/xmlschemas/GpxExtensions/v3/GpxExtensionsv3.xsd http://www.topografix.com/GPX/1/1 http://www.topografix.com/GPX/1/1/gpx.xsd">
	<metadata>
		<name>1592209449ny3t útvonal</name>
		<desc>1592209449ny3t útvonal</desc>
	</metadata>
<trk>
  <name>utv</name>
<trkseg><trkpt lat="47.486783" lon="18.954283">
        <ele>413</ele>
      </trkpt>
<trkpt lat="47.486701" lon="18.954345">
        <ele>414</ele>
      </trkpt>
<trkpt lat="47.486378" lon="18.954225">
        <ele>415</ele>
      </trkpt>
<trkpt lat="47.486252" lon="18.954514">
        <ele>419.6</ele>
      </trkpt>
<trkpt lat="47.485996" lon="18.954666">
        <ele>424.4</ele>
      </trkpt>
<trkpt lat="47.485802" lon="18.954811">
        <ele>429.2</ele>
      </trkpt>
<trkpt lat="47.484279" lon="18.956232">
        <ele>433</ele>
      </trkpt>
<trkpt lat="47.483278" lon="18.956734">
        <ele>436.6</ele>
      </trkpt>
<trkpt lat="47.482629" lon="18.957124">
        <ele>436.6</ele>
      </trkpt>
<trkpt lat="47.482287" lon="18.957190">
        <ele>436.4</ele>
      </trkpt>
<trkpt lat="47.481926" lon="18.957114">
        <ele>434.6</ele>
      </trkpt>
<trkpt lat="47.481552" lon="18.957131">
        <ele>431.6</ele>
      </trkpt>
<trkpt lat="47.481254" lon="18.957333">
        <ele>428.8</ele>
      </trkpt>
<trkpt lat="47.479993" lon="18.958475">
        <ele>426</ele>
      </trkpt>
<trkpt lat="47.479381" lon="18.958901">
        <ele>423.2</ele>
      </trkpt>
<trkpt lat="47.479220" lon="18.959111">
        <ele>421.6</ele>
      </trkpt>
<trkpt lat="47.479035" lon="18.959152">
        <ele>421.2</ele>
      </trkpt>
<trkpt lat="47.478874" lon="18.959079">
        <ele>418.2</ele>
      </trkpt>
<trkpt lat="47.478453" lon="18.958557">
        <ele>415.2</ele>
      </trkpt>
<trkpt lat="47.478354" lon="18.958436">
        <ele>406</ele>
      </trkpt>
<trkpt lat="47.477179" lon="18.957737">
        <ele>397.8</ele>
      </trkpt>
<trkpt lat="47.477111" lon="18.957651">
        <ele>391</ele>
      </trkpt>
<trkpt lat="47.476855" lon="18.957107">
        <ele>386.8</ele>
      </trkpt>
<trkpt lat="47.476637" lon="18.956364">
        <ele>374.8</ele>
      </trkpt>
<trkpt lat="47.476480" lon="18.956182">
        <ele>371</ele>
      </trkpt>
<trkpt lat="47.476344" lon="18.956200">
        <ele>364.6</ele>
      </trkpt>
<trkpt lat="47.476231" lon="18.956265">
        <ele>364.6</ele>
      </trkpt>
<trkpt lat="47.476164" lon="18.956249">
        <ele>364.6</ele>
      </trkpt>
<trkpt lat="47.476231" lon="18.956265">
        <ele>366.6</ele>
      </trkpt>
<trkpt lat="47.476344" lon="18.956200">
        <ele>372.4</ele>
      </trkpt>
<trkpt lat="47.476279" lon="18.956017">
        <ele>380.6</ele>
      </trkpt>
<trkpt lat="47.476243" lon="18.955569">
        <ele>381.4</ele>
      </trkpt>
<trkpt lat="47.476257" lon="18.955495">
        <ele>377.2</ele>
      </trkpt>
<trkpt lat="47.476359" lon="18.954864">
        <ele>378.8</ele>
      </trkpt>
<trkpt lat="47.476358" lon="18.954040">
        <ele>379.2</ele>
      </trkpt>
<trkpt lat="47.476151" lon="18.953562">
        <ele>379.2</ele>
      </trkpt>
<trkpt lat="47.476110" lon="18.953268">
        <ele>378.4</ele>
      </trkpt>
<trkpt lat="47.476320" lon="18.951581">
        <ele>381.6</ele>
      </trkpt>
<trkpt lat="47.476419" lon="18.951266">
        <ele>383.8</ele>
      </trkpt>
<trkpt lat="47.476390" lon="18.950886">
        <ele>379.8</ele>
      </trkpt>
<trkpt lat="47.476480" lon="18.950080">
        <ele>374.6</ele>
      </trkpt>
<trkpt lat="47.476666" lon="18.949317">
        <ele>369.8</ele>
      </trkpt>
<trkpt lat="47.476826" lon="18.948198">
        <ele>367.4</ele>
      </trkpt>
<trkpt lat="47.476861" lon="18.947875">
        <ele>364.2</ele>
      </trkpt>
<trkpt lat="47.476961" lon="18.947544">
        <ele>360.8</ele>
      </trkpt>
<trkpt lat="47.477124" lon="18.947168">
        <ele>356.6</ele>
      </trkpt>
<trkpt lat="47.477253" lon="18.946872">
        <ele>352.6</ele>
      </trkpt>
<trkpt lat="47.477303" lon="18.946037">
        <ele>347.2</ele>
      </trkpt>
<trkpt lat="47.477209" lon="18.945049">
        <ele>343.2</ele>
      </trkpt>
<trkpt lat="47.476962" lon="18.944689">
        <ele>341</ele>
      </trkpt>
<trkpt lat="47.476676" lon="18.944614">
        <ele>341</ele>
      </trkpt>
<trkpt lat="47.476630" lon="18.944417">
        <ele>340.8</ele>
      </trkpt>
<trkpt lat="47.476536" lon="18.944267">
        <ele>339.4</ele>
      </trkpt>
<trkpt lat="47.475544" lon="18.943114">
        <ele>336.6</ele>
      </trkpt>
<trkpt lat="47.475482" lon="18.943023">
        <ele>334.4</ele>
      </trkpt>
<trkpt lat="47.474972" lon="18.941999">
        <ele>332</ele>
      </trkpt>
<trkpt lat="47.474483" lon="18.940858">
        <ele>329.8</ele>
      </trkpt>
<trkpt lat="47.474338" lon="18.940322">
        <ele>328.8</ele>
      </trkpt>
<trkpt lat="47.474427" lon="18.939676">
        <ele>330</ele>
      </trkpt>
<trkpt lat="47.474475" lon="18.939333">
        <ele>330.6</ele>
      </trkpt>
<trkpt lat="47.474557" lon="18.939127">
        <ele>329.6</ele>
      </trkpt>
<trkpt lat="47.474656" lon="18.938428">
        <ele>328.4</ele>
      </trkpt>
<trkpt lat="47.474747" lon="18.938229">
        <ele>327.2</ele>
      </trkpt>
<trkpt lat="47.475141" lon="18.937859">
        <ele>325.4</ele>
      </trkpt>
<trkpt lat="47.475385" lon="18.937553">
        <ele>323.6</ele>
      </trkpt>
<trkpt lat="47.475405" lon="18.937478">
        <ele>321.6</ele>
      </trkpt>
<trkpt lat="47.475586" lon="18.937568">
        <ele>318</ele>
      </trkpt>
<trkpt lat="47.475853" lon="18.937787">
        <ele>314.4</ele>
      </trkpt>
<trkpt lat="47.476571" lon="18.938865">
        <ele>310.8</ele>
      </trkpt>
<trkpt lat="47.477284" lon="18.939309">
        <ele>308.4</ele>
      </trkpt>
<trkpt lat="47.477848" lon="18.939525">
        <ele>306.8</ele>
      </trkpt>
<trkpt lat="47.478347" lon="18.939515">
        <ele>306.8</ele>
      </trkpt>
<trkpt lat="47.478977" lon="18.939094">
        <ele>305.8</ele>
      </trkpt>
<trkpt lat="47.479044" lon="18.938731">
        <ele>303.6</ele>
      </trkpt>
<trkpt lat="47.479023" lon="18.938547">
        <ele>300.2</ele>
      </trkpt>
<trkpt lat="47.478907" lon="18.937532">
        <ele>297.4</ele>
      </trkpt>
<trkpt lat="47.478922" lon="18.936747">
        <ele>294.6</ele>
      </trkpt>
<trkpt lat="47.478981" lon="18.936419">
        <ele>292.4</ele>
      </trkpt>
<trkpt lat="47.478993" lon="18.935933">
        <ele>291.6</ele>
      </trkpt>
<trkpt lat="47.478877" lon="18.935419">
        <ele>288.8</ele>
      </trkpt>
<trkpt lat="47.478848" lon="18.934654">
        <ele>286.4</ele>
      </trkpt>
<trkpt lat="47.478753" lon="18.933881">
        <ele>282.8</ele>
      </trkpt>
<trkpt lat="47.478595" lon="18.933571">
        <ele>279.6</ele>
      </trkpt>
<trkpt lat="47.478522" lon="18.933158">
        <ele>276.4</ele>
      </trkpt>
<trkpt lat="47.478393" lon="18.932752">
        <ele>275.2</ele>
      </trkpt>
<trkpt lat="47.478004" lon="18.932222">
        <ele>274.6</ele>
      </trkpt>
<trkpt lat="47.478149" lon="18.932285">
        <ele>275</ele>
      </trkpt>
<trkpt lat="47.478564" lon="18.932087">
        <ele>275.4</ele>
      </trkpt>
<trkpt lat="47.478724" lon="18.931877">
        <ele>275.8</ele>
      </trkpt>
<trkpt lat="47.478839" lon="18.931741">
        <ele>276.2</ele>
      </trkpt>
<trkpt lat="47.479150" lon="18.931612">
        <ele>276.8</ele>
      </trkpt>
<trkpt lat="47.479341" lon="18.931598">
        <ele>277.6</ele>
      </trkpt>
<trkpt lat="47.479465" lon="18.931638">
        <ele>275.2</ele>
      </trkpt>
<trkpt lat="47.479829" lon="18.932181">
        <ele>272.8</ele>
      </trkpt>
<trkpt lat="47.480028" lon="18.932385">
        <ele>268.8</ele>
      </trkpt>
<trkpt lat="47.480422" lon="18.932486">
        <ele>264</ele>
      </trkpt>
<trkpt lat="47.481036" lon="18.932820">
        <ele>259.2</ele>
      </trkpt>
<trkpt lat="47.481529" lon="18.932974">
        <ele>254.8</ele>
      </trkpt>
<trkpt lat="47.481712" lon="18.933149">
        <ele>252</ele>
      </trkpt>
<trkpt lat="47.481863" lon="18.933395">
        <ele>250.8</ele>
      </trkpt>
<trkpt lat="47.482257" lon="18.933588">
        <ele>251.6</ele>
      </trkpt>
<trkpt lat="47.482404" lon="18.933814">
        <ele>252.4</ele>
      </trkpt>
<trkpt lat="47.482527" lon="18.934187">
        <ele>256</ele>
      </trkpt>
<trkpt lat="47.482590" lon="18.934795">
        <ele>261</ele>
      </trkpt>
<trkpt lat="47.482568" lon="18.934963">
        <ele>264.4</ele>
      </trkpt>
<trkpt lat="47.482644" lon="18.934956">
        <ele>265.8</ele>
      </trkpt>
<trkpt lat="47.482831" lon="18.935512">
        <ele>267.2</ele>
      </trkpt>
<trkpt lat="47.483174" lon="18.936296">
        <ele>268.6</ele>
      </trkpt>
<trkpt lat="47.483203" lon="18.936393">
        <ele>267.6</ele>
      </trkpt>
<trkpt lat="47.483298" lon="18.936709">
        <ele>268.2</ele>
      </trkpt>
<trkpt lat="47.483511" lon="18.937000">
        <ele>270.8</ele>
      </trkpt>
<trkpt lat="47.483804" lon="18.937293">
        <ele>273.4</ele>
      </trkpt>
<trkpt lat="47.483987" lon="18.937846">
        <ele>275.8</ele>
      </trkpt>
<trkpt lat="47.484022" lon="18.938146">
        <ele>277.6</ele>
      </trkpt>
<trkpt lat="47.484156" lon="18.938191">
        <ele>280.8</ele>
      </trkpt>
<trkpt lat="47.484705" lon="18.937859">
        <ele>282</ele>
      </trkpt>
<trkpt lat="47.484985" lon="18.937890">
        <ele>285.8</ele>
      </trkpt>
<trkpt lat="47.485183" lon="18.938092">
        <ele>291.2</ele>
      </trkpt>
<trkpt lat="47.485378" lon="18.938457">
        <ele>298.2</ele>
      </trkpt>
<trkpt lat="47.485511" lon="18.938983">
        <ele>304.6</ele>
      </trkpt>
<trkpt lat="47.485444" lon="18.939720">
        <ele>311</ele>
      </trkpt>
<trkpt lat="47.485362" lon="18.939997">
        <ele>314.8</ele>
      </trkpt>
<trkpt lat="47.485303" lon="18.940610">
        <ele>315.8</ele>
      </trkpt>
<trkpt lat="47.485277" lon="18.940891">
        <ele>315.2</ele>
      </trkpt>
<trkpt lat="47.485339" lon="18.941125">
        <ele>313</ele>
      </trkpt>
<trkpt lat="47.485660" lon="18.940816">
        <ele>311.8</ele>
      </trkpt>
<trkpt lat="47.485939" lon="18.940641">
        <ele>313</ele>
      </trkpt>
<trkpt lat="47.486340" lon="18.940410">
        <ele>317.4</ele>
      </trkpt>
<trkpt lat="47.486575" lon="18.941201">
        <ele>321.8</ele>
      </trkpt>
<trkpt lat="47.486756" lon="18.941863">
        <ele>328.6</ele>
      </trkpt>
<trkpt lat="47.486774" lon="18.942096">
        <ele>335.2</ele>
      </trkpt>
<trkpt lat="47.486802" lon="18.942479">
        <ele>339.4</ele>
      </trkpt>
<trkpt lat="47.486766" lon="18.942969">
        <ele>342.4</ele>
      </trkpt>
<trkpt lat="47.487279" lon="18.943853">
        <ele>346.2</ele>
      </trkpt>
<trkpt lat="47.487355" lon="18.944116">
        <ele>348.4</ele>
      </trkpt>
<trkpt lat="47.487397" lon="18.944761">
        <ele>350.8</ele>
      </trkpt>
<trkpt lat="47.487697" lon="18.945493">
        <ele>354.6</ele>
      </trkpt>
<trkpt lat="47.487671" lon="18.945865">
        <ele>357.8</ele>
      </trkpt>
<trkpt lat="47.487432" lon="18.946705">
        <ele>361.8</ele>
      </trkpt>
<trkpt lat="47.487370" lon="18.947254">
        <ele>365.8</ele>
      </trkpt>
<trkpt lat="47.487403" lon="18.947882">
        <ele>370.2</ele>
      </trkpt>
<trkpt lat="47.487356" lon="18.948210">
        <ele>373.2</ele>
      </trkpt>
<trkpt lat="47.487404" lon="18.948570">
        <ele>378.2</ele>
      </trkpt>
<trkpt lat="47.487300" lon="18.948998">
        <ele>382.8</ele>
      </trkpt>
<trkpt lat="47.487274" lon="18.949293">
        <ele>389.4</ele>
      </trkpt>
<trkpt lat="47.487155" lon="18.949592">
        <ele>394.6</ele>
      </trkpt>
<trkpt lat="47.487075" lon="18.950147">
        <ele>400.8</ele>
      </trkpt>
<trkpt lat="47.486990" lon="18.950741">
        <ele>404.6</ele>
      </trkpt>
<trkpt lat="47.486938" lon="18.950850">
        <ele>408.4</ele>
      </trkpt>
<trkpt lat="47.487043" lon="18.951278">
        <ele>410.2</ele>
      </trkpt>
<trkpt lat="47.487137" lon="18.951996">
        <ele>411.8</ele>
      </trkpt>
<trkpt lat="47.487075" lon="18.952931">
        <ele>412.25</ele>
      </trkpt>
<trkpt lat="47.486999" lon="18.953298">
        <ele>413.66666666667</ele>
      </trkpt>
<trkpt lat="47.486840" lon="18.954385">
        <ele>413.5</ele>
      </trkpt>
</trkseg>
</trk>
</gpx>



