<?xml version="1.0" encoding="UTF-8"?>
<gpx xmlns="http://www.topografix.com/GPX/1/1" creator="turistautak.openstreetmap.hu" version="1.1" xmlns:xsi="http://www.w3.org/2001/XMLSchema-instance" xsi:schemaLocation="http://www.garmin.com/xmlschemas/GpxExtensions/v3 http://www.garmin.com/xmlschemas/GpxExtensions/v3/GpxExtensionsv3.xsd http://www.topografix.com/GPX/1/1 http://www.topografix.com/GPX/1/1/gpx.xsd">
	<metadata>
		<name>1586948458qk73 útvonal</name>
		<desc>1586948458qk73 útvonal</desc>
	</metadata>
<trk>
  <name>utv</name>
<trkseg><trkpt lat="47.620361" lon="19.211148">
        <ele>209</ele>
      </trkpt>
<trkpt lat="47.620088" lon="19.211684">
        <ele>211.2</ele>
      </trkpt>
<trkpt lat="47.620412" lon="19.212255">
        <ele>216.2</ele>
      </trkpt>
<trkpt lat="47.620703" lon="19.212561">
        <ele>220.8</ele>
      </trkpt>
<trkpt lat="47.620831" lon="19.212834">
        <ele>224.8</ele>
      </trkpt>
<trkpt lat="47.621147" lon="19.213262">
        <ele>226.6</ele>
      </trkpt>
<trkpt lat="47.621464" lon="19.213467">
        <ele>229.4</ele>
      </trkpt>
<trkpt lat="47.621535" lon="19.213554">
        <ele>231.6</ele>
      </trkpt>
<trkpt lat="47.621505" lon="19.213689">
        <ele>234.6</ele>
      </trkpt>
<trkpt lat="47.621510" lon="19.213868">
        <ele>237.6</ele>
      </trkpt>
<trkpt lat="47.621757" lon="19.214905">
        <ele>240.6</ele>
      </trkpt>
<trkpt lat="47.621777" lon="19.215531">
        <ele>243.6</ele>
      </trkpt>
<trkpt lat="47.621788" lon="19.215851">
        <ele>246.6</ele>
      </trkpt>
<trkpt lat="47.621759" lon="19.216150">
        <ele>248.2</ele>
      </trkpt>
<trkpt lat="47.621889" lon="19.216918">
        <ele>251.6</ele>
      </trkpt>
<trkpt lat="47.622039" lon="19.217413">
        <ele>256.4</ele>
      </trkpt>
<trkpt lat="47.621944" lon="19.217651">
        <ele>260.2</ele>
      </trkpt>
<trkpt lat="47.621827" lon="19.218248">
        <ele>264.4</ele>
      </trkpt>
<trkpt lat="47.621809" lon="19.219267">
        <ele>268.6</ele>
      </trkpt>
<trkpt lat="47.621918" lon="19.219534">
        <ele>271</ele>
      </trkpt>
<trkpt lat="47.622259" lon="19.219294">
        <ele>271</ele>
      </trkpt>
<trkpt lat="47.622470" lon="19.219147">
        <ele>270.4</ele>
      </trkpt>
<trkpt lat="47.622773" lon="19.218819">
        <ele>271</ele>
      </trkpt>
<trkpt lat="47.622849" lon="19.218545">
        <ele>271.6</ele>
      </trkpt>
<trkpt lat="47.622914" lon="19.217805">
        <ele>272</ele>
      </trkpt>
<trkpt lat="47.622940" lon="19.216556">
        <ele>273.8</ele>
      </trkpt>
<trkpt lat="47.623111" lon="19.216628">
        <ele>276.2</ele>
      </trkpt>
<trkpt lat="47.623655" lon="19.217335">
        <ele>276.6</ele>
      </trkpt>
<trkpt lat="47.624316" lon="19.217564">
        <ele>277</ele>
      </trkpt>
<trkpt lat="47.624457" lon="19.217598">
        <ele>278.4</ele>
      </trkpt>
<trkpt lat="47.624613" lon="19.217588">
        <ele>279.4</ele>
      </trkpt>
<trkpt lat="47.624782" lon="19.217585">
        <ele>279.6</ele>
      </trkpt>
<trkpt lat="47.625152" lon="19.217075">
        <ele>280.8</ele>
      </trkpt>
<trkpt lat="47.626054" lon="19.216051">
        <ele>282</ele>
      </trkpt>
<trkpt lat="47.626498" lon="19.215547">
        <ele>282.4</ele>
      </trkpt>
<trkpt lat="47.627110" lon="19.214545">
        <ele>281.2</ele>
      </trkpt>
<trkpt lat="47.627389" lon="19.214272">
        <ele>283</ele>
      </trkpt>
<trkpt lat="47.627881" lon="19.213797">
        <ele>281.4</ele>
      </trkpt>
<trkpt lat="47.629020" lon="19.213048">
        <ele>280.4</ele>
      </trkpt>
<trkpt lat="47.629411" lon="19.212712">
        <ele>279.4</ele>
      </trkpt>
<trkpt lat="47.629020" lon="19.213048">
        <ele>277.4</ele>
      </trkpt>
<trkpt lat="47.628222" lon="19.211766">
        <ele>273.2</ele>
      </trkpt>
<trkpt lat="47.627989" lon="19.211298">
        <ele>269</ele>
      </trkpt>
<trkpt lat="47.627650" lon="19.211251">
        <ele>262.4</ele>
      </trkpt>
<trkpt lat="47.627186" lon="19.211586">
        <ele>255.8</ele>
      </trkpt>
<trkpt lat="47.626912" lon="19.211547">
        <ele>251.8</ele>
      </trkpt>
<trkpt lat="47.626422" lon="19.211116">
        <ele>247.8</ele>
      </trkpt>
<trkpt lat="47.626105" lon="19.211006">
        <ele>245</ele>
      </trkpt>
<trkpt lat="47.626037" lon="19.210915">
        <ele>244</ele>
      </trkpt>
<trkpt lat="47.625796" lon="19.210588">
        <ele>241.2</ele>
      </trkpt>
<trkpt lat="47.625505" lon="19.210395">
        <ele>237.2</ele>
      </trkpt>
<trkpt lat="47.625455" lon="19.210362">
        <ele>233.2</ele>
      </trkpt>
<trkpt lat="47.625048" lon="19.209612">
        <ele>226.8</ele>
      </trkpt>
<trkpt lat="47.624875" lon="19.209265">
        <ele>220.4</ele>
      </trkpt>
<trkpt lat="47.624804" lon="19.208940">
        <ele>213.8</ele>
      </trkpt>
<trkpt lat="47.624201" lon="19.208264">
        <ele>208.4</ele>
      </trkpt>
<trkpt lat="47.623827" lon="19.207959">
        <ele>201.8</ele>
      </trkpt>
<trkpt lat="47.623688" lon="19.208057">
        <ele>198.6</ele>
      </trkpt>
<trkpt lat="47.623405" lon="19.208097">
        <ele>195.4</ele>
      </trkpt>
<trkpt lat="47.622824" lon="19.208209">
        <ele>193.6</ele>
      </trkpt>
<trkpt lat="47.622358" lon="19.208483">
        <ele>191.8</ele>
      </trkpt>
<trkpt lat="47.622134" lon="19.208469">
        <ele>193.4</ele>
      </trkpt>
<trkpt lat="47.621753" lon="19.208374">
        <ele>195</ele>
      </trkpt>
<trkpt lat="47.621671" lon="19.208354">
        <ele>195.5</ele>
      </trkpt>
<trkpt lat="47.620215" lon="19.210780">
        <ele>197.33333333333</ele>
      </trkpt>
<trkpt lat="47.620361" lon="19.211148">
        <ele>201</ele>
      </trkpt>
</trkseg>
</trk>
</gpx>



