<?xml version="1.0" encoding="UTF-8"?>
<gpx xmlns="http://www.topografix.com/GPX/1/1" creator="turistautak.openstreetmap.hu" version="1.1" xmlns:xsi="http://www.w3.org/2001/XMLSchema-instance" xsi:schemaLocation="http://www.garmin.com/xmlschemas/GpxExtensions/v3 http://www.garmin.com/xmlschemas/GpxExtensions/v3/GpxExtensionsv3.xsd http://www.topografix.com/GPX/1/1 http://www.topografix.com/GPX/1/1/gpx.xsd">
	<metadata>
		<name>1584985584pk1u útvonal</name>
		<desc>1584985584pk1u útvonal</desc>
	</metadata>
<trk>
  <name>utv</name>
<trkseg><trkpt lat="47.540571" lon="19.006380">
        <ele>291</ele>
      </trkpt>
<trkpt lat="47.540568" lon="19.006511">
        <ele>291.2</ele>
      </trkpt>
<trkpt lat="47.540512" lon="19.006550">
        <ele>291.4</ele>
      </trkpt>
<trkpt lat="47.540559" lon="19.006551">
        <ele>291.6</ele>
      </trkpt>
<trkpt lat="47.540615" lon="19.007107">
        <ele>296</ele>
      </trkpt>
<trkpt lat="47.540759" lon="19.007292">
        <ele>300.4</ele>
      </trkpt>
<trkpt lat="47.540996" lon="19.007502">
        <ele>304.6</ele>
      </trkpt>
<trkpt lat="47.541494" lon="19.008098">
        <ele>308.8</ele>
      </trkpt>
<trkpt lat="47.541583" lon="19.008130">
        <ele>317.6</ele>
      </trkpt>
<trkpt lat="47.541827" lon="19.008657">
        <ele>325.4</ele>
      </trkpt>
<trkpt lat="47.542072" lon="19.008726">
        <ele>333.2</ele>
      </trkpt>
<trkpt lat="47.542500" lon="19.008677">
        <ele>341</ele>
      </trkpt>
<trkpt lat="47.543168" lon="19.008078">
        <ele>350.4</ele>
      </trkpt>
<trkpt lat="47.543273" lon="19.007949">
        <ele>355.2</ele>
      </trkpt>
<trkpt lat="47.543521" lon="19.007960">
        <ele>357.8</ele>
      </trkpt>
<trkpt lat="47.543863" lon="19.008171">
        <ele>361.4</ele>
      </trkpt>
<trkpt lat="47.544064" lon="19.008176">
        <ele>365</ele>
      </trkpt>
<trkpt lat="47.544375" lon="19.007730">
        <ele>368.8</ele>
      </trkpt>
<trkpt lat="47.544847" lon="19.006949">
        <ele>372.6</ele>
      </trkpt>
<trkpt lat="47.545137" lon="19.006469">
        <ele>377.8</ele>
      </trkpt>
<trkpt lat="47.545462" lon="19.006009">
        <ele>380.6</ele>
      </trkpt>
<trkpt lat="47.546119" lon="19.005493">
        <ele>384.8</ele>
      </trkpt>
<trkpt lat="47.546266" lon="19.005415">
        <ele>388.6</ele>
      </trkpt>
<trkpt lat="47.546457" lon="19.005447">
        <ele>395.2</ele>
      </trkpt>
<trkpt lat="47.546777" lon="19.005269">
        <ele>400</ele>
      </trkpt>
<trkpt lat="47.547898" lon="19.004600">
        <ele>406.2</ele>
      </trkpt>
<trkpt lat="47.548675" lon="19.004158">
        <ele>411.8</ele>
      </trkpt>
<trkpt lat="47.549173" lon="19.003875">
        <ele>416</ele>
      </trkpt>
<trkpt lat="47.549426" lon="19.003973">
        <ele>418.6</ele>
      </trkpt>
<trkpt lat="47.549989" lon="19.004150">
        <ele>420.6</ele>
      </trkpt>
<trkpt lat="47.550402" lon="19.004414">
        <ele>424</ele>
      </trkpt>
<trkpt lat="47.550554" lon="19.004435">
        <ele>426.6</ele>
      </trkpt>
<trkpt lat="47.551056" lon="19.003919">
        <ele>429.2</ele>
      </trkpt>
<trkpt lat="47.551777" lon="19.002788">
        <ele>430.2</ele>
      </trkpt>
<trkpt lat="47.551951" lon="19.002708">
        <ele>431.2</ele>
      </trkpt>
<trkpt lat="47.552006" lon="19.002701">
        <ele>432.6</ele>
      </trkpt>
<trkpt lat="47.552118" lon="19.002657">
        <ele>435</ele>
      </trkpt>
<trkpt lat="47.552515" lon="19.002245">
        <ele>437.4</ele>
      </trkpt>
<trkpt lat="47.553047" lon="19.001429">
        <ele>440.2</ele>
      </trkpt>
<trkpt lat="47.553086" lon="19.001210">
        <ele>447.6</ele>
      </trkpt>
<trkpt lat="47.553105" lon="19.001137">
        <ele>453.2</ele>
      </trkpt>
<trkpt lat="47.553431" lon="19.000633">
        <ele>457.8</ele>
      </trkpt>
<trkpt lat="47.553764" lon="19.000335">
        <ele>463.6</ele>
      </trkpt>
<trkpt lat="47.553952" lon="19.000079">
        <ele>469.4</ele>
      </trkpt>
<trkpt lat="47.554095" lon="18.999923">
        <ele>470.6</ele>
      </trkpt>
<trkpt lat="47.554089" lon="18.999332">
        <ele>473.8</ele>
      </trkpt>
<trkpt lat="47.554333" lon="18.999044">
        <ele>477.2</ele>
      </trkpt>
<trkpt lat="47.554438" lon="18.998945">
        <ele>479.4</ele>
      </trkpt>
<trkpt lat="47.554602" lon="18.998765">
        <ele>481.6</ele>
      </trkpt>
<trkpt lat="47.554857" lon="18.998581">
        <ele>483.8</ele>
      </trkpt>
<trkpt lat="47.555132" lon="18.998394">
        <ele>483.8</ele>
      </trkpt>
<trkpt lat="47.555217" lon="18.998244">
        <ele>483.6</ele>
      </trkpt>
<trkpt lat="47.555381" lon="18.998734">
        <ele>483</ele>
      </trkpt>
<trkpt lat="47.555352" lon="18.999000">
        <ele>482.4</ele>
      </trkpt>
<trkpt lat="47.555363" lon="18.999249">
        <ele>481.8</ele>
      </trkpt>
<trkpt lat="47.555466" lon="18.999339">
        <ele>482</ele>
      </trkpt>
<trkpt lat="47.555627" lon="18.999271">
        <ele>482.2</ele>
      </trkpt>
<trkpt lat="47.555804" lon="18.998965">
        <ele>481.2</ele>
      </trkpt>
<trkpt lat="47.555998" lon="18.998628">
        <ele>480.4</ele>
      </trkpt>
<trkpt lat="47.556068" lon="18.998400">
        <ele>479.6</ele>
      </trkpt>
<trkpt lat="47.556436" lon="18.998037">
        <ele>478.2</ele>
      </trkpt>
<trkpt lat="47.556729" lon="18.997749">
        <ele>477.4</ele>
      </trkpt>
<trkpt lat="47.556916" lon="18.997728">
        <ele>477.4</ele>
      </trkpt>
<trkpt lat="47.557057" lon="18.997883">
        <ele>477.2</ele>
      </trkpt>
<trkpt lat="47.557011" lon="18.997035">
        <ele>477</ele>
      </trkpt>
<trkpt lat="47.557168" lon="18.997025">
        <ele>476.8</ele>
      </trkpt>
<trkpt lat="47.557180" lon="18.996884">
        <ele>476</ele>
      </trkpt>
<trkpt lat="47.557271" lon="18.996690">
        <ele>476</ele>
      </trkpt>
<trkpt lat="47.557366" lon="18.996592">
        <ele>476</ele>
      </trkpt>
<trkpt lat="47.557438" lon="18.996518">
        <ele>474.2</ele>
      </trkpt>
<trkpt lat="47.557648" lon="18.996628">
        <ele>472.4</ele>
      </trkpt>
<trkpt lat="47.557816" lon="18.996572">
        <ele>470.6</ele>
      </trkpt>
<trkpt lat="47.558348" lon="18.995909">
        <ele>468.8</ele>
      </trkpt>
<trkpt lat="47.558409" lon="18.995741">
        <ele>464.8</ele>
      </trkpt>
<trkpt lat="47.558475" lon="18.995770">
        <ele>458.6</ele>
      </trkpt>
<trkpt lat="47.558661" lon="18.996073">
        <ele>451.6</ele>
      </trkpt>
<trkpt lat="47.558797" lon="18.996135">
        <ele>444.8</ele>
      </trkpt>
<trkpt lat="47.559619" lon="18.995548">
        <ele>440.8</ele>
      </trkpt>
<trkpt lat="47.560316" lon="18.994937">
        <ele>435</ele>
      </trkpt>
<trkpt lat="47.560830" lon="18.994399">
        <ele>433.2</ele>
      </trkpt>
<trkpt lat="47.561443" lon="18.993696">
        <ele>432.2</ele>
      </trkpt>
<trkpt lat="47.562157" lon="18.992943">
        <ele>426</ele>
      </trkpt>
<trkpt lat="47.562503" lon="18.992760">
        <ele>417</ele>
      </trkpt>
<trkpt lat="47.562787" lon="18.992451">
        <ele>406.8</ele>
      </trkpt>
<trkpt lat="47.563354" lon="18.991834">
        <ele>396.6</ele>
      </trkpt>
<trkpt lat="47.563608" lon="18.991471">
        <ele>386.4</ele>
      </trkpt>
<trkpt lat="47.563918" lon="18.990729">
        <ele>380.2</ele>
      </trkpt>
<trkpt lat="47.564006" lon="18.990659">
        <ele>373</ele>
      </trkpt>
<trkpt lat="47.564183" lon="18.990503">
        <ele>370.6</ele>
      </trkpt>
<trkpt lat="47.564441" lon="18.990043">
        <ele>367.6</ele>
      </trkpt>
<trkpt lat="47.564924" lon="18.989651">
        <ele>364.6</ele>
      </trkpt>
<trkpt lat="47.565130" lon="18.989554">
        <ele>363</ele>
      </trkpt>
<trkpt lat="47.565528" lon="18.989482">
        <ele>362.4</ele>
      </trkpt>
<trkpt lat="47.565718" lon="18.989364">
        <ele>363</ele>
      </trkpt>
<trkpt lat="47.566475" lon="18.988329">
        <ele>364.2</ele>
      </trkpt>
<trkpt lat="47.567008" lon="18.987934">
        <ele>368.2</ele>
      </trkpt>
<trkpt lat="47.567265" lon="18.987567">
        <ele>374.4</ele>
      </trkpt>
<trkpt lat="47.567412" lon="18.987221">
        <ele>379.2</ele>
      </trkpt>
<trkpt lat="47.568508" lon="18.985966">
        <ele>383.2</ele>
      </trkpt>
<trkpt lat="47.568845" lon="18.984857">
        <ele>384.6</ele>
      </trkpt>
<trkpt lat="47.569154" lon="18.984264">
        <ele>388</ele>
      </trkpt>
<trkpt lat="47.569443" lon="18.983780">
        <ele>385.8</ele>
      </trkpt>
<trkpt lat="47.569550" lon="18.983616">
        <ele>392</ele>
      </trkpt>
<trkpt lat="47.569979" lon="18.982954">
        <ele>394.4</ele>
      </trkpt>
<trkpt lat="47.570213" lon="18.982564">
        <ele>395</ele>
      </trkpt>
<trkpt lat="47.570514" lon="18.982207">
        <ele>396.8</ele>
      </trkpt>
<trkpt lat="47.570796" lon="18.981600">
        <ele>394.6</ele>
      </trkpt>
<trkpt lat="47.571038" lon="18.981135">
        <ele>388.2</ele>
      </trkpt>
<trkpt lat="47.571846" lon="18.980430">
        <ele>385.6</ele>
      </trkpt>
<trkpt lat="47.572646" lon="18.979519">
        <ele>384</ele>
      </trkpt>
<trkpt lat="47.573010" lon="18.979105">
        <ele>376.4</ele>
      </trkpt>
<trkpt lat="47.573118" lon="18.978902">
        <ele>375.8</ele>
      </trkpt>
<trkpt lat="47.573556" lon="18.978572">
        <ele>372.2</ele>
      </trkpt>
<trkpt lat="47.573746" lon="18.978369">
        <ele>368.6</ele>
      </trkpt>
<trkpt lat="47.573471" lon="18.978039">
        <ele>369</ele>
      </trkpt>
<trkpt lat="47.573356" lon="18.977811">
        <ele>369.4</ele>
      </trkpt>
<trkpt lat="47.573163" lon="18.977742">
        <ele>368.4</ele>
      </trkpt>
<trkpt lat="47.573068" lon="18.976747">
        <ele>369</ele>
      </trkpt>
<trkpt lat="47.573326" lon="18.975889">
        <ele>369.6</ele>
      </trkpt>
<trkpt lat="47.573505" lon="18.975293">
        <ele>365.2</ele>
      </trkpt>
<trkpt lat="47.574336" lon="18.973851">
        <ele>359</ele>
      </trkpt>
<trkpt lat="47.574366" lon="18.973753">
        <ele>354.2</ele>
      </trkpt>
<trkpt lat="47.574769" lon="18.972434">
        <ele>346.8</ele>
      </trkpt>
<trkpt lat="47.574901" lon="18.971202">
        <ele>340</ele>
      </trkpt>
<trkpt lat="47.575284" lon="18.970450">
        <ele>338.8</ele>
      </trkpt>
<trkpt lat="47.575403" lon="18.969799">
        <ele>338.6</ele>
      </trkpt>
<trkpt lat="47.575479" lon="18.969600">
        <ele>338.2</ele>
      </trkpt>
<trkpt lat="47.576014" lon="18.968186">
        <ele>339</ele>
      </trkpt>
<trkpt lat="47.576000" lon="18.967534">
        <ele>338.8</ele>
      </trkpt>
<trkpt lat="47.576060" lon="18.966938">
        <ele>336.2</ele>
      </trkpt>
<trkpt lat="47.576008" lon="18.966649">
        <ele>334.4</ele>
      </trkpt>
<trkpt lat="47.575911" lon="18.965860">
        <ele>332.8</ele>
      </trkpt>
<trkpt lat="47.576085" lon="18.964833">
        <ele>332.4</ele>
      </trkpt>
<trkpt lat="47.576092" lon="18.964801">
        <ele>331.2</ele>
      </trkpt>
<trkpt lat="47.576105" lon="18.964814">
        <ele>331.2</ele>
      </trkpt>
<trkpt lat="47.576419" lon="18.965216">
        <ele>330.6</ele>
      </trkpt>
<trkpt lat="47.576105" lon="18.964814">
        <ele>330</ele>
      </trkpt>
<trkpt lat="47.576092" lon="18.964801">
        <ele>328.4</ele>
      </trkpt>
<trkpt lat="47.576153" lon="18.964351">
        <ele>328</ele>
      </trkpt>
<trkpt lat="47.576025" lon="18.963908">
        <ele>329</ele>
      </trkpt>
<trkpt lat="47.576031" lon="18.963695">
        <ele>331</ele>
      </trkpt>
<trkpt lat="47.576250" lon="18.963016">
        <ele>333</ele>
      </trkpt>
<trkpt lat="47.576403" lon="18.962175">
        <ele>334.8</ele>
      </trkpt>
<trkpt lat="47.576553" lon="18.961911">
        <ele>338.4</ele>
      </trkpt>
<trkpt lat="47.576565" lon="18.961527">
        <ele>343.2</ele>
      </trkpt>
<trkpt lat="47.576579" lon="18.961449">
        <ele>347.6</ele>
      </trkpt>
<trkpt lat="47.576747" lon="18.960501">
        <ele>352</ele>
      </trkpt>
<trkpt lat="47.576744" lon="18.959797">
        <ele>356.4</ele>
      </trkpt>
<trkpt lat="47.576955" lon="18.959139">
        <ele>357</ele>
      </trkpt>
<trkpt lat="47.576943" lon="18.959030">
        <ele>355</ele>
      </trkpt>
<trkpt lat="47.576917" lon="18.958797">
        <ele>353</ele>
      </trkpt>
<trkpt lat="47.576962" lon="18.958515">
        <ele>351</ele>
      </trkpt>
<trkpt lat="47.577017" lon="18.958453">
        <ele>347.4</ele>
      </trkpt>
<trkpt lat="47.577120" lon="18.958336">
        <ele>343.4</ele>
      </trkpt>
<trkpt lat="47.577226" lon="18.958057">
        <ele>339.4</ele>
      </trkpt>
<trkpt lat="47.577371" lon="18.957394">
        <ele>335.4</ele>
      </trkpt>
<trkpt lat="47.577605" lon="18.956796">
        <ele>328</ele>
      </trkpt>
<trkpt lat="47.577645" lon="18.956749">
        <ele>321.4</ele>
      </trkpt>
<trkpt lat="47.577840" lon="18.956636">
        <ele>313.8</ele>
      </trkpt>
<trkpt lat="47.578285" lon="18.956539">
        <ele>307.4</ele>
      </trkpt>
<trkpt lat="47.578731" lon="18.956105">
        <ele>301.4</ele>
      </trkpt>
<trkpt lat="47.579064" lon="18.955780">
        <ele>297.6</ele>
      </trkpt>
<trkpt lat="47.578893" lon="18.956598">
        <ele>300</ele>
      </trkpt>
<trkpt lat="47.578918" lon="18.957273">
        <ele>305</ele>
      </trkpt>
<trkpt lat="47.578877" lon="18.958055">
        <ele>312.6</ele>
      </trkpt>
<trkpt lat="47.578729" lon="18.958461">
        <ele>317.8</ele>
      </trkpt>
<trkpt lat="47.578283" lon="18.959237">
        <ele>324.2</ele>
      </trkpt>
<trkpt lat="47.577797" lon="18.960761">
        <ele>323</ele>
      </trkpt>
<trkpt lat="47.577621" lon="18.961663">
        <ele>322</ele>
      </trkpt>
<trkpt lat="47.577546" lon="18.961910">
        <ele>316.6</ele>
      </trkpt>
<trkpt lat="47.577445" lon="18.962244">
        <ele>313</ele>
      </trkpt>
<trkpt lat="47.577442" lon="18.963529">
        <ele>308.8</ele>
      </trkpt>
<trkpt lat="47.577610" lon="18.964126">
        <ele>312.6</ele>
      </trkpt>
<trkpt lat="47.577540" lon="18.964830">
        <ele>317</ele>
      </trkpt>
<trkpt lat="47.577336" lon="18.965772">
        <ele>320.2</ele>
      </trkpt>
<trkpt lat="47.577020" lon="18.966594">
        <ele>323.6</ele>
      </trkpt>
<trkpt lat="47.576662" lon="18.967080">
        <ele>327.6</ele>
      </trkpt>
<trkpt lat="47.576417" lon="18.967154">
        <ele>325.8</ele>
      </trkpt>
<trkpt lat="47.576395" lon="18.967295">
        <ele>322.2</ele>
      </trkpt>
<trkpt lat="47.576498" lon="18.967536">
        <ele>320.4</ele>
      </trkpt>
<trkpt lat="47.576448" lon="18.967796">
        <ele>318.6</ele>
      </trkpt>
<trkpt lat="47.576543" lon="18.968077">
        <ele>316.8</ele>
      </trkpt>
<trkpt lat="47.576530" lon="18.968217">
        <ele>312.8</ele>
      </trkpt>
<trkpt lat="47.576410" lon="18.968420">
        <ele>317.2</ele>
      </trkpt>
<trkpt lat="47.576340" lon="18.968538">
        <ele>318.4</ele>
      </trkpt>
<trkpt lat="47.576286" lon="18.968999">
        <ele>325.2</ele>
      </trkpt>
<trkpt lat="47.575935" lon="18.969741">
        <ele>331.2</ele>
      </trkpt>
<trkpt lat="47.575529" lon="18.971504">
        <ele>337</ele>
      </trkpt>
<trkpt lat="47.575380" lon="18.972773">
        <ele>341.4</ele>
      </trkpt>
<trkpt lat="47.574930" lon="18.975667">
        <ele>349</ele>
      </trkpt>
<trkpt lat="47.574631" lon="18.976333">
        <ele>350.4</ele>
      </trkpt>
<trkpt lat="47.574548" lon="18.976647">
        <ele>348</ele>
      </trkpt>
<trkpt lat="47.574516" lon="18.976772">
        <ele>348</ele>
      </trkpt>
<trkpt lat="47.574577" lon="18.977167">
        <ele>343.6</ele>
      </trkpt>
<trkpt lat="47.574830" lon="18.978081">
        <ele>338.2</ele>
      </trkpt>
<trkpt lat="47.575014" lon="18.978503">
        <ele>330.8</ele>
      </trkpt>
<trkpt lat="47.575214" lon="18.978933">
        <ele>325.4</ele>
      </trkpt>
<trkpt lat="47.575179" lon="18.980256">
        <ele>321.4</ele>
      </trkpt>
<trkpt lat="47.575100" lon="18.980723">
        <ele>321.2</ele>
      </trkpt>
<trkpt lat="47.574680" lon="18.981892">
        <ele>322</ele>
      </trkpt>
<trkpt lat="47.573768" lon="18.983221">
        <ele>324.2</ele>
      </trkpt>
<trkpt lat="47.573380" lon="18.983900">
        <ele>335.6</ele>
      </trkpt>
<trkpt lat="47.573257" lon="18.984116">
        <ele>346.4</ele>
      </trkpt>
<trkpt lat="47.571327" lon="18.986388">
        <ele>353</ele>
      </trkpt>
<trkpt lat="47.570860" lon="18.987017">
        <ele>354</ele>
      </trkpt>
<trkpt lat="47.570166" lon="18.987777">
        <ele>356.2</ele>
      </trkpt>
<trkpt lat="47.569534" lon="18.988661">
        <ele>355</ele>
      </trkpt>
<trkpt lat="47.569131" lon="18.988999">
        <ele>353</ele>
      </trkpt>
<trkpt lat="47.568830" lon="18.989078">
        <ele>350.6</ele>
      </trkpt>
<trkpt lat="47.568398" lon="18.988228">
        <ele>354</ele>
      </trkpt>
<trkpt lat="47.568146" lon="18.988107">
        <ele>356.8</ele>
      </trkpt>
<trkpt lat="47.567930" lon="18.988061">
        <ele>356.4</ele>
      </trkpt>
<trkpt lat="47.567245" lon="18.988604">
        <ele>357.2</ele>
      </trkpt>
<trkpt lat="47.566507" lon="18.989047">
        <ele>358</ele>
      </trkpt>
<trkpt lat="47.566418" lon="18.989112">
        <ele>358.6</ele>
      </trkpt>
<trkpt lat="47.565652" lon="18.989672">
        <ele>360.8</ele>
      </trkpt>
<trkpt lat="47.565518" lon="18.989799">
        <ele>365.2</ele>
      </trkpt>
<trkpt lat="47.565456" lon="18.989904">
        <ele>366.2</ele>
      </trkpt>
<trkpt lat="47.564991" lon="18.990747">
        <ele>370.6</ele>
      </trkpt>
<trkpt lat="47.564473" lon="18.992135">
        <ele>375</ele>
      </trkpt>
<trkpt lat="47.564020" lon="18.993319">
        <ele>374.4</ele>
      </trkpt>
<trkpt lat="47.563733" lon="18.993912">
        <ele>374</ele>
      </trkpt>
<trkpt lat="47.563663" lon="18.994219">
        <ele>370</ele>
      </trkpt>
<trkpt lat="47.563482" lon="18.994751">
        <ele>368.8</ele>
      </trkpt>
<trkpt lat="47.562827" lon="18.995760">
        <ele>367.6</ele>
      </trkpt>
<trkpt lat="47.562170" lon="18.996534">
        <ele>370.6</ele>
      </trkpt>
<trkpt lat="47.561998" lon="18.996672">
        <ele>366.6</ele>
      </trkpt>
<trkpt lat="47.561568" lon="18.996850">
        <ele>373.8</ele>
      </trkpt>
<trkpt lat="47.561009" lon="18.997647">
        <ele>373.6</ele>
      </trkpt>
<trkpt lat="47.560512" lon="18.997920">
        <ele>373.4</ele>
      </trkpt>
<trkpt lat="47.560172" lon="18.999168">
        <ele>373</ele>
      </trkpt>
<trkpt lat="47.559394" lon="19.000700">
        <ele>378.4</ele>
      </trkpt>
<trkpt lat="47.559172" lon="19.000944">
        <ele>378.4</ele>
      </trkpt>
<trkpt lat="47.558775" lon="19.001191">
        <ele>376.2</ele>
      </trkpt>
<trkpt lat="47.558576" lon="19.001549">
        <ele>375.6</ele>
      </trkpt>
<trkpt lat="47.558466" lon="19.002046">
        <ele>375.8</ele>
      </trkpt>
<trkpt lat="47.558121" lon="19.002498">
        <ele>374.8</ele>
      </trkpt>
<trkpt lat="47.556775" lon="19.003952">
        <ele>369.8</ele>
      </trkpt>
<trkpt lat="47.555669" lon="19.005286">
        <ele>368.2</ele>
      </trkpt>
<trkpt lat="47.555464" lon="19.005369">
        <ele>370.8</ele>
      </trkpt>
<trkpt lat="47.555222" lon="19.005466">
        <ele>370.6</ele>
      </trkpt>
<trkpt lat="47.555026" lon="19.005426">
        <ele>374</ele>
      </trkpt>
<trkpt lat="47.554707" lon="19.004948">
        <ele>381.4</ele>
      </trkpt>
<trkpt lat="47.554396" lon="19.004606">
        <ele>391</ele>
      </trkpt>
<trkpt lat="47.554057" lon="19.004395">
        <ele>393.4</ele>
      </trkpt>
<trkpt lat="47.553913" lon="19.004384">
        <ele>397.8</ele>
      </trkpt>
<trkpt lat="47.553724" lon="19.004481">
        <ele>389.4</ele>
      </trkpt>
<trkpt lat="47.553748" lon="19.004761">
        <ele>381</ele>
      </trkpt>
<trkpt lat="47.553702" lon="19.005193">
        <ele>377</ele>
      </trkpt>
<trkpt lat="47.553846" lon="19.006300">
        <ele>369</ele>
      </trkpt>
<trkpt lat="47.553800" lon="19.006757">
        <ele>364.8</ele>
      </trkpt>
<trkpt lat="47.553561" lon="19.007431">
        <ele>369.8</ele>
      </trkpt>
<trkpt lat="47.552935" lon="19.008192">
        <ele>374.2</ele>
      </trkpt>
<trkpt lat="47.552486" lon="19.008531">
        <ele>372</ele>
      </trkpt>
<trkpt lat="47.552304" lon="19.008533">
        <ele>375.2</ele>
      </trkpt>
<trkpt lat="47.551989" lon="19.008224">
        <ele>378</ele>
      </trkpt>
<trkpt lat="47.551601" lon="19.008226">
        <ele>380.8</ele>
      </trkpt>
<trkpt lat="47.551531" lon="19.008167">
        <ele>384.8</ele>
      </trkpt>
<trkpt lat="47.551428" lon="19.007755">
        <ele>388.8</ele>
      </trkpt>
<trkpt lat="47.551264" lon="19.007657">
        <ele>389</ele>
      </trkpt>
<trkpt lat="47.551157" lon="19.007757">
        <ele>390</ele>
      </trkpt>
<trkpt lat="47.551074" lon="19.007830">
        <ele>385.6</ele>
      </trkpt>
<trkpt lat="47.550646" lon="19.008255">
        <ele>381.4</ele>
      </trkpt>
<trkpt lat="47.550406" lon="19.008595">
        <ele>376</ele>
      </trkpt>
<trkpt lat="47.549906" lon="19.009717">
        <ele>374.4</ele>
      </trkpt>
<trkpt lat="47.549435" lon="19.010598">
        <ele>371.2</ele>
      </trkpt>
<trkpt lat="47.548397" lon="19.011295">
        <ele>373.4</ele>
      </trkpt>
<trkpt lat="47.548235" lon="19.011258">
        <ele>375.8</ele>
      </trkpt>
<trkpt lat="47.548198" lon="19.011186">
        <ele>377.2</ele>
      </trkpt>
<trkpt lat="47.548096" lon="19.010888">
        <ele>379.4</ele>
      </trkpt>
<trkpt lat="47.547961" lon="19.010034">
        <ele>380.2</ele>
      </trkpt>
<trkpt lat="47.547803" lon="19.009631">
        <ele>381</ele>
      </trkpt>
<trkpt lat="47.547657" lon="19.009066">
        <ele>380.8</ele>
      </trkpt>
<trkpt lat="47.547788" lon="19.008430">
        <ele>382.8</ele>
      </trkpt>
<trkpt lat="47.547756" lon="19.008243">
        <ele>384</ele>
      </trkpt>
<trkpt lat="47.547681" lon="19.008124">
        <ele>384</ele>
      </trkpt>
<trkpt lat="47.547575" lon="19.008083">
        <ele>383.2</ele>
      </trkpt>
<trkpt lat="47.547411" lon="19.008160">
        <ele>382.4</ele>
      </trkpt>
<trkpt lat="47.547148" lon="19.008035">
        <ele>381.8</ele>
      </trkpt>
<trkpt lat="47.546968" lon="19.007663">
        <ele>381.2</ele>
      </trkpt>
<trkpt lat="47.546954" lon="19.007154">
        <ele>381.2</ele>
      </trkpt>
<trkpt lat="47.546950" lon="19.007003">
        <ele>382</ele>
      </trkpt>
<trkpt lat="47.546821" lon="19.006540">
        <ele>382.8</ele>
      </trkpt>
<trkpt lat="47.546833" lon="19.006095">
        <ele>383.4</ele>
      </trkpt>
<trkpt lat="47.546844" lon="19.005929">
        <ele>383</ele>
      </trkpt>
<trkpt lat="47.546752" lon="19.005783">
        <ele>382</ele>
      </trkpt>
<trkpt lat="47.546498" lon="19.005852">
        <ele>379.2</ele>
      </trkpt>
<trkpt lat="47.546236" lon="19.005632">
        <ele>375</ele>
      </trkpt>
<trkpt lat="47.545576" lon="19.006201">
        <ele>370.2</ele>
      </trkpt>
<trkpt lat="47.545257" lon="19.006582">
        <ele>367.4</ele>
      </trkpt>
<trkpt lat="47.544693" lon="19.007523">
        <ele>363.6</ele>
      </trkpt>
<trkpt lat="47.544452" lon="19.007923">
        <ele>361.6</ele>
      </trkpt>
<trkpt lat="47.544375" lon="19.007730">
        <ele>359.4</ele>
      </trkpt>
<trkpt lat="47.544064" lon="19.008176">
        <ele>357.8</ele>
      </trkpt>
<trkpt lat="47.543863" lon="19.008171">
        <ele>355.2</ele>
      </trkpt>
<trkpt lat="47.543521" lon="19.007960">
        <ele>350.4</ele>
      </trkpt>
<trkpt lat="47.543273" lon="19.007949">
        <ele>341</ele>
      </trkpt>
<trkpt lat="47.543168" lon="19.008078">
        <ele>333.2</ele>
      </trkpt>
<trkpt lat="47.542500" lon="19.008677">
        <ele>325.4</ele>
      </trkpt>
<trkpt lat="47.542072" lon="19.008726">
        <ele>317.6</ele>
      </trkpt>
<trkpt lat="47.541827" lon="19.008657">
        <ele>308.8</ele>
      </trkpt>
<trkpt lat="47.541583" lon="19.008130">
        <ele>304.6</ele>
      </trkpt>
<trkpt lat="47.541494" lon="19.008098">
        <ele>300.4</ele>
      </trkpt>
<trkpt lat="47.540996" lon="19.007502">
        <ele>296</ele>
      </trkpt>
<trkpt lat="47.540759" lon="19.007292">
        <ele>291.6</ele>
      </trkpt>
<trkpt lat="47.540615" lon="19.007107">
        <ele>291.4</ele>
      </trkpt>
<trkpt lat="47.540559" lon="19.006551">
        <ele>291.25</ele>
      </trkpt>
<trkpt lat="47.540512" lon="19.006550">
        <ele>291</ele>
      </trkpt>
<trkpt lat="47.540568" lon="19.006511">
        <ele>291</ele>
      </trkpt>
</trkseg>
</trk>
</gpx>



