<?xml version="1.0" encoding="UTF-8"?>
<gpx xmlns="http://www.topografix.com/GPX/1/1" xmlns:gpsies="http://www.gpsies.com/GPX/1/0" creator="GPSies http://www.gpsies.com - GPSies Track" version="1.1" xmlns:xsi="http://www.w3.org/2001/XMLSchema-instance" xsi:schemaLocation="http://www.topografix.com/GPX/1/1 http://www.topografix.com/GPX/1/1/gpx.xsd http://www.gpsies.com/GPX/1/0 http://www.gpsies.com/gpsies.xsd">
  <metadata>
    <name>GPSies Track</name>
    <link href="http://www.gpsies.com/">
      <text>GPSies Track on GPSies.com</text>
    </link>
    <time>2018-02-02T18:09:45Z</time>
  </metadata>
  <trk>
    <name>GPSies Track on GPSies.com</name>
    <trkseg>
      <trkpt lat="48.94482770" lon="20.48526406">
        <ele>522.00000</ele>
        <time>2010-01-01T00:00:00Z</time>
      </trkpt>
      <trkpt lat="48.94481000" lon="20.48523000">
        <ele>522.00000</ele>
        <time>2010-01-01T00:00:01Z</time>
      </trkpt>
      <trkpt lat="48.94457000" lon="20.48537000">
        <ele>520.00000</ele>
        <time>2010-01-01T00:00:11Z</time>
      </trkpt>
      <trkpt lat="48.94420000" lon="20.48512000">
        <ele>522.00000</ele>
        <time>2010-01-01T00:00:27Z</time>
      </trkpt>
      <trkpt lat="48.94376000" lon="20.48477000">
        <ele>521.00000</ele>
        <time>2010-01-01T00:00:47Z</time>
      </trkpt>
      <trkpt lat="48.94318000" lon="20.48416000">
        <ele>515.00000</ele>
        <time>2010-01-01T00:01:15Z</time>
      </trkpt>
      <trkpt lat="48.94271000" lon="20.48358000">
        <ele>512.00000</ele>
        <time>2010-01-01T00:01:39Z</time>
      </trkpt>
      <trkpt lat="48.94249000" lon="20.48340000">
        <ele>511.00000</ele>
        <time>2010-01-01T00:01:49Z</time>
      </trkpt>
      <trkpt lat="48.94216000" lon="20.48315000">
        <ele>504.00000</ele>
        <time>2010-01-01T00:02:04Z</time>
      </trkpt>
      <trkpt lat="48.94212000" lon="20.48308000">
        <ele>504.00000</ele>
        <time>2010-01-01T00:02:07Z</time>
      </trkpt>
      <trkpt lat="48.94212000" lon="20.48307000">
        <ele>504.00000</ele>
        <time>2010-01-01T00:02:07Z</time>
      </trkpt>
      <trkpt lat="48.94202000" lon="20.48292000">
        <ele>502.00000</ele>
        <time>2010-01-01T00:02:13Z</time>
      </trkpt>
      <trkpt lat="48.94193000" lon="20.48264000">
        <ele>503.00000</ele>
        <time>2010-01-01T00:02:21Z</time>
      </trkpt>
      <trkpt lat="48.94189000" lon="20.48249000">
        <ele>504.00000</ele>
        <time>2010-01-01T00:02:25Z</time>
      </trkpt>
      <trkpt lat="48.94179000" lon="20.48208000">
        <ele>504.00000</ele>
        <time>2010-01-01T00:02:36Z</time>
      </trkpt>
      <trkpt lat="48.94193000" lon="20.48205000">
        <ele>508.00000</ele>
        <time>2010-01-01T00:02:42Z</time>
      </trkpt>
      <trkpt lat="48.94230000" lon="20.48231000">
        <ele>518.00000</ele>
        <time>2010-01-01T00:02:58Z</time>
      </trkpt>
      <trkpt lat="48.94276000" lon="20.48236000">
        <ele>531.00000</ele>
        <time>2010-01-01T00:03:17Z</time>
      </trkpt>
      <trkpt lat="48.94286000" lon="20.48234000">
        <ele>534.00000</ele>
        <time>2010-01-01T00:03:21Z</time>
      </trkpt>
      <trkpt lat="48.94288000" lon="20.48229000">
        <ele>535.00000</ele>
        <time>2010-01-01T00:03:22Z</time>
      </trkpt>
      <trkpt lat="48.94335000" lon="20.48078000">
        <ele>554.00000</ele>
        <time>2010-01-01T00:04:06Z</time>
      </trkpt>
      <trkpt lat="48.94362000" lon="20.48026000">
        <ele>559.00000</ele>
        <time>2010-01-01T00:04:24Z</time>
      </trkpt>
      <trkpt lat="48.94378000" lon="20.47997000">
        <ele>561.00000</ele>
        <time>2010-01-01T00:04:34Z</time>
      </trkpt>
      <trkpt lat="48.94398000" lon="20.47951000">
        <ele>563.00000</ele>
        <time>2010-01-01T00:04:48Z</time>
      </trkpt>
      <trkpt lat="48.94433000" lon="20.47851000">
        <ele>562.00000</ele>
        <time>2010-01-01T00:05:18Z</time>
      </trkpt>
      <trkpt lat="48.94446000" lon="20.47804000">
        <ele>564.00000</ele>
        <time>2010-01-01T00:05:32Z</time>
      </trkpt>
      <trkpt lat="48.94451000" lon="20.47793000">
        <ele>564.00000</ele>
        <time>2010-01-01T00:05:35Z</time>
      </trkpt>
      <trkpt lat="48.94491000" lon="20.47727000">
        <ele>566.00000</ele>
        <time>2010-01-01T00:05:59Z</time>
      </trkpt>
      <trkpt lat="48.94560000" lon="20.47683000">
        <ele>562.00000</ele>
        <time>2010-01-01T00:06:29Z</time>
      </trkpt>
      <trkpt lat="48.94597000" lon="20.47664000">
        <ele>565.00000</ele>
        <time>2010-01-01T00:06:44Z</time>
      </trkpt>
      <trkpt lat="48.94622000" lon="20.47644000">
        <ele>563.00000</ele>
        <time>2010-01-01T00:06:56Z</time>
      </trkpt>
      <trkpt lat="48.94622000" lon="20.47576000">
        <ele>568.00000</ele>
        <time>2010-01-01T00:07:13Z</time>
      </trkpt>
      <trkpt lat="48.94614000" lon="20.47534000">
        <ele>574.00000</ele>
        <time>2010-01-01T00:07:25Z</time>
      </trkpt>
      <trkpt lat="48.94584000" lon="20.47536000">
        <ele>578.00000</ele>
        <time>2010-01-01T00:07:37Z</time>
      </trkpt>
      <trkpt lat="48.94552000" lon="20.47541000">
        <ele>581.00000</ele>
        <time>2010-01-01T00:07:50Z</time>
      </trkpt>
      <trkpt lat="48.94533000" lon="20.47535000">
        <ele>583.00000</ele>
        <time>2010-01-01T00:07:58Z</time>
      </trkpt>
      <trkpt lat="48.94472000" lon="20.47491000">
        <ele>602.00000</ele>
        <time>2010-01-01T00:08:25Z</time>
      </trkpt>
      <trkpt lat="48.94437000" lon="20.47490000">
        <ele>603.00000</ele>
        <time>2010-01-01T00:08:39Z</time>
      </trkpt>
      <trkpt lat="48.94416000" lon="20.47466000">
        <ele>603.00000</ele>
        <time>2010-01-01T00:08:49Z</time>
      </trkpt>
      <trkpt lat="48.94416000" lon="20.47465000">
        <ele>603.00000</ele>
        <time>2010-01-01T00:08:49Z</time>
      </trkpt>
      <trkpt lat="48.94411000" lon="20.47460000">
        <ele>603.00000</ele>
        <time>2010-01-01T00:08:52Z</time>
      </trkpt>
      <trkpt lat="48.94374000" lon="20.47437000">
        <ele>605.00000</ele>
        <time>2010-01-01T00:09:08Z</time>
      </trkpt>
      <trkpt lat="48.94301000" lon="20.47408000">
        <ele>614.00000</ele>
        <time>2010-01-01T00:09:38Z</time>
      </trkpt>
      <trkpt lat="48.94232000" lon="20.47378000">
        <ele>615.00000</ele>
        <time>2010-01-01T00:10:07Z</time>
      </trkpt>
      <trkpt lat="48.94209000" lon="20.47349000">
        <ele>610.00000</ele>
        <time>2010-01-01T00:10:19Z</time>
      </trkpt>
      <trkpt lat="48.94200000" lon="20.47314000">
        <ele>605.00000</ele>
        <time>2010-01-01T00:10:29Z</time>
      </trkpt>
      <trkpt lat="48.94205000" lon="20.47234000">
        <ele>613.00000</ele>
        <time>2010-01-01T00:10:50Z</time>
      </trkpt>
      <trkpt lat="48.94202000" lon="20.47212000">
        <ele>614.00000</ele>
        <time>2010-01-01T00:10:56Z</time>
      </trkpt>
      <trkpt lat="48.94193000" lon="20.47194000">
        <ele>613.00000</ele>
        <time>2010-01-01T00:11:02Z</time>
      </trkpt>
      <trkpt lat="48.94171000" lon="20.47166000">
        <ele>604.00000</ele>
        <time>2010-01-01T00:11:13Z</time>
      </trkpt>
      <trkpt lat="48.94156000" lon="20.47098000">
        <ele>604.00000</ele>
        <time>2010-01-01T00:11:32Z</time>
      </trkpt>
      <trkpt lat="48.94145000" lon="20.47063000">
        <ele>596.00000</ele>
        <time>2010-01-01T00:11:42Z</time>
      </trkpt>
      <trkpt lat="48.94136000" lon="20.47013000">
        <ele>582.00000</ele>
        <time>2010-01-01T00:11:56Z</time>
      </trkpt>
      <trkpt lat="48.94143000" lon="20.46986000">
        <ele>585.00000</ele>
        <time>2010-01-01T00:12:03Z</time>
      </trkpt>
      <trkpt lat="48.94148000" lon="20.46951000">
        <ele>588.00000</ele>
        <time>2010-01-01T00:12:13Z</time>
      </trkpt>
      <trkpt lat="48.94161000" lon="20.46919000">
        <ele>598.00000</ele>
        <time>2010-01-01T00:12:23Z</time>
      </trkpt>
      <trkpt lat="48.94161000" lon="20.46901000">
        <ele>597.00000</ele>
        <time>2010-01-01T00:12:27Z</time>
      </trkpt>
      <trkpt lat="48.94158000" lon="20.46869000">
        <ele>592.00000</ele>
        <time>2010-01-01T00:12:36Z</time>
      </trkpt>
      <trkpt lat="48.94183000" lon="20.46839000">
        <ele>601.00000</ele>
        <time>2010-01-01T00:12:49Z</time>
      </trkpt>
      <trkpt lat="48.94193000" lon="20.46801000">
        <ele>599.00000</ele>
        <time>2010-01-01T00:12:59Z</time>
      </trkpt>
      <trkpt lat="48.94252000" lon="20.46716000">
        <ele>603.00000</ele>
        <time>2010-01-01T00:13:32Z</time>
      </trkpt>
      <trkpt lat="48.94281000" lon="20.46670000">
        <ele>602.00000</ele>
        <time>2010-01-01T00:13:49Z</time>
      </trkpt>
      <trkpt lat="48.94322000" lon="20.46569000">
        <ele>619.00000</ele>
        <time>2010-01-01T00:14:20Z</time>
      </trkpt>
      <trkpt lat="48.94330000" lon="20.46551000">
        <ele>623.00000</ele>
        <time>2010-01-01T00:14:26Z</time>
      </trkpt>
      <trkpt lat="48.94334000" lon="20.46530000">
        <ele>624.00000</ele>
        <time>2010-01-01T00:14:31Z</time>
      </trkpt>
      <trkpt lat="48.94334000" lon="20.46487000">
        <ele>625.00000</ele>
        <time>2010-01-01T00:14:43Z</time>
      </trkpt>
      <trkpt lat="48.94344000" lon="20.46431000">
        <ele>636.00000</ele>
        <time>2010-01-01T00:14:58Z</time>
      </trkpt>
      <trkpt lat="48.94351000" lon="20.46355000">
        <ele>640.00000</ele>
        <time>2010-01-01T00:15:18Z</time>
      </trkpt>
      <trkpt lat="48.94380000" lon="20.46309000">
        <ele>647.00000</ele>
        <time>2010-01-01T00:15:35Z</time>
      </trkpt>
      <trkpt lat="48.94445000" lon="20.46289000">
        <ele>661.00000</ele>
        <time>2010-01-01T00:16:01Z</time>
      </trkpt>
      <trkpt lat="48.94461000" lon="20.46264000">
        <ele>663.00000</ele>
        <time>2010-01-01T00:16:11Z</time>
      </trkpt>
      <trkpt lat="48.94466000" lon="20.46234000">
        <ele>663.00000</ele>
        <time>2010-01-01T00:16:19Z</time>
      </trkpt>
      <trkpt lat="48.94452000" lon="20.46158000">
        <ele>662.00000</ele>
        <time>2010-01-01T00:16:39Z</time>
      </trkpt>
      <trkpt lat="48.94478000" lon="20.46017000">
        <ele>649.00000</ele>
        <time>2010-01-01T00:17:18Z</time>
      </trkpt>
      <trkpt lat="48.94482000" lon="20.46011000">
        <ele>649.00000</ele>
        <time>2010-01-01T00:17:20Z</time>
      </trkpt>
      <trkpt lat="48.94505000" lon="20.45970000">
        <ele>644.00000</ele>
        <time>2010-01-01T00:17:34Z</time>
      </trkpt>
      <trkpt lat="48.94508000" lon="20.45970000">
        <ele>646.00000</ele>
        <time>2010-01-01T00:17:36Z</time>
      </trkpt>
      <trkpt lat="48.94513000" lon="20.45968000">
        <ele>648.00000</ele>
        <time>2010-01-01T00:17:38Z</time>
      </trkpt>
      <trkpt lat="48.94540000" lon="20.45979000">
        <ele>662.00000</ele>
        <time>2010-01-01T00:17:49Z</time>
      </trkpt>
      <trkpt lat="48.94550000" lon="20.45978000">
        <ele>663.00000</ele>
        <time>2010-01-01T00:17:53Z</time>
      </trkpt>
      <trkpt lat="48.94568000" lon="20.45964000">
        <ele>661.00000</ele>
        <time>2010-01-01T00:18:01Z</time>
      </trkpt>
      <trkpt lat="48.94582000" lon="20.45964000">
        <ele>661.00000</ele>
        <time>2010-01-01T00:18:07Z</time>
      </trkpt>
      <trkpt lat="48.94599000" lon="20.45974000">
        <ele>662.00000</ele>
        <time>2010-01-01T00:18:14Z</time>
      </trkpt>
      <trkpt lat="48.94607000" lon="20.45976000">
        <ele>662.00000</ele>
        <time>2010-01-01T00:18:17Z</time>
      </trkpt>
      <trkpt lat="48.94619000" lon="20.45975000">
        <ele>662.00000</ele>
        <time>2010-01-01T00:18:22Z</time>
      </trkpt>
      <trkpt lat="48.94630000" lon="20.45969000">
        <ele>663.00000</ele>
        <time>2010-01-01T00:18:27Z</time>
      </trkpt>
      <trkpt lat="48.94642000" lon="20.45957000">
        <ele>662.00000</ele>
        <time>2010-01-01T00:18:32Z</time>
      </trkpt>
      <trkpt lat="48.94677000" lon="20.45948000">
        <ele>657.00000</ele>
        <time>2010-01-01T00:18:47Z</time>
      </trkpt>
      <trkpt lat="48.94685000" lon="20.45941000">
        <ele>655.00000</ele>
        <time>2010-01-01T00:18:50Z</time>
      </trkpt>
      <trkpt lat="48.94706000" lon="20.45935000">
        <ele>652.00000</ele>
        <time>2010-01-01T00:18:59Z</time>
      </trkpt>
      <trkpt lat="48.94717000" lon="20.45920000">
        <ele>650.00000</ele>
        <time>2010-01-01T00:19:05Z</time>
      </trkpt>
      <trkpt lat="48.94742000" lon="20.45880000">
        <ele>642.00000</ele>
        <time>2010-01-01T00:19:19Z</time>
      </trkpt>
      <trkpt lat="48.94749000" lon="20.45861000">
        <ele>639.00000</ele>
        <time>2010-01-01T00:19:25Z</time>
      </trkpt>
      <trkpt lat="48.94749000" lon="20.45845000">
        <ele>635.00000</ele>
        <time>2010-01-01T00:19:29Z</time>
      </trkpt>
      <trkpt lat="48.94755000" lon="20.45829000">
        <ele>631.00000</ele>
        <time>2010-01-01T00:19:34Z</time>
      </trkpt>
      <trkpt lat="48.94772000" lon="20.45815000">
        <ele>627.00000</ele>
        <time>2010-01-01T00:19:42Z</time>
      </trkpt>
      <trkpt lat="48.94761000" lon="20.45779000">
        <ele>613.00000</ele>
        <time>2010-01-01T00:19:52Z</time>
      </trkpt>
      <trkpt lat="48.94752000" lon="20.45772000">
        <ele>610.00000</ele>
        <time>2010-01-01T00:19:56Z</time>
      </trkpt>
      <trkpt lat="48.94718000" lon="20.45775000">
        <ele>608.00000</ele>
        <time>2010-01-01T00:20:10Z</time>
      </trkpt>
      <trkpt lat="48.94638000" lon="20.45773000">
        <ele>590.00000</ele>
        <time>2010-01-01T00:20:42Z</time>
      </trkpt>
      <trkpt lat="48.94643000" lon="20.45765000">
        <ele>588.00000</ele>
        <time>2010-01-01T00:20:45Z</time>
      </trkpt>
      <trkpt lat="48.94628000" lon="20.45762000">
        <ele>583.00000</ele>
        <time>2010-01-01T00:20:51Z</time>
      </trkpt>
      <trkpt lat="48.94611000" lon="20.45761000">
        <ele>579.00000</ele>
        <time>2010-01-01T00:20:58Z</time>
      </trkpt>
      <trkpt lat="48.94615000" lon="20.45725000">
        <ele>566.00000</ele>
        <time>2010-01-01T00:21:07Z</time>
      </trkpt>
      <trkpt lat="48.94630000" lon="20.45700000">
        <ele>561.00000</ele>
        <time>2010-01-01T00:21:16Z</time>
      </trkpt>
      <trkpt lat="48.94648000" lon="20.45684000">
        <ele>559.00000</ele>
        <time>2010-01-01T00:21:24Z</time>
      </trkpt>
      <trkpt lat="48.94600000" lon="20.45661000">
        <ele>542.00000</ele>
        <time>2010-01-01T00:21:45Z</time>
      </trkpt>
      <trkpt lat="48.94585000" lon="20.45643000">
        <ele>532.00000</ele>
        <time>2010-01-01T00:21:52Z</time>
      </trkpt>
      <trkpt lat="48.94578000" lon="20.45621000">
        <ele>527.00000</ele>
        <time>2010-01-01T00:21:59Z</time>
      </trkpt>
      <trkpt lat="48.94578000" lon="20.45620000">
        <ele>527.00000</ele>
        <time>2010-01-01T00:21:59Z</time>
      </trkpt>
      <trkpt lat="48.94576000" lon="20.45617000">
        <ele>526.00000</ele>
        <time>2010-01-01T00:22:00Z</time>
      </trkpt>
      <trkpt lat="48.94589000" lon="20.45612000">
        <ele>528.00000</ele>
        <time>2010-01-01T00:22:05Z</time>
      </trkpt>
      <trkpt lat="48.94601000" lon="20.45608000">
        <ele>530.00000</ele>
        <time>2010-01-01T00:22:10Z</time>
      </trkpt>
      <trkpt lat="48.94631000" lon="20.45572000">
        <ele>528.00000</ele>
        <time>2010-01-01T00:22:26Z</time>
      </trkpt>
      <trkpt lat="48.94651000" lon="20.45560000">
        <ele>527.00000</ele>
        <time>2010-01-01T00:22:34Z</time>
      </trkpt>
      <trkpt lat="48.94717000" lon="20.45576000">
        <ele>525.00000</ele>
        <time>2010-01-01T00:23:01Z</time>
      </trkpt>
      <trkpt lat="48.94754000" lon="20.45582000">
        <ele>521.00000</ele>
        <time>2010-01-01T00:23:16Z</time>
      </trkpt>
      <trkpt lat="48.94778000" lon="20.45602000">
        <ele>522.00000</ele>
        <time>2010-01-01T00:23:27Z</time>
      </trkpt>
      <trkpt lat="48.94838000" lon="20.45619000">
        <ele>527.00000</ele>
        <time>2010-01-01T00:23:51Z</time>
      </trkpt>
      <trkpt lat="48.94861000" lon="20.45593000">
        <ele>525.00000</ele>
        <time>2010-01-01T00:24:03Z</time>
      </trkpt>
      <trkpt lat="48.94888000" lon="20.45529000">
        <ele>521.00000</ele>
        <time>2010-01-01T00:24:23Z</time>
      </trkpt>
      <trkpt lat="48.94913000" lon="20.45505000">
        <ele>523.00000</ele>
        <time>2010-01-01T00:24:35Z</time>
      </trkpt>
      <trkpt lat="48.94938000" lon="20.45454000">
        <ele>530.00000</ele>
        <time>2010-01-01T00:24:51Z</time>
      </trkpt>
      <trkpt lat="48.94943000" lon="20.45412000">
        <ele>536.00000</ele>
        <time>2010-01-01T00:25:03Z</time>
      </trkpt>
      <trkpt lat="48.94932000" lon="20.45343000">
        <ele>539.00000</ele>
        <time>2010-01-01T00:25:21Z</time>
      </trkpt>
      <trkpt lat="48.94950000" lon="20.45248000">
        <ele>541.00000</ele>
        <time>2010-01-01T00:25:47Z</time>
      </trkpt>
      <trkpt lat="48.94965000" lon="20.45180000">
        <ele>536.00000</ele>
        <time>2010-01-01T00:26:06Z</time>
      </trkpt>
      <trkpt lat="48.95001000" lon="20.45127000">
        <ele>538.00000</ele>
        <time>2010-01-01T00:26:26Z</time>
      </trkpt>
      <trkpt lat="48.95082000" lon="20.45130000">
        <ele>534.00000</ele>
        <time>2010-01-01T00:26:59Z</time>
      </trkpt>
      <trkpt lat="48.95167000" lon="20.45190000">
        <ele>536.00000</ele>
        <time>2010-01-01T00:27:36Z</time>
      </trkpt>
      <trkpt lat="48.95174000" lon="20.45167000">
        <ele>533.00000</ele>
        <time>2010-01-01T00:27:43Z</time>
      </trkpt>
      <trkpt lat="48.95193000" lon="20.45171000">
        <ele>536.00000</ele>
        <time>2010-01-01T00:27:50Z</time>
      </trkpt>
      <trkpt lat="48.95237000" lon="20.45162000">
        <ele>535.00000</ele>
        <time>2010-01-01T00:28:08Z</time>
      </trkpt>
      <trkpt lat="48.95260000" lon="20.45133000">
        <ele>537.00000</ele>
        <time>2010-01-01T00:28:20Z</time>
      </trkpt>
      <trkpt lat="48.95263000" lon="20.45119000">
        <ele>537.00000</ele>
        <time>2010-01-01T00:28:24Z</time>
      </trkpt>
      <trkpt lat="48.95262000" lon="20.45037000">
        <ele>542.00000</ele>
        <time>2010-01-01T00:28:46Z</time>
      </trkpt>
      <trkpt lat="48.95271000" lon="20.45002000">
        <ele>539.00000</ele>
        <time>2010-01-01T00:28:55Z</time>
      </trkpt>
      <trkpt lat="48.95273000" lon="20.44931000">
        <ele>531.00000</ele>
        <time>2010-01-01T00:29:14Z</time>
      </trkpt>
      <trkpt lat="48.95262000" lon="20.44894000">
        <ele>533.00000</ele>
        <time>2010-01-01T00:29:25Z</time>
      </trkpt>
      <trkpt lat="48.95237000" lon="20.44868000">
        <ele>540.00000</ele>
        <time>2010-01-01T00:29:37Z</time>
      </trkpt>
      <trkpt lat="48.95222000" lon="20.44848000">
        <ele>540.00000</ele>
        <time>2010-01-01T00:29:45Z</time>
      </trkpt>
      <trkpt lat="48.95209000" lon="20.44833000">
        <ele>550.00000</ele>
        <time>2010-01-01T00:29:51Z</time>
      </trkpt>
      <trkpt lat="48.95202000" lon="20.44814000">
        <ele>551.00000</ele>
        <time>2010-01-01T00:29:57Z</time>
      </trkpt>
      <trkpt lat="48.95201000" lon="20.44776000">
        <ele>549.00000</ele>
        <time>2010-01-01T00:30:07Z</time>
      </trkpt>
      <trkpt lat="48.95214000" lon="20.44719000">
        <ele>548.00000</ele>
        <time>2010-01-01T00:30:23Z</time>
      </trkpt>
      <trkpt lat="48.95273000" lon="20.44677000">
        <ele>537.00000</ele>
        <time>2010-01-01T00:30:49Z</time>
      </trkpt>
      <trkpt lat="48.95290000" lon="20.44657000">
        <ele>536.00000</ele>
        <time>2010-01-01T00:30:58Z</time>
      </trkpt>
      <trkpt lat="48.95314000" lon="20.44611000">
        <ele>533.00000</ele>
        <time>2010-01-01T00:31:13Z</time>
      </trkpt>
      <trkpt lat="48.95318000" lon="20.44584000">
        <ele>531.00000</ele>
        <time>2010-01-01T00:31:20Z</time>
      </trkpt>
      <trkpt lat="48.95316000" lon="20.44556000">
        <ele>531.00000</ele>
        <time>2010-01-01T00:31:28Z</time>
      </trkpt>
      <trkpt lat="48.95283000" lon="20.44444000">
        <ele>542.00000</ele>
        <time>2010-01-01T00:32:00Z</time>
      </trkpt>
      <trkpt lat="48.95276000" lon="20.44404000">
        <ele>548.00000</ele>
        <time>2010-01-01T00:32:11Z</time>
      </trkpt>
      <trkpt lat="48.95272000" lon="20.44360000">
        <ele>551.00000</ele>
        <time>2010-01-01T00:32:23Z</time>
      </trkpt>
      <trkpt lat="48.95275000" lon="20.44292000">
        <ele>543.00000</ele>
        <time>2010-01-01T00:32:40Z</time>
      </trkpt>
      <trkpt lat="48.95277000" lon="20.44280000">
        <ele>540.00000</ele>
        <time>2010-01-01T00:32:44Z</time>
      </trkpt>
      <trkpt lat="48.95282000" lon="20.44268000">
        <ele>542.00000</ele>
        <time>2010-01-01T00:32:47Z</time>
      </trkpt>
      <trkpt lat="48.95319000" lon="20.44218000">
        <ele>548.00000</ele>
        <time>2010-01-01T00:33:07Z</time>
      </trkpt>
      <trkpt lat="48.95333000" lon="20.44211000">
        <ele>548.00000</ele>
        <time>2010-01-01T00:33:13Z</time>
      </trkpt>
      <trkpt lat="48.95355000" lon="20.44210000">
        <ele>546.00000</ele>
        <time>2010-01-01T00:33:22Z</time>
      </trkpt>
      <trkpt lat="48.95393000" lon="20.44227000">
        <ele>536.00000</ele>
        <time>2010-01-01T00:33:38Z</time>
      </trkpt>
      <trkpt lat="48.95413000" lon="20.44232000">
        <ele>530.00000</ele>
        <time>2010-01-01T00:33:46Z</time>
      </trkpt>
      <trkpt lat="48.95433000" lon="20.44231000">
        <ele>528.00000</ele>
        <time>2010-01-01T00:33:54Z</time>
      </trkpt>
      <trkpt lat="48.95434000" lon="20.44231000">
        <ele>527.00000</ele>
        <time>2010-01-01T00:33:54Z</time>
      </trkpt>
      <trkpt lat="48.95455000" lon="20.44215000">
        <ele>526.00000</ele>
        <time>2010-01-01T00:34:04Z</time>
      </trkpt>
      <trkpt lat="48.95486000" lon="20.44166000">
        <ele>529.00000</ele>
        <time>2010-01-01T00:34:22Z</time>
      </trkpt>
      <trkpt lat="48.95502000" lon="20.44131000">
        <ele>530.00000</ele>
        <time>2010-01-01T00:34:33Z</time>
      </trkpt>
      <trkpt lat="48.95461000" lon="20.44080000">
        <ele>525.00000</ele>
        <time>2010-01-01T00:34:54Z</time>
      </trkpt>
      <trkpt lat="48.95414000" lon="20.44029000">
        <ele>531.00000</ele>
        <time>2010-01-01T00:35:17Z</time>
      </trkpt>
      <trkpt lat="48.95373000" lon="20.43975000">
        <ele>527.00000</ele>
        <time>2010-01-01T00:35:39Z</time>
      </trkpt>
      <trkpt lat="48.95364000" lon="20.43939000">
        <ele>524.00000</ele>
        <time>2010-01-01T00:35:49Z</time>
      </trkpt>
      <trkpt lat="48.95383000" lon="20.43816000">
        <ele>538.00000</ele>
        <time>2010-01-01T00:36:22Z</time>
      </trkpt>
      <trkpt lat="48.95413000" lon="20.43767000">
        <ele>553.00000</ele>
        <time>2010-01-01T00:36:40Z</time>
      </trkpt>
      <trkpt lat="48.95460000" lon="20.43682000">
        <ele>556.00000</ele>
        <time>2010-01-01T00:37:09Z</time>
      </trkpt>
      <trkpt lat="48.95460000" lon="20.43677000">
        <ele>556.00000</ele>
        <time>2010-01-01T00:37:10Z</time>
      </trkpt>
      <trkpt lat="48.95447000" lon="20.43655000">
        <ele>547.00000</ele>
        <time>2010-01-01T00:37:18Z</time>
      </trkpt>
      <trkpt lat="48.95431000" lon="20.43610000">
        <ele>540.00000</ele>
        <time>2010-01-01T00:37:32Z</time>
      </trkpt>
      <trkpt lat="48.95392000" lon="20.43585000">
        <ele>556.00000</ele>
        <time>2010-01-01T00:37:49Z</time>
      </trkpt>
      <trkpt lat="48.95380000" lon="20.43552000">
        <ele>556.00000</ele>
        <time>2010-01-01T00:37:58Z</time>
      </trkpt>
      <trkpt lat="48.95362000" lon="20.43460000">
        <ele>557.00000</ele>
        <time>2010-01-01T00:38:24Z</time>
      </trkpt>
      <trkpt lat="48.95361000" lon="20.43398000">
        <ele>543.00000</ele>
        <time>2010-01-01T00:38:40Z</time>
      </trkpt>
      <trkpt lat="48.95349000" lon="20.43372000">
        <ele>541.00000</ele>
        <time>2010-01-01T00:38:48Z</time>
      </trkpt>
      <trkpt lat="48.95325000" lon="20.43302000">
        <ele>546.00000</ele>
        <time>2010-01-01T00:39:09Z</time>
      </trkpt>
      <trkpt lat="48.95317000" lon="20.43262000">
        <ele>553.00000</ele>
        <time>2010-01-01T00:39:20Z</time>
      </trkpt>
      <trkpt lat="48.95316000" lon="20.43245000">
        <ele>557.00000</ele>
        <time>2010-01-01T00:39:25Z</time>
      </trkpt>
      <trkpt lat="48.95318000" lon="20.43239000">
        <ele>558.00000</ele>
        <time>2010-01-01T00:39:26Z</time>
      </trkpt>
      <trkpt lat="48.95351000" lon="20.43198000">
        <ele>556.00000</ele>
        <time>2010-01-01T00:39:43Z</time>
      </trkpt>
      <trkpt lat="48.95375000" lon="20.43142000">
        <ele>552.00000</ele>
        <time>2010-01-01T00:40:01Z</time>
      </trkpt>
      <trkpt lat="48.95405000" lon="20.43138000">
        <ele>559.00000</ele>
        <time>2010-01-01T00:40:13Z</time>
      </trkpt>
      <trkpt lat="48.95403000" lon="20.43094000">
        <ele>554.00000</ele>
        <time>2010-01-01T00:40:25Z</time>
      </trkpt>
      <trkpt lat="48.95369000" lon="20.43040000">
        <ele>548.00000</ele>
        <time>2010-01-01T00:40:44Z</time>
      </trkpt>
      <trkpt lat="48.95352000" lon="20.43020000">
        <ele>546.00000</ele>
        <time>2010-01-01T00:40:53Z</time>
      </trkpt>
      <trkpt lat="48.95328000" lon="20.42984000">
        <ele>548.00000</ele>
        <time>2010-01-01T00:41:06Z</time>
      </trkpt>
      <trkpt lat="48.95338000" lon="20.42900000">
        <ele>551.00000</ele>
        <time>2010-01-01T00:41:29Z</time>
      </trkpt>
      <trkpt lat="48.95338000" lon="20.42844000">
        <ele>556.00000</ele>
        <time>2010-01-01T00:41:44Z</time>
      </trkpt>
      <trkpt lat="48.95296000" lon="20.42812000">
        <ele>548.00000</ele>
        <time>2010-01-01T00:42:02Z</time>
      </trkpt>
      <trkpt lat="48.95286000" lon="20.42768000">
        <ele>550.00000</ele>
        <time>2010-01-01T00:42:15Z</time>
      </trkpt>
      <trkpt lat="48.95294000" lon="20.42726000">
        <ele>547.00000</ele>
        <time>2010-01-01T00:42:26Z</time>
      </trkpt>
      <trkpt lat="48.95309000" lon="20.42708000">
        <ele>546.00000</ele>
        <time>2010-01-01T00:42:34Z</time>
      </trkpt>
      <trkpt lat="48.95331000" lon="20.42705000">
        <ele>545.00000</ele>
        <time>2010-01-01T00:42:43Z</time>
      </trkpt>
      <trkpt lat="48.95355000" lon="20.42697000">
        <ele>549.00000</ele>
        <time>2010-01-01T00:42:52Z</time>
      </trkpt>
      <trkpt lat="48.95372000" lon="20.42669000">
        <ele>552.00000</ele>
        <time>2010-01-01T00:43:02Z</time>
      </trkpt>
      <trkpt lat="48.95386000" lon="20.42602000">
        <ele>553.00000</ele>
        <time>2010-01-01T00:43:21Z</time>
      </trkpt>
      <trkpt lat="48.95379000" lon="20.42520000">
        <ele>546.00000</ele>
        <time>2010-01-01T00:43:43Z</time>
      </trkpt>
      <trkpt lat="48.95359000" lon="20.42402000">
        <ele>547.00000</ele>
        <time>2010-01-01T00:44:15Z</time>
      </trkpt>
      <trkpt lat="48.95345000" lon="20.42298000">
        <ele>550.00000</ele>
        <time>2010-01-01T00:44:43Z</time>
      </trkpt>
      <trkpt lat="48.95316000" lon="20.42289000">
        <ele>537.00000</ele>
        <time>2010-01-01T00:44:54Z</time>
      </trkpt>
      <trkpt lat="48.95288000" lon="20.42306000">
        <ele>536.00000</ele>
        <time>2010-01-01T00:45:06Z</time>
      </trkpt>
      <trkpt lat="48.95290000" lon="20.42313000">
        <ele>535.00000</ele>
        <time>2010-01-01T00:45:08Z</time>
      </trkpt>
      <trkpt lat="48.95295000" lon="20.42312000">
        <ele>534.00000</ele>
        <time>2010-01-01T00:45:10Z</time>
      </trkpt>
      <trkpt lat="48.95300000" lon="20.42306000">
        <ele>534.00000</ele>
        <time>2010-01-01T00:45:13Z</time>
      </trkpt>
      <trkpt lat="48.95300000" lon="20.42305000">
        <ele>534.00000</ele>
        <time>2010-01-01T00:45:13Z</time>
      </trkpt>
      <trkpt lat="48.95300000" lon="20.42306000">
        <ele>534.00000</ele>
        <time>2010-01-01T00:45:14Z</time>
      </trkpt>
      <trkpt lat="48.95295000" lon="20.42312000">
        <ele>534.00000</ele>
        <time>2010-01-01T00:45:16Z</time>
      </trkpt>
      <trkpt lat="48.95290000" lon="20.42313000">
        <ele>535.00000</ele>
        <time>2010-01-01T00:45:18Z</time>
      </trkpt>
      <trkpt lat="48.95288000" lon="20.42306000">
        <ele>536.00000</ele>
        <time>2010-01-01T00:45:20Z</time>
      </trkpt>
      <trkpt lat="48.95279000" lon="20.42311000">
        <ele>538.00000</ele>
        <time>2010-01-01T00:45:24Z</time>
      </trkpt>
      <trkpt lat="48.95272000" lon="20.42316000">
        <ele>539.00000</ele>
        <time>2010-01-01T00:45:27Z</time>
      </trkpt>
      <trkpt lat="48.95253000" lon="20.42313000">
        <ele>547.00000</ele>
        <time>2010-01-01T00:45:35Z</time>
      </trkpt>
      <trkpt lat="48.95235000" lon="20.42306000">
        <ele>554.00000</ele>
        <time>2010-01-01T00:45:42Z</time>
      </trkpt>
      <trkpt lat="48.95203000" lon="20.42286000">
        <ele>563.00000</ele>
        <time>2010-01-01T00:45:56Z</time>
      </trkpt>
      <trkpt lat="48.95201000" lon="20.42282000">
        <ele>563.00000</ele>
        <time>2010-01-01T00:45:57Z</time>
      </trkpt>
      <trkpt lat="48.95188000" lon="20.42279000">
        <ele>566.00000</ele>
        <time>2010-01-01T00:46:03Z</time>
      </trkpt>
      <trkpt lat="48.95181000" lon="20.42275000">
        <ele>567.00000</ele>
        <time>2010-01-01T00:46:06Z</time>
      </trkpt>
      <trkpt lat="48.95160000" lon="20.42247000">
        <ele>573.00000</ele>
        <time>2010-01-01T00:46:17Z</time>
      </trkpt>
      <trkpt lat="48.95152000" lon="20.42230000">
        <ele>579.00000</ele>
        <time>2010-01-01T00:46:22Z</time>
      </trkpt>
      <trkpt lat="48.95150000" lon="20.42225000">
        <ele>580.00000</ele>
        <time>2010-01-01T00:46:24Z</time>
      </trkpt>
      <trkpt lat="48.95148000" lon="20.42222000">
        <ele>581.00000</ele>
        <time>2010-01-01T00:46:25Z</time>
      </trkpt>
      <trkpt lat="48.95133000" lon="20.42215000">
        <ele>591.00000</ele>
        <time>2010-01-01T00:46:31Z</time>
      </trkpt>
      <trkpt lat="48.95125000" lon="20.42204000">
        <ele>598.00000</ele>
        <time>2010-01-01T00:46:36Z</time>
      </trkpt>
      <trkpt lat="48.95116000" lon="20.42199000">
        <ele>602.00000</ele>
        <time>2010-01-01T00:46:39Z</time>
      </trkpt>
      <trkpt lat="48.95106000" lon="20.42198000">
        <ele>606.00000</ele>
        <time>2010-01-01T00:46:43Z</time>
      </trkpt>
      <trkpt lat="48.95093000" lon="20.42198000">
        <ele>610.00000</ele>
        <time>2010-01-01T00:46:49Z</time>
      </trkpt>
      <trkpt lat="48.95074000" lon="20.42207000">
        <ele>616.00000</ele>
        <time>2010-01-01T00:46:57Z</time>
      </trkpt>
      <trkpt lat="48.95045000" lon="20.42211000">
        <ele>626.00000</ele>
        <time>2010-01-01T00:47:08Z</time>
      </trkpt>
      <trkpt lat="48.95037000" lon="20.42209000">
        <ele>629.00000</ele>
        <time>2010-01-01T00:47:11Z</time>
      </trkpt>
      <trkpt lat="48.95029000" lon="20.42210000">
        <ele>631.00000</ele>
        <time>2010-01-01T00:47:15Z</time>
      </trkpt>
      <trkpt lat="48.95014000" lon="20.42217000">
        <ele>638.00000</ele>
        <time>2010-01-01T00:47:21Z</time>
      </trkpt>
      <trkpt lat="48.94973000" lon="20.42214000">
        <ele>651.00000</ele>
        <time>2010-01-01T00:47:37Z</time>
      </trkpt>
      <trkpt lat="48.94964000" lon="20.42206000">
        <ele>654.00000</ele>
        <time>2010-01-01T00:47:42Z</time>
      </trkpt>
      <trkpt lat="48.94957000" lon="20.42205000">
        <ele>657.00000</ele>
        <time>2010-01-01T00:47:44Z</time>
      </trkpt>
      <trkpt lat="48.94945000" lon="20.42200000">
        <ele>661.00000</ele>
        <time>2010-01-01T00:47:49Z</time>
      </trkpt>
      <trkpt lat="48.94932000" lon="20.42187000">
        <ele>666.00000</ele>
        <time>2010-01-01T00:47:56Z</time>
      </trkpt>
      <trkpt lat="48.94921000" lon="20.42181000">
        <ele>671.00000</ele>
        <time>2010-01-01T00:48:00Z</time>
      </trkpt>
      <trkpt lat="48.94905000" lon="20.42179000">
        <ele>676.00000</ele>
        <time>2010-01-01T00:48:07Z</time>
      </trkpt>
      <trkpt lat="48.94875000" lon="20.42182000">
        <ele>683.00000</ele>
        <time>2010-01-01T00:48:19Z</time>
      </trkpt>
      <trkpt lat="48.94852000" lon="20.42187000">
        <ele>686.00000</ele>
        <time>2010-01-01T00:48:28Z</time>
      </trkpt>
      <trkpt lat="48.94843000" lon="20.42181000">
        <ele>687.00000</ele>
        <time>2010-01-01T00:48:32Z</time>
      </trkpt>
      <trkpt lat="48.94809000" lon="20.42191000">
        <ele>695.00000</ele>
        <time>2010-01-01T00:48:46Z</time>
      </trkpt>
      <trkpt lat="48.94797000" lon="20.42187000">
        <ele>698.00000</ele>
        <time>2010-01-01T00:48:51Z</time>
      </trkpt>
      <trkpt lat="48.94762000" lon="20.42196000">
        <ele>707.00000</ele>
        <time>2010-01-01T00:49:05Z</time>
      </trkpt>
      <trkpt lat="48.94756000" lon="20.42203000">
        <ele>709.00000</ele>
        <time>2010-01-01T00:49:08Z</time>
      </trkpt>
      <trkpt lat="48.94748000" lon="20.42201000">
        <ele>712.00000</ele>
        <time>2010-01-01T00:49:11Z</time>
      </trkpt>
      <trkpt lat="48.94743000" lon="20.42196000">
        <ele>713.00000</ele>
        <time>2010-01-01T00:49:14Z</time>
      </trkpt>
      <trkpt lat="48.94693000" lon="20.42197000">
        <ele>727.00000</ele>
        <time>2010-01-01T00:49:34Z</time>
      </trkpt>
      <trkpt lat="48.94682000" lon="20.42209000">
        <ele>729.00000</ele>
        <time>2010-01-01T00:49:39Z</time>
      </trkpt>
      <trkpt lat="48.94680000" lon="20.42225000">
        <ele>730.00000</ele>
        <time>2010-01-01T00:49:43Z</time>
      </trkpt>
      <trkpt lat="48.94665000" lon="20.42242000">
        <ele>733.00000</ele>
        <time>2010-01-01T00:49:51Z</time>
      </trkpt>
      <trkpt lat="48.94660000" lon="20.42235000">
        <ele>733.00000</ele>
        <time>2010-01-01T00:49:53Z</time>
      </trkpt>
      <trkpt lat="48.94651000" lon="20.42230000">
        <ele>735.00000</ele>
        <time>2010-01-01T00:49:57Z</time>
      </trkpt>
      <trkpt lat="48.94631000" lon="20.42228000">
        <ele>738.00000</ele>
        <time>2010-01-01T00:50:05Z</time>
      </trkpt>
      <trkpt lat="48.94607000" lon="20.42247000">
        <ele>743.00000</ele>
        <time>2010-01-01T00:50:16Z</time>
      </trkpt>
      <trkpt lat="48.94587000" lon="20.42247000">
        <ele>749.00000</ele>
        <time>2010-01-01T00:50:24Z</time>
      </trkpt>
      <trkpt lat="48.94582000" lon="20.42261000">
        <ele>750.00000</ele>
        <time>2010-01-01T00:50:28Z</time>
      </trkpt>
      <trkpt lat="48.94580000" lon="20.42276000">
        <ele>750.00000</ele>
        <time>2010-01-01T00:50:32Z</time>
      </trkpt>
      <trkpt lat="48.94572000" lon="20.42294000">
        <ele>751.00000</ele>
        <time>2010-01-01T00:50:38Z</time>
      </trkpt>
      <trkpt lat="48.94558000" lon="20.42301000">
        <ele>753.00000</ele>
        <time>2010-01-01T00:50:44Z</time>
      </trkpt>
      <trkpt lat="48.94530000" lon="20.42309000">
        <ele>756.00000</ele>
        <time>2010-01-01T00:50:55Z</time>
      </trkpt>
      <trkpt lat="48.94510000" lon="20.42320000">
        <ele>758.00000</ele>
        <time>2010-01-01T00:51:04Z</time>
      </trkpt>
      <trkpt lat="48.94493000" lon="20.42322000">
        <ele>759.00000</ele>
        <time>2010-01-01T00:51:11Z</time>
      </trkpt>
      <trkpt lat="48.94435000" lon="20.42334000">
        <ele>763.00000</ele>
        <time>2010-01-01T00:51:34Z</time>
      </trkpt>
      <trkpt lat="48.94426000" lon="20.42333000">
        <ele>764.00000</ele>
        <time>2010-01-01T00:51:38Z</time>
      </trkpt>
      <trkpt lat="48.94429000" lon="20.42338000">
        <ele>764.00000</ele>
        <time>2010-01-01T00:51:40Z</time>
      </trkpt>
      <trkpt lat="48.94429000" lon="20.42337000">
        <ele>764.00000</ele>
        <time>2010-01-01T00:51:40Z</time>
      </trkpt>
      <trkpt lat="48.94426000" lon="20.42333000">
        <ele>764.00000</ele>
        <time>2010-01-01T00:51:41Z</time>
      </trkpt>
      <trkpt lat="48.94406000" lon="20.42325000">
        <ele>764.00000</ele>
        <time>2010-01-01T00:51:50Z</time>
      </trkpt>
      <trkpt lat="48.94329000" lon="20.42277000">
        <ele>766.00000</ele>
        <time>2010-01-01T00:52:23Z</time>
      </trkpt>
      <trkpt lat="48.94292000" lon="20.42242000">
        <ele>772.00000</ele>
        <time>2010-01-01T00:52:40Z</time>
      </trkpt>
      <trkpt lat="48.94296000" lon="20.42215000">
        <ele>772.00000</ele>
        <time>2010-01-01T00:52:48Z</time>
      </trkpt>
      <trkpt lat="48.94299000" lon="20.42215000">
        <ele>771.00000</ele>
        <time>2010-01-01T00:52:49Z</time>
      </trkpt>
      <trkpt lat="48.94296000" lon="20.42215000">
        <ele>772.00000</ele>
        <time>2010-01-01T00:52:50Z</time>
      </trkpt>
      <trkpt lat="48.94292000" lon="20.42242000">
        <ele>772.00000</ele>
        <time>2010-01-01T00:52:57Z</time>
      </trkpt>
      <trkpt lat="48.94288000" lon="20.42297000">
        <ele>772.00000</ele>
        <time>2010-01-01T00:53:12Z</time>
      </trkpt>
      <trkpt lat="48.94284000" lon="20.42351000">
        <ele>772.00000</ele>
        <time>2010-01-01T00:53:26Z</time>
      </trkpt>
      <trkpt lat="48.94284000" lon="20.42369000">
        <ele>772.00000</ele>
        <time>2010-01-01T00:53:31Z</time>
      </trkpt>
      <trkpt lat="48.94289000" lon="20.42395000">
        <ele>775.00000</ele>
        <time>2010-01-01T00:53:38Z</time>
      </trkpt>
      <trkpt lat="48.94287000" lon="20.42431000">
        <ele>779.00000</ele>
        <time>2010-01-01T00:53:48Z</time>
      </trkpt>
      <trkpt lat="48.94271000" lon="20.42487000">
        <ele>781.00000</ele>
        <time>2010-01-01T00:54:04Z</time>
      </trkpt>
      <trkpt lat="48.94270000" lon="20.42516000">
        <ele>782.00000</ele>
        <time>2010-01-01T00:54:11Z</time>
      </trkpt>
      <trkpt lat="48.94274000" lon="20.42551000">
        <ele>784.00000</ele>
        <time>2010-01-01T00:54:21Z</time>
      </trkpt>
      <trkpt lat="48.94272000" lon="20.42569000">
        <ele>784.00000</ele>
        <time>2010-01-01T00:54:25Z</time>
      </trkpt>
      <trkpt lat="48.94265000" lon="20.42629000">
        <ele>784.00000</ele>
        <time>2010-01-01T00:54:41Z</time>
      </trkpt>
      <trkpt lat="48.94265000" lon="20.42655000">
        <ele>784.00000</ele>
        <time>2010-01-01T00:54:48Z</time>
      </trkpt>
      <trkpt lat="48.94269000" lon="20.42700000">
        <ele>788.00000</ele>
        <time>2010-01-01T00:55:00Z</time>
      </trkpt>
      <trkpt lat="48.94266000" lon="20.42772000">
        <ele>794.00000</ele>
        <time>2010-01-01T00:55:19Z</time>
      </trkpt>
      <trkpt lat="48.94261000" lon="20.42789000">
        <ele>795.00000</ele>
        <time>2010-01-01T00:55:24Z</time>
      </trkpt>
      <trkpt lat="48.94263000" lon="20.42808000">
        <ele>797.00000</ele>
        <time>2010-01-01T00:55:29Z</time>
      </trkpt>
      <trkpt lat="48.94264000" lon="20.42832000">
        <ele>798.00000</ele>
        <time>2010-01-01T00:55:35Z</time>
      </trkpt>
      <trkpt lat="48.94267000" lon="20.42847000">
        <ele>798.00000</ele>
        <time>2010-01-01T00:55:40Z</time>
      </trkpt>
      <trkpt lat="48.94278000" lon="20.42872000">
        <ele>800.00000</ele>
        <time>2010-01-01T00:55:48Z</time>
      </trkpt>
      <trkpt lat="48.94294000" lon="20.42895000">
        <ele>805.00000</ele>
        <time>2010-01-01T00:55:56Z</time>
      </trkpt>
      <trkpt lat="48.94310000" lon="20.42909000">
        <ele>808.00000</ele>
        <time>2010-01-01T00:56:04Z</time>
      </trkpt>
      <trkpt lat="48.94328000" lon="20.42920000">
        <ele>811.00000</ele>
        <time>2010-01-01T00:56:11Z</time>
      </trkpt>
      <trkpt lat="48.94350000" lon="20.42927000">
        <ele>815.00000</ele>
        <time>2010-01-01T00:56:20Z</time>
      </trkpt>
      <trkpt lat="48.94371000" lon="20.42930000">
        <ele>819.00000</ele>
        <time>2010-01-01T00:56:29Z</time>
      </trkpt>
      <trkpt lat="48.94389000" lon="20.42931000">
        <ele>822.00000</ele>
        <time>2010-01-01T00:56:36Z</time>
      </trkpt>
      <trkpt lat="48.94403000" lon="20.42940000">
        <ele>826.00000</ele>
        <time>2010-01-01T00:56:42Z</time>
      </trkpt>
      <trkpt lat="48.94424000" lon="20.42959000">
        <ele>831.00000</ele>
        <time>2010-01-01T00:56:52Z</time>
      </trkpt>
      <trkpt lat="48.94427000" lon="20.43000000">
        <ele>835.00000</ele>
        <time>2010-01-01T00:57:03Z</time>
      </trkpt>
      <trkpt lat="48.94452000" lon="20.43069000">
        <ele>841.00000</ele>
        <time>2010-01-01T00:57:24Z</time>
      </trkpt>
      <trkpt lat="48.94454000" lon="20.43090000">
        <ele>839.00000</ele>
        <time>2010-01-01T00:57:29Z</time>
      </trkpt>
      <trkpt lat="48.94452000" lon="20.43115000">
        <ele>835.00000</ele>
        <time>2010-01-01T00:57:36Z</time>
      </trkpt>
      <trkpt lat="48.94458000" lon="20.43139000">
        <ele>832.00000</ele>
        <time>2010-01-01T00:57:42Z</time>
      </trkpt>
      <trkpt lat="48.94466000" lon="20.43183000">
        <ele>831.00000</ele>
        <time>2010-01-01T00:57:54Z</time>
      </trkpt>
      <trkpt lat="48.94466000" lon="20.43205000">
        <ele>829.00000</ele>
        <time>2010-01-01T00:58:00Z</time>
      </trkpt>
      <trkpt lat="48.94467000" lon="20.43216000">
        <ele>828.00000</ele>
        <time>2010-01-01T00:58:03Z</time>
      </trkpt>
      <trkpt lat="48.94492000" lon="20.43319000">
        <ele>812.00000</ele>
        <time>2010-01-01T00:58:32Z</time>
      </trkpt>
      <trkpt lat="48.94498000" lon="20.43336000">
        <ele>810.00000</ele>
        <time>2010-01-01T00:58:37Z</time>
      </trkpt>
      <trkpt lat="48.94504000" lon="20.43361000">
        <ele>811.00000</ele>
        <time>2010-01-01T00:58:44Z</time>
      </trkpt>
      <trkpt lat="48.94509000" lon="20.43374000">
        <ele>811.00000</ele>
        <time>2010-01-01T00:58:48Z</time>
      </trkpt>
      <trkpt lat="48.94510000" lon="20.43396000">
        <ele>810.00000</ele>
        <time>2010-01-01T00:58:54Z</time>
      </trkpt>
      <trkpt lat="48.94514000" lon="20.43410000">
        <ele>809.00000</ele>
        <time>2010-01-01T00:58:58Z</time>
      </trkpt>
      <trkpt lat="48.94515000" lon="20.43461000">
        <ele>806.00000</ele>
        <time>2010-01-01T00:59:11Z</time>
      </trkpt>
      <trkpt lat="48.94515000" lon="20.43463000">
        <ele>806.00000</ele>
        <time>2010-01-01T00:59:12Z</time>
      </trkpt>
      <trkpt lat="48.94515000" lon="20.43462000">
        <ele>806.00000</ele>
        <time>2010-01-01T00:59:12Z</time>
      </trkpt>
      <trkpt lat="48.94518000" lon="20.43504000">
        <ele>805.00000</ele>
        <time>2010-01-01T00:59:23Z</time>
      </trkpt>
      <trkpt lat="48.94524000" lon="20.43558000">
        <ele>805.00000</ele>
        <time>2010-01-01T00:59:38Z</time>
      </trkpt>
      <trkpt lat="48.94524000" lon="20.43575000">
        <ele>805.00000</ele>
        <time>2010-01-01T00:59:42Z</time>
      </trkpt>
      <trkpt lat="48.94526000" lon="20.43587000">
        <ele>806.00000</ele>
        <time>2010-01-01T00:59:45Z</time>
      </trkpt>
      <trkpt lat="48.94533000" lon="20.43597000">
        <ele>808.00000</ele>
        <time>2010-01-01T00:59:49Z</time>
      </trkpt>
      <trkpt lat="48.94537000" lon="20.43606000">
        <ele>809.00000</ele>
        <time>2010-01-01T00:59:52Z</time>
      </trkpt>
      <trkpt lat="48.94540000" lon="20.43619000">
        <ele>810.00000</ele>
        <time>2010-01-01T00:59:56Z</time>
      </trkpt>
      <trkpt lat="48.94545000" lon="20.43670000">
        <ele>814.00000</ele>
        <time>2010-01-01T01:00:09Z</time>
      </trkpt>
      <trkpt lat="48.94542000" lon="20.43692000">
        <ele>816.00000</ele>
        <time>2010-01-01T01:00:15Z</time>
      </trkpt>
      <trkpt lat="48.94539000" lon="20.43704000">
        <ele>816.00000</ele>
        <time>2010-01-01T01:00:19Z</time>
      </trkpt>
      <trkpt lat="48.94541000" lon="20.43748000">
        <ele>820.00000</ele>
        <time>2010-01-01T01:00:30Z</time>
      </trkpt>
      <trkpt lat="48.94547000" lon="20.43779000">
        <ele>822.00000</ele>
        <time>2010-01-01T01:00:39Z</time>
      </trkpt>
      <trkpt lat="48.94560000" lon="20.43810000">
        <ele>823.00000</ele>
        <time>2010-01-01T01:00:48Z</time>
      </trkpt>
      <trkpt lat="48.94562000" lon="20.43828000">
        <ele>822.00000</ele>
        <time>2010-01-01T01:00:53Z</time>
      </trkpt>
      <trkpt lat="48.94565000" lon="20.43837000">
        <ele>821.00000</ele>
        <time>2010-01-01T01:00:56Z</time>
      </trkpt>
      <trkpt lat="48.94566000" lon="20.43847000">
        <ele>818.00000</ele>
        <time>2010-01-01T01:00:58Z</time>
      </trkpt>
      <trkpt lat="48.94566000" lon="20.43860000">
        <ele>815.00000</ele>
        <time>2010-01-01T01:01:02Z</time>
      </trkpt>
      <trkpt lat="48.94564000" lon="20.43875000">
        <ele>814.00000</ele>
        <time>2010-01-01T01:01:06Z</time>
      </trkpt>
      <trkpt lat="48.94562000" lon="20.43881000">
        <ele>814.00000</ele>
        <time>2010-01-01T01:01:08Z</time>
      </trkpt>
      <trkpt lat="48.94563000" lon="20.43894000">
        <ele>812.00000</ele>
        <time>2010-01-01T01:01:11Z</time>
      </trkpt>
      <trkpt lat="48.94556000" lon="20.43943000">
        <ele>807.00000</ele>
        <time>2010-01-01T01:01:24Z</time>
      </trkpt>
      <trkpt lat="48.94552000" lon="20.43954000">
        <ele>805.00000</ele>
        <time>2010-01-01T01:01:28Z</time>
      </trkpt>
      <trkpt lat="48.94544000" lon="20.43966000">
        <ele>801.00000</ele>
        <time>2010-01-01T01:01:32Z</time>
      </trkpt>
      <trkpt lat="48.94540000" lon="20.43975000">
        <ele>799.00000</ele>
        <time>2010-01-01T01:01:35Z</time>
      </trkpt>
      <trkpt lat="48.94536000" lon="20.44000000">
        <ele>798.00000</ele>
        <time>2010-01-01T01:01:42Z</time>
      </trkpt>
      <trkpt lat="48.94534000" lon="20.44011000">
        <ele>798.00000</ele>
        <time>2010-01-01T01:01:45Z</time>
      </trkpt>
      <trkpt lat="48.94534000" lon="20.44020000">
        <ele>798.00000</ele>
        <time>2010-01-01T01:01:47Z</time>
      </trkpt>
      <trkpt lat="48.94528000" lon="20.44034000">
        <ele>797.00000</ele>
        <time>2010-01-01T01:01:51Z</time>
      </trkpt>
      <trkpt lat="48.94518000" lon="20.44049000">
        <ele>791.00000</ele>
        <time>2010-01-01T01:01:57Z</time>
      </trkpt>
      <trkpt lat="48.94523000" lon="20.44061000">
        <ele>794.00000</ele>
        <time>2010-01-01T01:02:01Z</time>
      </trkpt>
      <trkpt lat="48.94524000" lon="20.44076000">
        <ele>796.00000</ele>
        <time>2010-01-01T01:02:05Z</time>
      </trkpt>
      <trkpt lat="48.94533000" lon="20.44109000">
        <ele>802.00000</ele>
        <time>2010-01-01T01:02:14Z</time>
      </trkpt>
      <trkpt lat="48.94549000" lon="20.44157000">
        <ele>806.00000</ele>
        <time>2010-01-01T01:02:28Z</time>
      </trkpt>
      <trkpt lat="48.94555000" lon="20.44170000">
        <ele>807.00000</ele>
        <time>2010-01-01T01:02:32Z</time>
      </trkpt>
      <trkpt lat="48.94556000" lon="20.44180000">
        <ele>806.00000</ele>
        <time>2010-01-01T01:02:35Z</time>
      </trkpt>
      <trkpt lat="48.94561000" lon="20.44191000">
        <ele>805.00000</ele>
        <time>2010-01-01T01:02:39Z</time>
      </trkpt>
      <trkpt lat="48.94563000" lon="20.44200000">
        <ele>804.00000</ele>
        <time>2010-01-01T01:02:41Z</time>
      </trkpt>
      <trkpt lat="48.94562000" lon="20.44209000">
        <ele>803.00000</ele>
        <time>2010-01-01T01:02:44Z</time>
      </trkpt>
      <trkpt lat="48.94552000" lon="20.44235000">
        <ele>799.00000</ele>
        <time>2010-01-01T01:02:51Z</time>
      </trkpt>
      <trkpt lat="48.94551000" lon="20.44243000">
        <ele>797.00000</ele>
        <time>2010-01-01T01:02:54Z</time>
      </trkpt>
      <trkpt lat="48.94553000" lon="20.44252000">
        <ele>797.00000</ele>
        <time>2010-01-01T01:02:56Z</time>
      </trkpt>
      <trkpt lat="48.94553000" lon="20.44258000">
        <ele>796.00000</ele>
        <time>2010-01-01T01:02:58Z</time>
      </trkpt>
      <trkpt lat="48.94552000" lon="20.44266000">
        <ele>795.00000</ele>
        <time>2010-01-01T01:03:00Z</time>
      </trkpt>
      <trkpt lat="48.94547000" lon="20.44274000">
        <ele>792.00000</ele>
        <time>2010-01-01T01:03:03Z</time>
      </trkpt>
      <trkpt lat="48.94546000" lon="20.44295000">
        <ele>790.00000</ele>
        <time>2010-01-01T01:03:08Z</time>
      </trkpt>
      <trkpt lat="48.94524000" lon="20.44336000">
        <ele>782.00000</ele>
        <time>2010-01-01T01:03:22Z</time>
      </trkpt>
      <trkpt lat="48.94512000" lon="20.44367000">
        <ele>780.00000</ele>
        <time>2010-01-01T01:03:32Z</time>
      </trkpt>
      <trkpt lat="48.94506000" lon="20.44391000">
        <ele>780.00000</ele>
        <time>2010-01-01T01:03:38Z</time>
      </trkpt>
      <trkpt lat="48.94494000" lon="20.44415000">
        <ele>779.00000</ele>
        <time>2010-01-01T01:03:46Z</time>
      </trkpt>
      <trkpt lat="48.94480000" lon="20.44477000">
        <ele>781.00000</ele>
        <time>2010-01-01T01:04:04Z</time>
      </trkpt>
      <trkpt lat="48.94479000" lon="20.44495000">
        <ele>784.00000</ele>
        <time>2010-01-01T01:04:08Z</time>
      </trkpt>
      <trkpt lat="48.94477000" lon="20.44507000">
        <ele>785.00000</ele>
        <time>2010-01-01T01:04:12Z</time>
      </trkpt>
      <trkpt lat="48.94473000" lon="20.44515000">
        <ele>786.00000</ele>
        <time>2010-01-01T01:04:14Z</time>
      </trkpt>
      <trkpt lat="48.94449000" lon="20.44603000">
        <ele>792.00000</ele>
        <time>2010-01-01T01:04:39Z</time>
      </trkpt>
      <trkpt lat="48.94448000" lon="20.44616000">
        <ele>792.00000</ele>
        <time>2010-01-01T01:04:43Z</time>
      </trkpt>
      <trkpt lat="48.94444000" lon="20.44635000">
        <ele>791.00000</ele>
        <time>2010-01-01T01:04:48Z</time>
      </trkpt>
      <trkpt lat="48.94446000" lon="20.44647000">
        <ele>789.00000</ele>
        <time>2010-01-01T01:04:51Z</time>
      </trkpt>
      <trkpt lat="48.94444000" lon="20.44672000">
        <ele>784.00000</ele>
        <time>2010-01-01T01:04:58Z</time>
      </trkpt>
      <trkpt lat="48.94441000" lon="20.44691000">
        <ele>777.00000</ele>
        <time>2010-01-01T01:05:03Z</time>
      </trkpt>
      <trkpt lat="48.94434000" lon="20.44702000">
        <ele>771.00000</ele>
        <time>2010-01-01T01:05:07Z</time>
      </trkpt>
      <trkpt lat="48.94437000" lon="20.44720000">
        <ele>768.00000</ele>
        <time>2010-01-01T01:05:12Z</time>
      </trkpt>
      <trkpt lat="48.94441000" lon="20.44727000">
        <ele>769.00000</ele>
        <time>2010-01-01T01:05:14Z</time>
      </trkpt>
      <trkpt lat="48.94441000" lon="20.44735000">
        <ele>766.00000</ele>
        <time>2010-01-01T01:05:16Z</time>
      </trkpt>
      <trkpt lat="48.94447000" lon="20.44752000">
        <ele>764.00000</ele>
        <time>2010-01-01T01:05:21Z</time>
      </trkpt>
      <trkpt lat="48.94446000" lon="20.44765000">
        <ele>763.00000</ele>
        <time>2010-01-01T01:05:25Z</time>
      </trkpt>
      <trkpt lat="48.94450000" lon="20.44777000">
        <ele>763.00000</ele>
        <time>2010-01-01T01:05:28Z</time>
      </trkpt>
      <trkpt lat="48.94454000" lon="20.44783000">
        <ele>762.00000</ele>
        <time>2010-01-01T01:05:31Z</time>
      </trkpt>
      <trkpt lat="48.94457000" lon="20.44801000">
        <ele>761.00000</ele>
        <time>2010-01-01T01:05:36Z</time>
      </trkpt>
      <trkpt lat="48.94461000" lon="20.44810000">
        <ele>760.00000</ele>
        <time>2010-01-01T01:05:38Z</time>
      </trkpt>
      <trkpt lat="48.94463000" lon="20.44838000">
        <ele>754.00000</ele>
        <time>2010-01-01T01:05:46Z</time>
      </trkpt>
      <trkpt lat="48.94471000" lon="20.44864000">
        <ele>749.00000</ele>
        <time>2010-01-01T01:05:53Z</time>
      </trkpt>
      <trkpt lat="48.94471000" lon="20.44878000">
        <ele>746.00000</ele>
        <time>2010-01-01T01:05:57Z</time>
      </trkpt>
      <trkpt lat="48.94473000" lon="20.44896000">
        <ele>742.00000</ele>
        <time>2010-01-01T01:06:02Z</time>
      </trkpt>
      <trkpt lat="48.94468000" lon="20.44922000">
        <ele>737.00000</ele>
        <time>2010-01-01T01:06:09Z</time>
      </trkpt>
      <trkpt lat="48.94467000" lon="20.44936000">
        <ele>733.00000</ele>
        <time>2010-01-01T01:06:13Z</time>
      </trkpt>
      <trkpt lat="48.94469000" lon="20.44960000">
        <ele>730.00000</ele>
        <time>2010-01-01T01:06:19Z</time>
      </trkpt>
      <trkpt lat="48.94476000" lon="20.44968000">
        <ele>730.00000</ele>
        <time>2010-01-01T01:06:23Z</time>
      </trkpt>
      <trkpt lat="48.94486000" lon="20.44976000">
        <ele>729.00000</ele>
        <time>2010-01-01T01:06:27Z</time>
      </trkpt>
      <trkpt lat="48.94489000" lon="20.44982000">
        <ele>728.00000</ele>
        <time>2010-01-01T01:06:29Z</time>
      </trkpt>
      <trkpt lat="48.94492000" lon="20.45002000">
        <ele>725.00000</ele>
        <time>2010-01-01T01:06:34Z</time>
      </trkpt>
      <trkpt lat="48.94496000" lon="20.45015000">
        <ele>723.00000</ele>
        <time>2010-01-01T01:06:38Z</time>
      </trkpt>
      <trkpt lat="48.94513000" lon="20.45053000">
        <ele>716.00000</ele>
        <time>2010-01-01T01:06:50Z</time>
      </trkpt>
      <trkpt lat="48.94517000" lon="20.45068000">
        <ele>714.00000</ele>
        <time>2010-01-01T01:06:55Z</time>
      </trkpt>
      <trkpt lat="48.94517000" lon="20.45080000">
        <ele>711.00000</ele>
        <time>2010-01-01T01:06:58Z</time>
      </trkpt>
      <trkpt lat="48.94523000" lon="20.45102000">
        <ele>707.00000</ele>
        <time>2010-01-01T01:07:04Z</time>
      </trkpt>
      <trkpt lat="48.94524000" lon="20.45114000">
        <ele>704.00000</ele>
        <time>2010-01-01T01:07:07Z</time>
      </trkpt>
      <trkpt lat="48.94538000" lon="20.45161000">
        <ele>694.00000</ele>
        <time>2010-01-01T01:07:21Z</time>
      </trkpt>
      <trkpt lat="48.94538000" lon="20.45167000">
        <ele>693.00000</ele>
        <time>2010-01-01T01:07:22Z</time>
      </trkpt>
      <trkpt lat="48.94536000" lon="20.45170000">
        <ele>692.00000</ele>
        <time>2010-01-01T01:07:23Z</time>
      </trkpt>
      <trkpt lat="48.94535000" lon="20.45179000">
        <ele>690.00000</ele>
        <time>2010-01-01T01:07:26Z</time>
      </trkpt>
      <trkpt lat="48.94534000" lon="20.45196000">
        <ele>687.00000</ele>
        <time>2010-01-01T01:07:30Z</time>
      </trkpt>
      <trkpt lat="48.94535000" lon="20.45202000">
        <ele>686.00000</ele>
        <time>2010-01-01T01:07:32Z</time>
      </trkpt>
      <trkpt lat="48.94534000" lon="20.45214000">
        <ele>683.00000</ele>
        <time>2010-01-01T01:07:35Z</time>
      </trkpt>
      <trkpt lat="48.94530000" lon="20.45236000">
        <ele>676.00000</ele>
        <time>2010-01-01T01:07:41Z</time>
      </trkpt>
      <trkpt lat="48.94523000" lon="20.45259000">
        <ele>665.00000</ele>
        <time>2010-01-01T01:07:48Z</time>
      </trkpt>
      <trkpt lat="48.94525000" lon="20.45267000">
        <ele>663.00000</ele>
        <time>2010-01-01T01:07:50Z</time>
      </trkpt>
      <trkpt lat="48.94522000" lon="20.45272000">
        <ele>660.00000</ele>
        <time>2010-01-01T01:07:52Z</time>
      </trkpt>
      <trkpt lat="48.94526000" lon="20.45297000">
        <ele>651.00000</ele>
        <time>2010-01-01T01:07:59Z</time>
      </trkpt>
      <trkpt lat="48.94523000" lon="20.45301000">
        <ele>648.00000</ele>
        <time>2010-01-01T01:08:00Z</time>
      </trkpt>
      <trkpt lat="48.94516000" lon="20.45301000">
        <ele>645.00000</ele>
        <time>2010-01-01T01:08:03Z</time>
      </trkpt>
      <trkpt lat="48.94519000" lon="20.45323000">
        <ele>638.00000</ele>
        <time>2010-01-01T01:08:09Z</time>
      </trkpt>
      <trkpt lat="48.94518000" lon="20.45330000">
        <ele>635.00000</ele>
        <time>2010-01-01T01:08:11Z</time>
      </trkpt>
      <trkpt lat="48.94512000" lon="20.45359000">
        <ele>624.00000</ele>
        <time>2010-01-01T01:08:19Z</time>
      </trkpt>
      <trkpt lat="48.94509000" lon="20.45368000">
        <ele>621.00000</ele>
        <time>2010-01-01T01:08:21Z</time>
      </trkpt>
      <trkpt lat="48.94509000" lon="20.45372000">
        <ele>620.00000</ele>
        <time>2010-01-01T01:08:22Z</time>
      </trkpt>
      <trkpt lat="48.94507000" lon="20.45382000">
        <ele>618.00000</ele>
        <time>2010-01-01T01:08:25Z</time>
      </trkpt>
      <trkpt lat="48.94502000" lon="20.45381000">
        <ele>617.00000</ele>
        <time>2010-01-01T01:08:27Z</time>
      </trkpt>
      <trkpt lat="48.94503000" lon="20.45395000">
        <ele>615.00000</ele>
        <time>2010-01-01T01:08:31Z</time>
      </trkpt>
      <trkpt lat="48.94497000" lon="20.45387000">
        <ele>614.00000</ele>
        <time>2010-01-01T01:08:34Z</time>
      </trkpt>
      <trkpt lat="48.94494000" lon="20.45395000">
        <ele>611.00000</ele>
        <time>2010-01-01T01:08:37Z</time>
      </trkpt>
      <trkpt lat="48.94495000" lon="20.45411000">
        <ele>609.00000</ele>
        <time>2010-01-01T01:08:41Z</time>
      </trkpt>
      <trkpt lat="48.94490000" lon="20.45431000">
        <ele>603.00000</ele>
        <time>2010-01-01T01:08:46Z</time>
      </trkpt>
      <trkpt lat="48.94481000" lon="20.45425000">
        <ele>600.00000</ele>
        <time>2010-01-01T01:08:50Z</time>
      </trkpt>
      <trkpt lat="48.94473000" lon="20.45411000">
        <ele>599.00000</ele>
        <time>2010-01-01T01:08:55Z</time>
      </trkpt>
      <trkpt lat="48.94466000" lon="20.45405000">
        <ele>596.00000</ele>
        <time>2010-01-01T01:08:58Z</time>
      </trkpt>
      <trkpt lat="48.94464000" lon="20.45406000">
        <ele>594.00000</ele>
        <time>2010-01-01T01:08:59Z</time>
      </trkpt>
      <trkpt lat="48.94465000" lon="20.45414000">
        <ele>594.00000</ele>
        <time>2010-01-01T01:09:01Z</time>
      </trkpt>
      <trkpt lat="48.94465000" lon="20.45434000">
        <ele>591.00000</ele>
        <time>2010-01-01T01:09:07Z</time>
      </trkpt>
      <trkpt lat="48.94459000" lon="20.45444000">
        <ele>586.00000</ele>
        <time>2010-01-01T01:09:10Z</time>
      </trkpt>
      <trkpt lat="48.94452000" lon="20.45499000">
        <ele>567.00000</ele>
        <time>2010-01-01T01:09:25Z</time>
      </trkpt>
      <trkpt lat="48.94456000" lon="20.45515000">
        <ele>565.00000</ele>
        <time>2010-01-01T01:09:29Z</time>
      </trkpt>
      <trkpt lat="48.94454000" lon="20.45564000">
        <ele>554.00000</ele>
        <time>2010-01-01T01:09:42Z</time>
      </trkpt>
      <trkpt lat="48.94462000" lon="20.45587000">
        <ele>550.00000</ele>
        <time>2010-01-01T01:09:49Z</time>
      </trkpt>
      <trkpt lat="48.94460000" lon="20.45594000">
        <ele>547.00000</ele>
        <time>2010-01-01T01:09:51Z</time>
      </trkpt>
      <trkpt lat="48.94462000" lon="20.45602000">
        <ele>545.00000</ele>
        <time>2010-01-01T01:09:53Z</time>
      </trkpt>
      <trkpt lat="48.94458000" lon="20.45609000">
        <ele>542.00000</ele>
        <time>2010-01-01T01:09:56Z</time>
      </trkpt>
      <trkpt lat="48.94445000" lon="20.45615000">
        <ele>536.00000</ele>
        <time>2010-01-01T01:10:01Z</time>
      </trkpt>
      <trkpt lat="48.94445000" lon="20.45626000">
        <ele>533.00000</ele>
        <time>2010-01-01T01:10:04Z</time>
      </trkpt>
      <trkpt lat="48.94451000" lon="20.45641000">
        <ele>531.00000</ele>
        <time>2010-01-01T01:10:09Z</time>
      </trkpt>
      <trkpt lat="48.94448000" lon="20.45650000">
        <ele>529.00000</ele>
        <time>2010-01-01T01:10:12Z</time>
      </trkpt>
      <trkpt lat="48.94454000" lon="20.45658000">
        <ele>528.00000</ele>
        <time>2010-01-01T01:10:15Z</time>
      </trkpt>
      <trkpt lat="48.94450000" lon="20.45662000">
        <ele>527.00000</ele>
        <time>2010-01-01T01:10:17Z</time>
      </trkpt>
      <trkpt lat="48.94429000" lon="20.45656000">
        <ele>526.00000</ele>
        <time>2010-01-01T01:10:25Z</time>
      </trkpt>
      <trkpt lat="48.94420000" lon="20.45628000">
        <ele>529.00000</ele>
        <time>2010-01-01T01:10:33Z</time>
      </trkpt>
      <trkpt lat="48.94414000" lon="20.45618000">
        <ele>529.00000</ele>
        <time>2010-01-01T01:10:37Z</time>
      </trkpt>
      <trkpt lat="48.94413000" lon="20.45616000">
        <ele>529.00000</ele>
        <time>2010-01-01T01:10:38Z</time>
      </trkpt>
      <trkpt lat="48.94407000" lon="20.45602000">
        <ele>530.00000</ele>
        <time>2010-01-01T01:10:42Z</time>
      </trkpt>
      <trkpt lat="48.94394000" lon="20.45584000">
        <ele>530.00000</ele>
        <time>2010-01-01T01:10:49Z</time>
      </trkpt>
      <trkpt lat="48.94384000" lon="20.45556000">
        <ele>532.00000</ele>
        <time>2010-01-01T01:10:57Z</time>
      </trkpt>
      <trkpt lat="48.94379000" lon="20.45550000">
        <ele>533.00000</ele>
        <time>2010-01-01T01:11:00Z</time>
      </trkpt>
      <trkpt lat="48.94367000" lon="20.45554000">
        <ele>533.00000</ele>
        <time>2010-01-01T01:11:05Z</time>
      </trkpt>
      <trkpt lat="48.94366000" lon="20.45554000">
        <ele>533.00000</ele>
        <time>2010-01-01T01:11:05Z</time>
      </trkpt>
      <trkpt lat="48.94384000" lon="20.45601000">
        <ele>528.00000</ele>
        <time>2010-01-01T01:11:20Z</time>
      </trkpt>
      <trkpt lat="48.94392000" lon="20.45643000">
        <ele>525.00000</ele>
        <time>2010-01-01T01:11:31Z</time>
      </trkpt>
      <trkpt lat="48.94391000" lon="20.45717000">
        <ele>515.00000</ele>
        <time>2010-01-01T01:11:51Z</time>
      </trkpt>
      <trkpt lat="48.94349000" lon="20.45779000">
        <ele>517.00000</ele>
        <time>2010-01-01T01:12:14Z</time>
      </trkpt>
      <trkpt lat="48.94271000" lon="20.45854000">
        <ele>516.00000</ele>
        <time>2010-01-01T01:12:51Z</time>
      </trkpt>
      <trkpt lat="48.94238000" lon="20.45882000">
        <ele>517.00000</ele>
        <time>2010-01-01T01:13:06Z</time>
      </trkpt>
      <trkpt lat="48.94215000" lon="20.45903000">
        <ele>517.00000</ele>
        <time>2010-01-01T01:13:17Z</time>
      </trkpt>
      <trkpt lat="48.94155000" lon="20.45962000">
        <ele>520.00000</ele>
        <time>2010-01-01T01:13:45Z</time>
      </trkpt>
      <trkpt lat="48.94046000" lon="20.46058000">
        <ele>531.00000</ele>
        <time>2010-01-01T01:14:36Z</time>
      </trkpt>
      <trkpt lat="48.94005000" lon="20.46113000">
        <ele>538.00000</ele>
        <time>2010-01-01T01:14:58Z</time>
      </trkpt>
      <trkpt lat="48.93999000" lon="20.46141000">
        <ele>536.00000</ele>
        <time>2010-01-01T01:15:05Z</time>
      </trkpt>
      <trkpt lat="48.93998000" lon="20.46185000">
        <ele>534.00000</ele>
        <time>2010-01-01T01:15:17Z</time>
      </trkpt>
      <trkpt lat="48.94067000" lon="20.46389000">
        <ele>522.00000</ele>
        <time>2010-01-01T01:16:17Z</time>
      </trkpt>
      <trkpt lat="48.94085000" lon="20.46458000">
        <ele>525.00000</ele>
        <time>2010-01-01T01:16:37Z</time>
      </trkpt>
      <trkpt lat="48.94085000" lon="20.46551000">
        <ele>522.00000</ele>
        <time>2010-01-01T01:17:01Z</time>
      </trkpt>
      <trkpt lat="48.94060000" lon="20.46634000">
        <ele>510.00000</ele>
        <time>2010-01-01T01:17:25Z</time>
      </trkpt>
      <trkpt lat="48.94010000" lon="20.46691000">
        <ele>512.00000</ele>
        <time>2010-01-01T01:17:50Z</time>
      </trkpt>
      <trkpt lat="48.93956000" lon="20.46764000">
        <ele>524.00000</ele>
        <time>2010-01-01T01:18:19Z</time>
      </trkpt>
      <trkpt lat="48.93945000" lon="20.46830000">
        <ele>526.00000</ele>
        <time>2010-01-01T01:18:37Z</time>
      </trkpt>
      <trkpt lat="48.93973000" lon="20.47162000">
        <ele>506.00000</ele>
        <time>2010-01-01T01:20:05Z</time>
      </trkpt>
      <trkpt lat="48.93973000" lon="20.47161000">
        <ele>507.00000</ele>
        <time>2010-01-01T01:20:05Z</time>
      </trkpt>
      <trkpt lat="48.93976000" lon="20.47205000">
        <ele>506.00000</ele>
        <time>2010-01-01T01:20:17Z</time>
      </trkpt>
      <trkpt lat="48.93989000" lon="20.47261000">
        <ele>506.00000</ele>
        <time>2010-01-01T01:20:33Z</time>
      </trkpt>
      <trkpt lat="48.94017000" lon="20.47340000">
        <ele>504.00000</ele>
        <time>2010-01-01T01:20:56Z</time>
      </trkpt>
      <trkpt lat="48.94034000" lon="20.47432000">
        <ele>511.00000</ele>
        <time>2010-01-01T01:21:21Z</time>
      </trkpt>
      <trkpt lat="48.94040000" lon="20.47485000">
        <ele>512.00000</ele>
        <time>2010-01-01T01:21:35Z</time>
      </trkpt>
      <trkpt lat="48.94035000" lon="20.47514000">
        <ele>512.00000</ele>
        <time>2010-01-01T01:21:43Z</time>
      </trkpt>
      <trkpt lat="48.93998000" lon="20.47592000">
        <ele>520.00000</ele>
        <time>2010-01-01T01:22:09Z</time>
      </trkpt>
      <trkpt lat="48.93996000" lon="20.47674000">
        <ele>528.00000</ele>
        <time>2010-01-01T01:22:30Z</time>
      </trkpt>
      <trkpt lat="48.94011000" lon="20.47737000">
        <ele>524.00000</ele>
        <time>2010-01-01T01:22:48Z</time>
      </trkpt>
      <trkpt lat="48.94017000" lon="20.47742000">
        <ele>520.00000</ele>
        <time>2010-01-01T01:22:51Z</time>
      </trkpt>
      <trkpt lat="48.94025000" lon="20.47745000">
        <ele>514.00000</ele>
        <time>2010-01-01T01:22:54Z</time>
      </trkpt>
      <trkpt lat="48.94038000" lon="20.47739000">
        <ele>512.00000</ele>
        <time>2010-01-01T01:22:59Z</time>
      </trkpt>
      <trkpt lat="48.94050000" lon="20.47760000">
        <ele>511.00000</ele>
        <time>2010-01-01T01:23:07Z</time>
      </trkpt>
      <trkpt lat="48.94056000" lon="20.47773000">
        <ele>511.00000</ele>
        <time>2010-01-01T01:23:11Z</time>
      </trkpt>
      <trkpt lat="48.94059000" lon="20.47787000">
        <ele>511.00000</ele>
        <time>2010-01-01T01:23:15Z</time>
      </trkpt>
      <trkpt lat="48.94064000" lon="20.47793000">
        <ele>512.00000</ele>
        <time>2010-01-01T01:23:17Z</time>
      </trkpt>
      <trkpt lat="48.94084000" lon="20.47850000">
        <ele>508.00000</ele>
        <time>2010-01-01T01:23:34Z</time>
      </trkpt>
      <trkpt lat="48.94111000" lon="20.47885000">
        <ele>508.00000</ele>
        <time>2010-01-01T01:23:48Z</time>
      </trkpt>
      <trkpt lat="48.94134000" lon="20.47917000">
        <ele>511.00000</ele>
        <time>2010-01-01T01:24:01Z</time>
      </trkpt>
      <trkpt lat="48.94166000" lon="20.48060000">
        <ele>513.00000</ele>
        <time>2010-01-01T01:24:41Z</time>
      </trkpt>
      <trkpt lat="48.94175000" lon="20.48146000">
        <ele>505.00000</ele>
        <time>2010-01-01T01:25:04Z</time>
      </trkpt>
      <trkpt lat="48.94174000" lon="20.48191000">
        <ele>504.00000</ele>
        <time>2010-01-01T01:25:15Z</time>
      </trkpt>
      <trkpt lat="48.94179000" lon="20.48208000">
        <ele>504.00000</ele>
        <time>2010-01-01T01:25:20Z</time>
      </trkpt>
      <trkpt lat="48.94189000" lon="20.48249000">
        <ele>504.00000</ele>
        <time>2010-01-01T01:25:32Z</time>
      </trkpt>
      <trkpt lat="48.94193000" lon="20.48264000">
        <ele>503.00000</ele>
        <time>2010-01-01T01:25:36Z</time>
      </trkpt>
      <trkpt lat="48.94202000" lon="20.48292000">
        <ele>502.00000</ele>
        <time>2010-01-01T01:25:44Z</time>
      </trkpt>
      <trkpt lat="48.94216000" lon="20.48315000">
        <ele>504.00000</ele>
        <time>2010-01-01T01:25:52Z</time>
      </trkpt>
      <trkpt lat="48.94249000" lon="20.48340000">
        <ele>511.00000</ele>
        <time>2010-01-01T01:26:07Z</time>
      </trkpt>
      <trkpt lat="48.94271000" lon="20.48358000">
        <ele>512.00000</ele>
        <time>2010-01-01T01:26:17Z</time>
      </trkpt>
      <trkpt lat="48.94318000" lon="20.48416000">
        <ele>515.00000</ele>
        <time>2010-01-01T01:26:41Z</time>
      </trkpt>
      <trkpt lat="48.94376000" lon="20.48477000">
        <ele>521.00000</ele>
        <time>2010-01-01T01:27:10Z</time>
      </trkpt>
      <trkpt lat="48.94420000" lon="20.48512000">
        <ele>522.00000</ele>
        <time>2010-01-01T01:27:30Z</time>
      </trkpt>
      <trkpt lat="48.94457000" lon="20.48537000">
        <ele>520.00000</ele>
        <time>2010-01-01T01:27:46Z</time>
      </trkpt>
      <trkpt lat="48.94474000" lon="20.48527000">
        <ele>522.00000</ele>
        <time>2010-01-01T01:27:53Z</time>
      </trkpt>
    </trkseg>
  </trk>
</gpx>

