<?xml version="1.0" encoding="UTF-8"?>
<gpx xmlns="http://www.topografix.com/GPX/1/1" creator="turistautak.openstreetmap.hu" version="1.1" xmlns:xsi="http://www.w3.org/2001/XMLSchema-instance" xsi:schemaLocation="http://www.garmin.com/xmlschemas/GpxExtensions/v3 http://www.garmin.com/xmlschemas/GpxExtensions/v3/GpxExtensionsv3.xsd http://www.topografix.com/GPX/1/1 http://www.topografix.com/GPX/1/1/gpx.xsd">
	<metadata>
		<name>1514544447uahm útvonal</name>
		<desc>1514544447uahm útvonal</desc>
	</metadata>
<trk>
  <name>utv</name>
<trkseg><trkpt lat="47.688948" lon="18.985411">
        <ele>454.5</ele>
      </trkpt>
<trkpt lat="47.689136" lon="18.985391">
        <ele>454.8</ele>
      </trkpt>
<trkpt lat="47.689230" lon="18.985351">
        <ele>451.8</ele>
      </trkpt>
<trkpt lat="47.689560" lon="18.985452">
        <ele>448.8</ele>
      </trkpt>
<trkpt lat="47.689727" lon="18.985309">
        <ele>445.8</ele>
      </trkpt>
<trkpt lat="47.689797" lon="18.985497">
        <ele>446.4</ele>
      </trkpt>
<trkpt lat="47.689773" lon="18.985603">
        <ele>444</ele>
      </trkpt>
<trkpt lat="47.689851" lon="18.985685">
        <ele>443.4</ele>
      </trkpt>
<trkpt lat="47.689764" lon="18.985916">
        <ele>440</ele>
      </trkpt>
<trkpt lat="47.689729" lon="18.986046">
        <ele>436.6</ele>
      </trkpt>
<trkpt lat="47.689449" lon="18.986137">
        <ele>431.6</ele>
      </trkpt>
<trkpt lat="47.689428" lon="18.987535">
        <ele>425</ele>
      </trkpt>
<trkpt lat="47.689386" lon="18.987730">
        <ele>417.8</ele>
      </trkpt>
<trkpt lat="47.688999" lon="18.988273">
        <ele>413.4</ele>
      </trkpt>
<trkpt lat="47.688443" lon="18.989557">
        <ele>408</ele>
      </trkpt>
<trkpt lat="47.688225" lon="18.989943">
        <ele>404.2</ele>
      </trkpt>
<trkpt lat="47.688318" lon="18.990219">
        <ele>401.4</ele>
      </trkpt>
<trkpt lat="47.688152" lon="18.990450">
        <ele>398.6</ele>
      </trkpt>
<trkpt lat="47.687979" lon="18.990661">
        <ele>395</ele>
      </trkpt>
<trkpt lat="47.687667" lon="18.991114">
        <ele>390.8</ele>
      </trkpt>
<trkpt lat="47.687385" lon="18.991646">
        <ele>386.6</ele>
      </trkpt>
<trkpt lat="47.687065" lon="18.992043">
        <ele>383.4</ele>
      </trkpt>
<trkpt lat="47.686819" lon="18.992113">
        <ele>381.4</ele>
      </trkpt>
<trkpt lat="47.686454" lon="18.992585">
        <ele>378.2</ele>
      </trkpt>
<trkpt lat="47.686238" lon="18.992686">
        <ele>375</ele>
      </trkpt>
<trkpt lat="47.686018" lon="18.992552">
        <ele>371.8</ele>
      </trkpt>
<trkpt lat="47.685833" lon="18.993236">
        <ele>368</ele>
      </trkpt>
<trkpt lat="47.685733" lon="18.994164">
        <ele>363</ele>
      </trkpt>
<trkpt lat="47.685663" lon="18.994311">
        <ele>360</ele>
      </trkpt>
<trkpt lat="47.685119" lon="18.994906">
        <ele>360</ele>
      </trkpt>
<trkpt lat="47.684875" lon="18.995577">
        <ele>357.8</ele>
      </trkpt>
<trkpt lat="47.684649" lon="18.995775">
        <ele>355.4</ele>
      </trkpt>
<trkpt lat="47.684447" lon="18.996191">
        <ele>352.4</ele>
      </trkpt>
<trkpt lat="47.684079" lon="18.996511">
        <ele>349</ele>
      </trkpt>
<trkpt lat="47.683405" lon="18.997605">
        <ele>344.2</ele>
      </trkpt>
<trkpt lat="47.683053" lon="18.998075">
        <ele>341.6</ele>
      </trkpt>
<trkpt lat="47.682665" lon="18.998770">
        <ele>339.4</ele>
      </trkpt>
<trkpt lat="47.682696" lon="18.998825">
        <ele>338.4</ele>
      </trkpt>
<trkpt lat="47.682336" lon="18.999224">
        <ele>337.8</ele>
      </trkpt>
<trkpt lat="47.682200" lon="18.999320">
        <ele>338.2</ele>
      </trkpt>
<trkpt lat="47.682195" lon="18.999662">
        <ele>337.8</ele>
      </trkpt>
<trkpt lat="47.682088" lon="18.999690">
        <ele>337.4</ele>
      </trkpt>
<trkpt lat="47.682032" lon="18.999890">
        <ele>337.6</ele>
      </trkpt>
<trkpt lat="47.681646" lon="19.000452">
        <ele>337.4</ele>
      </trkpt>
<trkpt lat="47.681664" lon="19.000636">
        <ele>335</ele>
      </trkpt>
<trkpt lat="47.681549" lon="19.000763">
        <ele>332.2</ele>
      </trkpt>
<trkpt lat="47.681329" lon="19.001775">
        <ele>330.6</ele>
      </trkpt>
<trkpt lat="47.681489" lon="19.002447">
        <ele>329</ele>
      </trkpt>
<trkpt lat="47.681716" lon="19.002977">
        <ele>325.6</ele>
      </trkpt>
<trkpt lat="47.681952" lon="19.002796">
        <ele>323.4</ele>
      </trkpt>
<trkpt lat="47.681991" lon="19.002631">
        <ele>322.4</ele>
      </trkpt>
<trkpt lat="47.682168" lon="19.002309">
        <ele>322.4</ele>
      </trkpt>
<trkpt lat="47.682144" lon="19.002133">
        <ele>322.4</ele>
      </trkpt>
<trkpt lat="47.682168" lon="19.002309">
        <ele>323.4</ele>
      </trkpt>
<trkpt lat="47.681991" lon="19.002631">
        <ele>324.4</ele>
      </trkpt>
<trkpt lat="47.681952" lon="19.002796">
        <ele>323</ele>
      </trkpt>
<trkpt lat="47.681716" lon="19.002977">
        <ele>318.8</ele>
      </trkpt>
<trkpt lat="47.681941" lon="19.003399">
        <ele>314.6</ele>
      </trkpt>
<trkpt lat="47.682211" lon="19.003760">
        <ele>312.2</ele>
      </trkpt>
<trkpt lat="47.682459" lon="19.005234">
        <ele>309.8</ele>
      </trkpt>
<trkpt lat="47.682481" lon="19.005352">
        <ele>309.4</ele>
      </trkpt>
<trkpt lat="47.682524" lon="19.005462">
        <ele>309.6</ele>
      </trkpt>
<trkpt lat="47.682741" lon="19.005929">
        <ele>312.2</ele>
      </trkpt>
<trkpt lat="47.683230" lon="19.006595">
        <ele>314.2</ele>
      </trkpt>
<trkpt lat="47.683313" lon="19.006782">
        <ele>316.2</ele>
      </trkpt>
<trkpt lat="47.683428" lon="19.007369">
        <ele>316.2</ele>
      </trkpt>
<trkpt lat="47.683288" lon="19.007615">
        <ele>316.2</ele>
      </trkpt>
<trkpt lat="47.683428" lon="19.007369">
        <ele>314.2</ele>
      </trkpt>
<trkpt lat="47.683313" lon="19.006782">
        <ele>312.2</ele>
      </trkpt>
<trkpt lat="47.683230" lon="19.006595">
        <ele>309.6</ele>
      </trkpt>
<trkpt lat="47.682741" lon="19.005929">
        <ele>310</ele>
      </trkpt>
<trkpt lat="47.682524" lon="19.005462">
        <ele>311.8</ele>
      </trkpt>
<trkpt lat="47.682481" lon="19.005352">
        <ele>311.8</ele>
      </trkpt>
<trkpt lat="47.682096" lon="19.006014">
        <ele>311.4</ele>
      </trkpt>
<trkpt lat="47.681281" lon="19.006452">
        <ele>315.4</ele>
      </trkpt>
<trkpt lat="47.680868" lon="19.006775">
        <ele>321</ele>
      </trkpt>
<trkpt lat="47.680226" lon="19.007791">
        <ele>323.4</ele>
      </trkpt>
<trkpt lat="47.678963" lon="19.009444">
        <ele>327.2</ele>
      </trkpt>
<trkpt lat="47.678757" lon="19.009585">
        <ele>331.4</ele>
      </trkpt>
<trkpt lat="47.678590" lon="19.009797">
        <ele>333</ele>
      </trkpt>
<trkpt lat="47.678519" lon="19.009920">
        <ele>332.6</ele>
      </trkpt>
<trkpt lat="47.678293" lon="19.010300">
        <ele>334</ele>
      </trkpt>
<trkpt lat="47.678002" lon="19.010644">
        <ele>337.2</ele>
      </trkpt>
<trkpt lat="47.677474" lon="19.011542">
        <ele>340.6</ele>
      </trkpt>
<trkpt lat="47.677245" lon="19.012054">
        <ele>342.8</ele>
      </trkpt>
<trkpt lat="47.677082" lon="19.012562">
        <ele>345.8</ele>
      </trkpt>
<trkpt lat="47.676758" lon="19.013034">
        <ele>349</ele>
      </trkpt>
<trkpt lat="47.676395" lon="19.013501">
        <ele>350.4</ele>
      </trkpt>
<trkpt lat="47.676267" lon="19.013854">
        <ele>351.4</ele>
      </trkpt>
<trkpt lat="47.676228" lon="19.014064">
        <ele>354.4</ele>
      </trkpt>
<trkpt lat="47.676186" lon="19.014287">
        <ele>356.4</ele>
      </trkpt>
<trkpt lat="47.676286" lon="19.014559">
        <ele>359</ele>
      </trkpt>
<trkpt lat="47.676384" lon="19.014699">
        <ele>361.6</ele>
      </trkpt>
<trkpt lat="47.676511" lon="19.015260">
        <ele>364.4</ele>
      </trkpt>
<trkpt lat="47.676520" lon="19.015521">
        <ele>365.4</ele>
      </trkpt>
<trkpt lat="47.676487" lon="19.015978">
        <ele>366.4</ele>
      </trkpt>
<trkpt lat="47.676481" lon="19.016061">
        <ele>366.6</ele>
      </trkpt>
<trkpt lat="47.675932" lon="19.016592">
        <ele>366.2</ele>
      </trkpt>
<trkpt lat="47.675846" lon="19.016783">
        <ele>365.8</ele>
      </trkpt>
<trkpt lat="47.675812" lon="19.017002">
        <ele>365.4</ele>
      </trkpt>
<trkpt lat="47.675772" lon="19.017445">
        <ele>365</ele>
      </trkpt>
<trkpt lat="47.675752" lon="19.017892">
        <ele>364</ele>
      </trkpt>
<trkpt lat="47.675711" lon="19.018155">
        <ele>364.4</ele>
      </trkpt>
<trkpt lat="47.675634" lon="19.018640">
        <ele>364.6</ele>
      </trkpt>
<trkpt lat="47.675093" lon="19.017995">
        <ele>364.6</ele>
      </trkpt>
<trkpt lat="47.674645" lon="19.017771">
        <ele>364.6</ele>
      </trkpt>
<trkpt lat="47.674401" lon="19.017895">
        <ele>365.2</ele>
      </trkpt>
<trkpt lat="47.674160" lon="19.017750">
        <ele>361.4</ele>
      </trkpt>
<trkpt lat="47.673900" lon="19.017778">
        <ele>357.8</ele>
      </trkpt>
<trkpt lat="47.673812" lon="19.017801">
        <ele>354.2</ele>
      </trkpt>
<trkpt lat="47.673609" lon="19.017733">
        <ele>350.8</ele>
      </trkpt>
<trkpt lat="47.673501" lon="19.017661">
        <ele>347.4</ele>
      </trkpt>
<trkpt lat="47.673415" lon="19.017357">
        <ele>347.6</ele>
      </trkpt>
<trkpt lat="47.673472" lon="19.016918">
        <ele>347.8</ele>
      </trkpt>
<trkpt lat="47.673494" lon="19.016877">
        <ele>348.2</ele>
      </trkpt>
<trkpt lat="47.673550" lon="19.016693">
        <ele>348.6</ele>
      </trkpt>
<trkpt lat="47.673518" lon="19.016305">
        <ele>349</ele>
      </trkpt>
<trkpt lat="47.673395" lon="19.015658">
        <ele>349.2</ele>
      </trkpt>
<trkpt lat="47.673191" lon="19.015092">
        <ele>349.4</ele>
      </trkpt>
<trkpt lat="47.673207" lon="19.014936">
        <ele>349.4</ele>
      </trkpt>
<trkpt lat="47.673770" lon="19.014365">
        <ele>349.2</ele>
      </trkpt>
<trkpt lat="47.673810" lon="19.014267">
        <ele>345</ele>
      </trkpt>
<trkpt lat="47.673802" lon="19.013941">
        <ele>341</ele>
      </trkpt>
<trkpt lat="47.674060" lon="19.013788">
        <ele>333</ele>
      </trkpt>
<trkpt lat="47.674062" lon="19.013481">
        <ele>327.8</ele>
      </trkpt>
<trkpt lat="47.674208" lon="19.013110">
        <ele>319.2</ele>
      </trkpt>
<trkpt lat="47.674562" lon="19.012584">
        <ele>314.6</ele>
      </trkpt>
<trkpt lat="47.674937" lon="19.012156">
        <ele>307.2</ele>
      </trkpt>
<trkpt lat="47.674928" lon="19.011919">
        <ele>301.4</ele>
      </trkpt>
<trkpt lat="47.674625" lon="19.011479">
        <ele>290</ele>
      </trkpt>
<trkpt lat="47.674154" lon="19.011261">
        <ele>280.2</ele>
      </trkpt>
<trkpt lat="47.673809" lon="19.011083">
        <ele>272.2</ele>
      </trkpt>
<trkpt lat="47.673688" lon="19.010740">
        <ele>263.8</ele>
      </trkpt>
<trkpt lat="47.673468" lon="19.010396">
        <ele>257.8</ele>
      </trkpt>
<trkpt lat="47.673273" lon="19.010623">
        <ele>254.6</ele>
      </trkpt>
<trkpt lat="47.672898" lon="19.010975">
        <ele>254.6</ele>
      </trkpt>
<trkpt lat="47.672746" lon="19.010738">
        <ele>249.4</ele>
      </trkpt>
<trkpt lat="47.672784" lon="19.010426">
        <ele>247.4</ele>
      </trkpt>
<trkpt lat="47.672928" lon="19.009970">
        <ele>245.4</ele>
      </trkpt>
<trkpt lat="47.672882" lon="19.009564">
        <ele>243.4</ele>
      </trkpt>
<trkpt lat="47.672723" lon="19.009406">
        <ele>240</ele>
      </trkpt>
<trkpt lat="47.672590" lon="19.009407">
        <ele>240</ele>
      </trkpt>
<trkpt lat="47.672468" lon="19.009264">
        <ele>239.6</ele>
      </trkpt>
<trkpt lat="47.672329" lon="19.008952">
        <ele>241.8</ele>
      </trkpt>
<trkpt lat="47.672396" lon="19.008910">
        <ele>244</ele>
      </trkpt>
<trkpt lat="47.672708" lon="19.008715">
        <ele>247.6</ele>
      </trkpt>
<trkpt lat="47.673068" lon="19.008296">
        <ele>251.4</ele>
      </trkpt>
<trkpt lat="47.673340" lon="19.008203">
        <ele>256.8</ele>
      </trkpt>
<trkpt lat="47.674037" lon="19.007259">
        <ele>261</ele>
      </trkpt>
<trkpt lat="47.674184" lon="19.006760">
        <ele>266.6</ele>
      </trkpt>
<trkpt lat="47.674179" lon="19.005786">
        <ele>270.8</ele>
      </trkpt>
<trkpt lat="47.674268" lon="19.005281">
        <ele>277</ele>
      </trkpt>
<trkpt lat="47.674041" lon="19.004446">
        <ele>282.2</ele>
      </trkpt>
<trkpt lat="47.674093" lon="19.003983">
        <ele>287</ele>
      </trkpt>
<trkpt lat="47.674499" lon="19.002873">
        <ele>293.4</ele>
      </trkpt>
<trkpt lat="47.674944" lon="19.002093">
        <ele>306</ele>
      </trkpt>
<trkpt lat="47.675105" lon="19.001573">
        <ele>319.8</ele>
      </trkpt>
<trkpt lat="47.676291" lon="18.999585">
        <ele>337.4</ele>
      </trkpt>
<trkpt lat="47.677943" lon="18.997122">
        <ele>357.6</ele>
      </trkpt>
<trkpt lat="47.679501" lon="18.994624">
        <ele>377</ele>
      </trkpt>
<trkpt lat="47.680612" lon="18.993016">
        <ele>390.2</ele>
      </trkpt>
<trkpt lat="47.681858" lon="18.990999">
        <ele>400</ele>
      </trkpt>
<trkpt lat="47.682329" lon="18.990341">
        <ele>406.6</ele>
      </trkpt>
<trkpt lat="47.682421" lon="18.990282">
        <ele>411</ele>
      </trkpt>
<trkpt lat="47.682528" lon="18.990204">
        <ele>414.2</ele>
      </trkpt>
<trkpt lat="47.683052" lon="18.989625">
        <ele>417.4</ele>
      </trkpt>
<trkpt lat="47.683303" lon="18.989154">
        <ele>421.2</ele>
      </trkpt>
<trkpt lat="47.683412" lon="18.988474">
        <ele>424.2</ele>
      </trkpt>
<trkpt lat="47.683289" lon="18.988238">
        <ele>426.4</ele>
      </trkpt>
<trkpt lat="47.683411" lon="18.987693">
        <ele>427.6</ele>
      </trkpt>
<trkpt lat="47.683641" lon="18.987233">
        <ele>428</ele>
      </trkpt>
<trkpt lat="47.683924" lon="18.987063">
        <ele>427.4</ele>
      </trkpt>
<trkpt lat="47.684079" lon="18.987061">
        <ele>428.6</ele>
      </trkpt>
<trkpt lat="47.684541" lon="18.987139">
        <ele>429.2</ele>
      </trkpt>
<trkpt lat="47.685002" lon="18.987099">
        <ele>432.4</ele>
      </trkpt>
<trkpt lat="47.685130" lon="18.986998">
        <ele>436.8</ele>
      </trkpt>
<trkpt lat="47.685257" lon="18.986880">
        <ele>441.6</ele>
      </trkpt>
<trkpt lat="47.685880" lon="18.985955">
        <ele>444.4</ele>
      </trkpt>
<trkpt lat="47.686263" lon="18.985761">
        <ele>447.2</ele>
      </trkpt>
<trkpt lat="47.687065" lon="18.985986">
        <ele>447</ele>
      </trkpt>
<trkpt lat="47.687510" lon="18.985901">
        <ele>445.6</ele>
      </trkpt>
<trkpt lat="47.687897" lon="18.985709">
        <ele>444.2</ele>
      </trkpt>
<trkpt lat="47.688199" lon="18.985581">
        <ele>443.5</ele>
      </trkpt>
<trkpt lat="47.688794" lon="18.985511">
        <ele>442.33333333333</ele>
      </trkpt>
<trkpt lat="47.688855" lon="18.985481">
        <ele>441</ele>
      </trkpt>
</trkseg>
</trk>
</gpx>



