<?xml version="1.0" encoding="UTF-8"?>
<gpx xmlns="http://www.topografix.com/GPX/1/1" creator="turistautak.openstreetmap.hu" version="1.1" xmlns:xsi="http://www.w3.org/2001/XMLSchema-instance" xsi:schemaLocation="http://www.garmin.com/xmlschemas/GpxExtensions/v3 http://www.garmin.com/xmlschemas/GpxExtensions/v3/GpxExtensionsv3.xsd http://www.topografix.com/GPX/1/1 http://www.topografix.com/GPX/1/1/gpx.xsd">
	<metadata>
		<name>1678984065m8uo útvonal</name>
		<desc>1678984065m8uo útvonal</desc>
	</metadata>
<trk>
  <name>utv</name>
<trkseg><trkpt lat="47.688881" lon="18.985572">
        <ele>451</ele>
      </trkpt>
<trkpt lat="47.688815" lon="18.985451">
        <ele>452.6</ele>
      </trkpt>
<trkpt lat="47.688933" lon="18.985394">
        <ele>460.6</ele>
      </trkpt>
<trkpt lat="47.688750" lon="18.984886">
        <ele>468.6</ele>
      </trkpt>
<trkpt lat="47.689016" lon="18.984618">
        <ele>479.2</ele>
      </trkpt>
<trkpt lat="47.689254" lon="18.984284">
        <ele>489</ele>
      </trkpt>
<trkpt lat="47.689723" lon="18.983902">
        <ele>503.6</ele>
      </trkpt>
<trkpt lat="47.690013" lon="18.983626">
        <ele>517.4</ele>
      </trkpt>
<trkpt lat="47.690893" lon="18.982997">
        <ele>531.2</ele>
      </trkpt>
<trkpt lat="47.691051" lon="18.982725">
        <ele>541</ele>
      </trkpt>
<trkpt lat="47.691117" lon="18.981997">
        <ele>553</ele>
      </trkpt>
<trkpt lat="47.691005" lon="18.981329">
        <ele>561</ele>
      </trkpt>
<trkpt lat="47.690445" lon="18.981127">
        <ele>564.6</ele>
      </trkpt>
<trkpt lat="47.690200" lon="18.980850">
        <ele>569.6</ele>
      </trkpt>
<trkpt lat="47.690163" lon="18.980715">
        <ele>572</ele>
      </trkpt>
<trkpt lat="47.690226" lon="18.980103">
        <ele>572.6</ele>
      </trkpt>
<trkpt lat="47.690588" lon="18.980040">
        <ele>572.8</ele>
      </trkpt>
<trkpt lat="47.690815" lon="18.979557">
        <ele>572.6</ele>
      </trkpt>
<trkpt lat="47.690957" lon="18.979808">
        <ele>571</ele>
      </trkpt>
<trkpt lat="47.690815" lon="18.979557">
        <ele>567.8</ele>
      </trkpt>
<trkpt lat="47.690711" lon="18.978724">
        <ele>564.6</ele>
      </trkpt>
<trkpt lat="47.690670" lon="18.978008">
        <ele>561.8</ele>
      </trkpt>
<trkpt lat="47.690479" lon="18.977692">
        <ele>560.2</ele>
      </trkpt>
<trkpt lat="47.689928" lon="18.977265">
        <ele>557</ele>
      </trkpt>
<trkpt lat="47.689864" lon="18.977296">
        <ele>555.8</ele>
      </trkpt>
<trkpt lat="47.689749" lon="18.977332">
        <ele>551.8</ele>
      </trkpt>
<trkpt lat="47.689458" lon="18.977177">
        <ele>547.8</ele>
      </trkpt>
<trkpt lat="47.689446" lon="18.977186">
        <ele>540.6</ele>
      </trkpt>
<trkpt lat="47.688334" lon="18.977571">
        <ele>535</ele>
      </trkpt>
<trkpt lat="47.688040" lon="18.977711">
        <ele>529.4</ele>
      </trkpt>
<trkpt lat="47.687866" lon="18.977643">
        <ele>526.2</ele>
      </trkpt>
<trkpt lat="47.687727" lon="18.977563">
        <ele>523</ele>
      </trkpt>
<trkpt lat="47.687513" lon="18.977578">
        <ele>523.2</ele>
      </trkpt>
<trkpt lat="47.687451" lon="18.977520">
        <ele>524.8</ele>
      </trkpt>
<trkpt lat="47.687690" lon="18.977340">
        <ele>526.4</ele>
      </trkpt>
<trkpt lat="47.687668" lon="18.976840">
        <ele>530.4</ele>
      </trkpt>
<trkpt lat="47.687395" lon="18.975899">
        <ele>534.4</ele>
      </trkpt>
<trkpt lat="47.687362" lon="18.975775">
        <ele>540</ele>
      </trkpt>
<trkpt lat="47.687357" lon="18.975055">
        <ele>544.2</ele>
      </trkpt>
<trkpt lat="47.687294" lon="18.974877">
        <ele>548.4</ele>
      </trkpt>
<trkpt lat="47.687327" lon="18.973610">
        <ele>550.2</ele>
      </trkpt>
<trkpt lat="47.687408" lon="18.973610">
        <ele>550.8</ele>
      </trkpt>
<trkpt lat="47.687477" lon="18.973294">
        <ele>553.4</ele>
      </trkpt>
<trkpt lat="47.687686" lon="18.972945">
        <ele>555.4</ele>
      </trkpt>
<trkpt lat="47.687792" lon="18.972707">
        <ele>558</ele>
      </trkpt>
<trkpt lat="47.688014" lon="18.972369">
        <ele>559.8</ele>
      </trkpt>
<trkpt lat="47.688133" lon="18.972045">
        <ele>563.4</ele>
      </trkpt>
<trkpt lat="47.688008" lon="18.971083">
        <ele>563.2</ele>
      </trkpt>
<trkpt lat="47.687316" lon="18.969704">
        <ele>563.4</ele>
      </trkpt>
<trkpt lat="47.687110" lon="18.969102">
        <ele>560.4</ele>
      </trkpt>
<trkpt lat="47.687098" lon="18.968009">
        <ele>558</ele>
      </trkpt>
<trkpt lat="47.687091" lon="18.967294">
        <ele>557.2</ele>
      </trkpt>
<trkpt lat="47.687051" lon="18.967096">
        <ele>555</ele>
      </trkpt>
<trkpt lat="47.687008" lon="18.966396">
        <ele>551</ele>
      </trkpt>
<trkpt lat="47.687149" lon="18.965596">
        <ele>546.4</ele>
      </trkpt>
<trkpt lat="47.687150" lon="18.965025">
        <ele>544.8</ele>
      </trkpt>
<trkpt lat="47.687273" lon="18.964555">
        <ele>538.4</ele>
      </trkpt>
<trkpt lat="47.687830" lon="18.963592">
        <ele>530.6</ele>
      </trkpt>
<trkpt lat="47.688148" lon="18.963028">
        <ele>525.6</ele>
      </trkpt>
<trkpt lat="47.688205" lon="18.962603">
        <ele>523.8</ele>
      </trkpt>
<trkpt lat="47.688545" lon="18.962069">
        <ele>516.2</ele>
      </trkpt>
<trkpt lat="47.688837" lon="18.961862">
        <ele>511.2</ele>
      </trkpt>
<trkpt lat="47.689272" lon="18.961278">
        <ele>506.2</ele>
      </trkpt>
<trkpt lat="47.689824" lon="18.960935">
        <ele>501</ele>
      </trkpt>
<trkpt lat="47.690184" lon="18.960523">
        <ele>493</ele>
      </trkpt>
<trkpt lat="47.690374" lon="18.960132">
        <ele>485.6</ele>
      </trkpt>
<trkpt lat="47.690469" lon="18.959589">
        <ele>479.4</ele>
      </trkpt>
<trkpt lat="47.690939" lon="18.958845">
        <ele>472.8</ele>
      </trkpt>
<trkpt lat="47.691108" lon="18.958489">
        <ele>465.6</ele>
      </trkpt>
<trkpt lat="47.691547" lon="18.958105">
        <ele>462.6</ele>
      </trkpt>
<trkpt lat="47.691931" lon="18.957697">
        <ele>462</ele>
      </trkpt>
<trkpt lat="47.692054" lon="18.957462">
        <ele>460.2</ele>
      </trkpt>
<trkpt lat="47.692216" lon="18.957354">
        <ele>462.4</ele>
      </trkpt>
<trkpt lat="47.692434" lon="18.957234">
        <ele>464.6</ele>
      </trkpt>
<trkpt lat="47.692770" lon="18.957185">
        <ele>465.4</ele>
      </trkpt>
<trkpt lat="47.693399" lon="18.957435">
        <ele>466.2</ele>
      </trkpt>
<trkpt lat="47.693696" lon="18.957553">
        <ele>467.4</ele>
      </trkpt>
<trkpt lat="47.693724" lon="18.957576">
        <ele>467.8</ele>
      </trkpt>
<trkpt lat="47.693731" lon="18.957581">
        <ele>466.2</ele>
      </trkpt>
<trkpt lat="47.693853" lon="18.957792">
        <ele>461.2</ele>
      </trkpt>
<trkpt lat="47.694035" lon="18.958014">
        <ele>456.2</ele>
      </trkpt>
<trkpt lat="47.694740" lon="18.958476">
        <ele>451.8</ele>
      </trkpt>
<trkpt lat="47.695436" lon="18.958098">
        <ele>447.4</ele>
      </trkpt>
<trkpt lat="47.695674" lon="18.957970">
        <ele>442.6</ele>
      </trkpt>
<trkpt lat="47.696001" lon="18.957577">
        <ele>441.2</ele>
      </trkpt>
<trkpt lat="47.696051" lon="18.957291">
        <ele>436.8</ele>
      </trkpt>
<trkpt lat="47.696475" lon="18.956143">
        <ele>432.2</ele>
      </trkpt>
<trkpt lat="47.696894" lon="18.955436">
        <ele>424.6</ele>
      </trkpt>
<trkpt lat="47.697234" lon="18.954713">
        <ele>416.6</ele>
      </trkpt>
<trkpt lat="47.697689" lon="18.953841">
        <ele>408.6</ele>
      </trkpt>
<trkpt lat="47.698030" lon="18.953463">
        <ele>401.4</ele>
      </trkpt>
<trkpt lat="47.698751" lon="18.953550">
        <ele>392.4</ele>
      </trkpt>
<trkpt lat="47.699402" lon="18.953252">
        <ele>386.4</ele>
      </trkpt>
<trkpt lat="47.700292" lon="18.951747">
        <ele>380.8</ele>
      </trkpt>
<trkpt lat="47.700675" lon="18.951277">
        <ele>376.2</ele>
      </trkpt>
<trkpt lat="47.701104" lon="18.950950">
        <ele>373.4</ele>
      </trkpt>
<trkpt lat="47.701361" lon="18.950842">
        <ele>371.6</ele>
      </trkpt>
<trkpt lat="47.702083" lon="18.951748">
        <ele>369.8</ele>
      </trkpt>
<trkpt lat="47.702567" lon="18.952540">
        <ele>368.4</ele>
      </trkpt>
<trkpt lat="47.702658" lon="18.952690">
        <ele>365.6</ele>
      </trkpt>
<trkpt lat="47.702822" lon="18.952801">
        <ele>363.2</ele>
      </trkpt>
<trkpt lat="47.703039" lon="18.952808">
        <ele>362.2</ele>
      </trkpt>
<trkpt lat="47.703221" lon="18.952977">
        <ele>358.2</ele>
      </trkpt>
<trkpt lat="47.703278" lon="18.953252">
        <ele>355.4</ele>
      </trkpt>
<trkpt lat="47.702818" lon="18.954808">
        <ele>352.2</ele>
      </trkpt>
<trkpt lat="47.702951" lon="18.955305">
        <ele>349</ele>
      </trkpt>
<trkpt lat="47.703014" lon="18.956033">
        <ele>344.4</ele>
      </trkpt>
<trkpt lat="47.703123" lon="18.956376">
        <ele>342</ele>
      </trkpt>
<trkpt lat="47.703487" lon="18.957352">
        <ele>339.4</ele>
      </trkpt>
<trkpt lat="47.703617" lon="18.957612">
        <ele>337</ele>
      </trkpt>
<trkpt lat="47.704240" lon="18.959524">
        <ele>334.6</ele>
      </trkpt>
<trkpt lat="47.704416" lon="18.960521">
        <ele>332.2</ele>
      </trkpt>
<trkpt lat="47.704592" lon="18.960839">
        <ele>330.6</ele>
      </trkpt>
<trkpt lat="47.704707" lon="18.960921">
        <ele>329.4</ele>
      </trkpt>
<trkpt lat="47.704964" lon="18.960963">
        <ele>328</ele>
      </trkpt>
<trkpt lat="47.705136" lon="18.961110">
        <ele>326.8</ele>
      </trkpt>
<trkpt lat="47.705385" lon="18.961882">
        <ele>325.6</ele>
      </trkpt>
<trkpt lat="47.705719" lon="18.962028">
        <ele>326</ele>
      </trkpt>
<trkpt lat="47.705598" lon="18.962185">
        <ele>327</ele>
      </trkpt>
<trkpt lat="47.705537" lon="18.962407">
        <ele>328.8</ele>
      </trkpt>
<trkpt lat="47.705529" lon="18.963155">
        <ele>330.6</ele>
      </trkpt>
<trkpt lat="47.705608" lon="18.963481">
        <ele>332.4</ele>
      </trkpt>
<trkpt lat="47.705544" lon="18.963743">
        <ele>332.6</ele>
      </trkpt>
<trkpt lat="47.705259" lon="18.964152">
        <ele>333.8</ele>
      </trkpt>
<trkpt lat="47.704985" lon="18.964309">
        <ele>335</ele>
      </trkpt>
<trkpt lat="47.704783" lon="18.964544">
        <ele>335.4</ele>
      </trkpt>
<trkpt lat="47.704247" lon="18.965587">
        <ele>335.8</ele>
      </trkpt>
<trkpt lat="47.704120" lon="18.966109">
        <ele>336.4</ele>
      </trkpt>
<trkpt lat="47.704121" lon="18.966632">
        <ele>336</ele>
      </trkpt>
<trkpt lat="47.704164" lon="18.966830">
        <ele>334.4</ele>
      </trkpt>
<trkpt lat="47.704578" lon="18.967485">
        <ele>333.2</ele>
      </trkpt>
<trkpt lat="47.704790" lon="18.967823">
        <ele>332</ele>
      </trkpt>
<trkpt lat="47.704966" lon="18.968414">
        <ele>330.6</ele>
      </trkpt>
<trkpt lat="47.704973" lon="18.968902">
        <ele>329.2</ele>
      </trkpt>
<trkpt lat="47.705062" lon="18.969198">
        <ele>328.4</ele>
      </trkpt>
<trkpt lat="47.705176" lon="18.969342">
        <ele>327.4</ele>
      </trkpt>
<trkpt lat="47.705312" lon="18.969378">
        <ele>326.4</ele>
      </trkpt>
<trkpt lat="47.705812" lon="18.969114">
        <ele>325.8</ele>
      </trkpt>
<trkpt lat="47.706291" lon="18.969094">
        <ele>323.6</ele>
      </trkpt>
<trkpt lat="47.706716" lon="18.969353">
        <ele>322</ele>
      </trkpt>
<trkpt lat="47.706919" lon="18.969631">
        <ele>320.8</ele>
      </trkpt>
<trkpt lat="47.707322" lon="18.971265">
        <ele>319.2</ele>
      </trkpt>
<trkpt lat="47.707422" lon="18.971832">
        <ele>317.2</ele>
      </trkpt>
<trkpt lat="47.707486" lon="18.971987">
        <ele>316.8</ele>
      </trkpt>
<trkpt lat="47.707558" lon="18.972131">
        <ele>316.2</ele>
      </trkpt>
<trkpt lat="47.707621" lon="18.972131">
        <ele>315.6</ele>
      </trkpt>
<trkpt lat="47.707728" lon="18.972132">
        <ele>315.4</ele>
      </trkpt>
<trkpt lat="47.707831" lon="18.973031">
        <ele>315</ele>
      </trkpt>
<trkpt lat="47.707655" lon="18.973565">
        <ele>314.6</ele>
      </trkpt>
<trkpt lat="47.707651" lon="18.973720">
        <ele>314.4</ele>
      </trkpt>
<trkpt lat="47.707652" lon="18.973808">
        <ele>313.8</ele>
      </trkpt>
<trkpt lat="47.707651" lon="18.973835">
        <ele>312.8</ele>
      </trkpt>
<trkpt lat="47.707496" lon="18.974392">
        <ele>312</ele>
      </trkpt>
<trkpt lat="47.707449" lon="18.974980">
        <ele>311.2</ele>
      </trkpt>
<trkpt lat="47.707405" lon="18.975542">
        <ele>310.4</ele>
      </trkpt>
<trkpt lat="47.707475" lon="18.975886">
        <ele>310.4</ele>
      </trkpt>
<trkpt lat="47.707439" lon="18.976227">
        <ele>310.8</ele>
      </trkpt>
<trkpt lat="47.707345" lon="18.976552">
        <ele>309.8</ele>
      </trkpt>
<trkpt lat="47.707071" lon="18.977088">
        <ele>309.2</ele>
      </trkpt>
<trkpt lat="47.707061" lon="18.977306">
        <ele>307</ele>
      </trkpt>
<trkpt lat="47.706335" lon="18.979270">
        <ele>304.4</ele>
      </trkpt>
<trkpt lat="47.706127" lon="18.979643">
        <ele>301.8</ele>
      </trkpt>
<trkpt lat="47.705262" lon="18.979935">
        <ele>300.6</ele>
      </trkpt>
<trkpt lat="47.705106" lon="18.980145">
        <ele>300</ele>
      </trkpt>
<trkpt lat="47.704785" lon="18.980223">
        <ele>301</ele>
      </trkpt>
<trkpt lat="47.704640" lon="18.980170">
        <ele>305</ele>
      </trkpt>
<trkpt lat="47.703955" lon="18.980291">
        <ele>312</ele>
      </trkpt>
<trkpt lat="47.703304" lon="18.980501">
        <ele>322.4</ele>
      </trkpt>
<trkpt lat="47.703058" lon="18.980384">
        <ele>331.8</ele>
      </trkpt>
<trkpt lat="47.702422" lon="18.980408">
        <ele>338.6</ele>
      </trkpt>
<trkpt lat="47.702028" lon="18.980355">
        <ele>348.6</ele>
      </trkpt>
<trkpt lat="47.701918" lon="18.980244">
        <ele>355.6</ele>
      </trkpt>
<trkpt lat="47.701558" lon="18.980507">
        <ele>361.6</ele>
      </trkpt>
<trkpt lat="47.700381" lon="18.980665">
        <ele>367.6</ele>
      </trkpt>
<trkpt lat="47.699926" lon="18.980636">
        <ele>379.4</ele>
      </trkpt>
<trkpt lat="47.699251" lon="18.980776">
        <ele>382.4</ele>
      </trkpt>
<trkpt lat="47.699029" lon="18.980747">
        <ele>388</ele>
      </trkpt>
<trkpt lat="47.698383" lon="18.981044">
        <ele>393.2</ele>
      </trkpt>
<trkpt lat="47.698121" lon="18.981368">
        <ele>403.2</ele>
      </trkpt>
<trkpt lat="47.697505" lon="18.981810">
        <ele>410</ele>
      </trkpt>
<trkpt lat="47.697050" lon="18.981854">
        <ele>417.4</ele>
      </trkpt>
<trkpt lat="47.696238" lon="18.981536">
        <ele>422.2</ele>
      </trkpt>
<trkpt lat="47.696165" lon="18.981670">
        <ele>421.8</ele>
      </trkpt>
<trkpt lat="47.696002" lon="18.982460">
        <ele>415.6</ele>
      </trkpt>
<trkpt lat="47.695913" lon="18.982662">
        <ele>409.4</ele>
      </trkpt>
<trkpt lat="47.695058" lon="18.984606">
        <ele>411</ele>
      </trkpt>
<trkpt lat="47.694951" lon="18.985529">
        <ele>412.6</ele>
      </trkpt>
<trkpt lat="47.694883" lon="18.985822">
        <ele>419.8</ele>
      </trkpt>
<trkpt lat="47.694510" lon="18.985337">
        <ele>432.4</ele>
      </trkpt>
<trkpt lat="47.694240" lon="18.984924">
        <ele>443.2</ele>
      </trkpt>
<trkpt lat="47.693860" lon="18.984448">
        <ele>449.8</ele>
      </trkpt>
<trkpt lat="47.693361" lon="18.984384">
        <ele>456.4</ele>
      </trkpt>
<trkpt lat="47.693215" lon="18.984725">
        <ele>460.6</ele>
      </trkpt>
<trkpt lat="47.692793" lon="18.985228">
        <ele>459.2</ele>
      </trkpt>
<trkpt lat="47.692607" lon="18.985272">
        <ele>459.6</ele>
      </trkpt>
<trkpt lat="47.692329" lon="18.985166">
        <ele>458.4</ele>
      </trkpt>
<trkpt lat="47.692054" lon="18.984773">
        <ele>457.2</ele>
      </trkpt>
<trkpt lat="47.691752" lon="18.984623">
        <ele>461.2</ele>
      </trkpt>
<trkpt lat="47.691644" lon="18.984661">
        <ele>461.2</ele>
      </trkpt>
<trkpt lat="47.691536" lon="18.984698">
        <ele>458.2</ele>
      </trkpt>
<trkpt lat="47.690583" lon="18.984480">
        <ele>458.8</ele>
      </trkpt>
<trkpt lat="47.689747" lon="18.985282">
        <ele>455.8</ele>
      </trkpt>
<trkpt lat="47.689551" lon="18.985439">
        <ele>447.6</ele>
      </trkpt>
<trkpt lat="47.689123" lon="18.985348">
        <ele>444.6</ele>
      </trkpt>
<trkpt lat="47.689120" lon="18.985515">
        <ele>445.5</ele>
      </trkpt>
<trkpt lat="47.689025" lon="18.985551">
        <ele>441</ele>
      </trkpt>
<trkpt lat="47.688888" lon="18.985486">
        <ele>441</ele>
      </trkpt>
</trkseg>
</trk>
</gpx>



