<?xml version="1.0" encoding="UTF-8"?>
<gpx xmlns="http://www.topografix.com/GPX/1/1" creator="turistautak.openstreetmap.hu" version="1.1" xmlns:xsi="http://www.w3.org/2001/XMLSchema-instance" xsi:schemaLocation="http://www.garmin.com/xmlschemas/GpxExtensions/v3 http://www.garmin.com/xmlschemas/GpxExtensions/v3/GpxExtensionsv3.xsd http://www.topografix.com/GPX/1/1 http://www.topografix.com/GPX/1/1/gpx.xsd">
	<metadata>
		<name>1516881579nxp2 útvonal</name>
		<desc>1516881579nxp2 útvonal</desc>
	</metadata>
<trk>
  <name>utv</name>
<trkseg><trkpt lat="47.533970" lon="19.032869">
        <ele>130</ele>
      </trkpt>
<trkpt lat="47.534074" lon="19.032695">
        <ele>133.4</ele>
      </trkpt>
<trkpt lat="47.534094" lon="19.032657">
        <ele>136</ele>
      </trkpt>
<trkpt lat="47.534333" lon="19.032257">
        <ele>138.6</ele>
      </trkpt>
<trkpt lat="47.534579" lon="19.032053">
        <ele>141.2</ele>
      </trkpt>
<trkpt lat="47.534935" lon="19.031531">
        <ele>144.6</ele>
      </trkpt>
<trkpt lat="47.535127" lon="19.031405">
        <ele>144.6</ele>
      </trkpt>
<trkpt lat="47.535298" lon="19.031313">
        <ele>145.4</ele>
      </trkpt>
<trkpt lat="47.535713" lon="19.031208">
        <ele>146.2</ele>
      </trkpt>
<trkpt lat="47.535764" lon="19.031180">
        <ele>144.6</ele>
      </trkpt>
<trkpt lat="47.535992" lon="19.031053">
        <ele>142.2</ele>
      </trkpt>
<trkpt lat="47.536010" lon="19.031041">
        <ele>141.6</ele>
      </trkpt>
<trkpt lat="47.536273" lon="19.030835">
        <ele>141</ele>
      </trkpt>
<trkpt lat="47.536406" lon="19.030593">
        <ele>141.4</ele>
      </trkpt>
<trkpt lat="47.536582" lon="19.030309">
        <ele>144.2</ele>
      </trkpt>
<trkpt lat="47.536761" lon="19.029966">
        <ele>147.6</ele>
      </trkpt>
<trkpt lat="47.537015" lon="19.029068">
        <ele>149.2</ele>
      </trkpt>
<trkpt lat="47.537024" lon="19.028898">
        <ele>152</ele>
      </trkpt>
<trkpt lat="47.536961" lon="19.028653">
        <ele>155.2</ele>
      </trkpt>
<trkpt lat="47.536823" lon="19.028379">
        <ele>159</ele>
      </trkpt>
<trkpt lat="47.536801" lon="19.027779">
        <ele>162.2</ele>
      </trkpt>
<trkpt lat="47.536699" lon="19.026985">
        <ele>167.6</ele>
      </trkpt>
<trkpt lat="47.536182" lon="19.026808">
        <ele>171.6</ele>
      </trkpt>
<trkpt lat="47.535567" lon="19.026652">
        <ele>174.2</ele>
      </trkpt>
<trkpt lat="47.534172" lon="19.026192">
        <ele>176.8</ele>
      </trkpt>
<trkpt lat="47.533114" lon="19.025615">
        <ele>179.4</ele>
      </trkpt>
<trkpt lat="47.532979" lon="19.025515">
        <ele>179.8</ele>
      </trkpt>
<trkpt lat="47.532757" lon="19.025283">
        <ele>180.4</ele>
      </trkpt>
<trkpt lat="47.532664" lon="19.025140">
        <ele>181</ele>
      </trkpt>
<trkpt lat="47.532651" lon="19.024872">
        <ele>181</ele>
      </trkpt>
<trkpt lat="47.532720" lon="19.024822">
        <ele>182</ele>
      </trkpt>
<trkpt lat="47.532785" lon="19.024741">
        <ele>186.4</ele>
      </trkpt>
<trkpt lat="47.532885" lon="19.024700">
        <ele>190.8</ele>
      </trkpt>
<trkpt lat="47.533001" lon="19.024676">
        <ele>195.2</ele>
      </trkpt>
<trkpt lat="47.533224" lon="19.024461">
        <ele>199.6</ele>
      </trkpt>
<trkpt lat="47.533190" lon="19.024207">
        <ele>206.2</ele>
      </trkpt>
<trkpt lat="47.533244" lon="19.023978">
        <ele>209.4</ele>
      </trkpt>
<trkpt lat="47.533689" lon="19.023883">
        <ele>215.2</ele>
      </trkpt>
<trkpt lat="47.533904" lon="19.023716">
        <ele>225</ele>
      </trkpt>
<trkpt lat="47.534516" lon="19.023194">
        <ele>234.8</ele>
      </trkpt>
<trkpt lat="47.534680" lon="19.022923">
        <ele>241.4</ele>
      </trkpt>
<trkpt lat="47.534703" lon="19.022711">
        <ele>248</ele>
      </trkpt>
<trkpt lat="47.534986" lon="19.022420">
        <ele>256.4</ele>
      </trkpt>
<trkpt lat="47.535118" lon="19.022226">
        <ele>264</ele>
      </trkpt>
<trkpt lat="47.535277" lon="19.022118">
        <ele>271.6</ele>
      </trkpt>
<trkpt lat="47.535420" lon="19.021745">
        <ele>279.6</ele>
      </trkpt>
<trkpt lat="47.535477" lon="19.020992">
        <ele>284.8</ele>
      </trkpt>
<trkpt lat="47.535445" lon="19.020486">
        <ele>284.2</ele>
      </trkpt>
<trkpt lat="47.535502" lon="19.020035">
        <ele>280.4</ele>
      </trkpt>
<trkpt lat="47.536425" lon="19.018960">
        <ele>276.6</ele>
      </trkpt>
<trkpt lat="47.536591" lon="19.018725">
        <ele>272.4</ele>
      </trkpt>
<trkpt lat="47.536599" lon="19.018617">
        <ele>268.8</ele>
      </trkpt>
<trkpt lat="47.536938" lon="19.018330">
        <ele>268.2</ele>
      </trkpt>
<trkpt lat="47.536911" lon="19.018020">
        <ele>267.6</ele>
      </trkpt>
<trkpt lat="47.537011" lon="19.017834">
        <ele>267</ele>
      </trkpt>
<trkpt lat="47.537197" lon="19.017741">
        <ele>266.4</ele>
      </trkpt>
<trkpt lat="47.537369" lon="19.017896">
        <ele>268</ele>
      </trkpt>
<trkpt lat="47.537504" lon="19.017860">
        <ele>268</ele>
      </trkpt>
<trkpt lat="47.537676" lon="19.017405">
        <ele>270.8</ele>
      </trkpt>
<trkpt lat="47.537757" lon="19.017355">
        <ele>273.6</ele>
      </trkpt>
<trkpt lat="47.537892" lon="19.017671">
        <ele>277.4</ele>
      </trkpt>
<trkpt lat="47.538236" lon="19.017641">
        <ele>281.2</ele>
      </trkpt>
<trkpt lat="47.538695" lon="19.017300">
        <ele>286.6</ele>
      </trkpt>
<trkpt lat="47.539052" lon="19.016533">
        <ele>289.2</ele>
      </trkpt>
<trkpt lat="47.539199" lon="19.016401">
        <ele>296.4</ele>
      </trkpt>
<trkpt lat="47.539764" lon="19.016245">
        <ele>304.2</ele>
      </trkpt>
<trkpt lat="47.540146" lon="19.015844">
        <ele>312</ele>
      </trkpt>
<trkpt lat="47.540423" lon="19.015318">
        <ele>319.6</ele>
      </trkpt>
<trkpt lat="47.541294" lon="19.014274">
        <ele>327.4</ele>
      </trkpt>
<trkpt lat="47.541465" lon="19.013881">
        <ele>330.6</ele>
      </trkpt>
<trkpt lat="47.541615" lon="19.013086">
        <ele>332.2</ele>
      </trkpt>
<trkpt lat="47.541685" lon="19.012433">
        <ele>333.2</ele>
      </trkpt>
<trkpt lat="47.541766" lon="19.011874">
        <ele>332.8</ele>
      </trkpt>
<trkpt lat="47.541995" lon="19.011478">
        <ele>331</ele>
      </trkpt>
<trkpt lat="47.541874" lon="19.011051">
        <ele>328.6</ele>
      </trkpt>
<trkpt lat="47.541705" lon="19.010826">
        <ele>324.4</ele>
      </trkpt>
<trkpt lat="47.541614" lon="19.010215">
        <ele>320.8</ele>
      </trkpt>
<trkpt lat="47.541743" lon="19.009170">
        <ele>317.2</ele>
      </trkpt>
<trkpt lat="47.541827" lon="19.008657">
        <ele>310.6</ele>
      </trkpt>
<trkpt lat="47.541583" lon="19.008130">
        <ele>304.6</ele>
      </trkpt>
<trkpt lat="47.541494" lon="19.008098">
        <ele>300.4</ele>
      </trkpt>
<trkpt lat="47.540996" lon="19.007502">
        <ele>296.2</ele>
      </trkpt>
<trkpt lat="47.540759" lon="19.007292">
        <ele>291.8</ele>
      </trkpt>
<trkpt lat="47.540663" lon="19.007169">
        <ele>291.6</ele>
      </trkpt>
<trkpt lat="47.540615" lon="19.007107">
        <ele>292</ele>
      </trkpt>
<trkpt lat="47.540587" lon="19.006613">
        <ele>292.4</ele>
      </trkpt>
<trkpt lat="47.540535" lon="19.006578">
        <ele>292.8</ele>
      </trkpt>
<trkpt lat="47.540407" lon="19.006505">
        <ele>293.4</ele>
      </trkpt>
<trkpt lat="47.540256" lon="19.006409">
        <ele>294</ele>
      </trkpt>
<trkpt lat="47.540184" lon="19.006380">
        <ele>294</ele>
      </trkpt>
<trkpt lat="47.540170" lon="19.006426">
        <ele>294.4</ele>
      </trkpt>
<trkpt lat="47.539948" lon="19.006626">
        <ele>299.6</ele>
      </trkpt>
<trkpt lat="47.539875" lon="19.006510">
        <ele>304.4</ele>
      </trkpt>
<trkpt lat="47.539759" lon="19.006180">
        <ele>310.2</ele>
      </trkpt>
<trkpt lat="47.539573" lon="19.005662">
        <ele>316</ele>
      </trkpt>
<trkpt lat="47.539338" lon="19.004982">
        <ele>320.8</ele>
      </trkpt>
<trkpt lat="47.539328" lon="19.004333">
        <ele>324.4</ele>
      </trkpt>
<trkpt lat="47.539265" lon="19.003959">
        <ele>328.4</ele>
      </trkpt>
<trkpt lat="47.538818" lon="19.005456">
        <ele>330.4</ele>
      </trkpt>
<trkpt lat="47.538591" lon="19.006627">
        <ele>332.4</ele>
      </trkpt>
<trkpt lat="47.538455" lon="19.006997">
        <ele>336.4</ele>
      </trkpt>
<trkpt lat="47.538254" lon="19.007202">
        <ele>337.8</ele>
      </trkpt>
<trkpt lat="47.538035" lon="19.007177">
        <ele>339.2</ele>
      </trkpt>
<trkpt lat="47.537840" lon="19.006918">
        <ele>341.8</ele>
      </trkpt>
<trkpt lat="47.537625" lon="19.006127">
        <ele>344.4</ele>
      </trkpt>
<trkpt lat="47.537615" lon="19.005678">
        <ele>345.6</ele>
      </trkpt>
<trkpt lat="47.537684" lon="19.005368">
        <ele>346.6</ele>
      </trkpt>
<trkpt lat="47.537910" lon="19.004750">
        <ele>346.2</ele>
      </trkpt>
<trkpt lat="47.537893" lon="19.004616">
        <ele>345.6</ele>
      </trkpt>
<trkpt lat="47.537864" lon="19.004580">
        <ele>346.4</ele>
      </trkpt>
<trkpt lat="47.536990" lon="19.004224">
        <ele>347.2</ele>
      </trkpt>
<trkpt lat="47.536817" lon="19.003935">
        <ele>347.6</ele>
      </trkpt>
<trkpt lat="47.536782" lon="19.003729">
        <ele>349.4</ele>
      </trkpt>
<trkpt lat="47.536857" lon="19.003264">
        <ele>353</ele>
      </trkpt>
<trkpt lat="47.536918" lon="19.002627">
        <ele>355.2</ele>
      </trkpt>
<trkpt lat="47.536816" lon="19.002177">
        <ele>359</ele>
      </trkpt>
<trkpt lat="47.536751" lon="19.001975">
        <ele>362.4</ele>
      </trkpt>
<trkpt lat="47.536445" lon="19.001380">
        <ele>365.8</ele>
      </trkpt>
<trkpt lat="47.536325" lon="19.000858">
        <ele>367.2</ele>
      </trkpt>
<trkpt lat="47.536360" lon="19.000627">
        <ele>368.6</ele>
      </trkpt>
<trkpt lat="47.536330" lon="19.000431">
        <ele>368.4</ele>
      </trkpt>
<trkpt lat="47.536126" lon="19.000334">
        <ele>368.2</ele>
      </trkpt>
<trkpt lat="47.536022" lon="19.000357">
        <ele>364.8</ele>
      </trkpt>
<trkpt lat="47.535921" lon="19.000376">
        <ele>361.6</ele>
      </trkpt>
<trkpt lat="47.535574" lon="19.000184">
        <ele>358.4</ele>
      </trkpt>
<trkpt lat="47.535322" lon="19.000166">
        <ele>355.8</ele>
      </trkpt>
<trkpt lat="47.535256" lon="18.999849">
        <ele>354.2</ele>
      </trkpt>
<trkpt lat="47.535225" lon="18.999720">
        <ele>355.8</ele>
      </trkpt>
<trkpt lat="47.535127" lon="18.999370">
        <ele>354.2</ele>
      </trkpt>
<trkpt lat="47.534924" lon="18.998677">
        <ele>353.2</ele>
      </trkpt>
<trkpt lat="47.534841" lon="18.998534">
        <ele>351.6</ele>
      </trkpt>
<trkpt lat="47.534407" lon="18.998226">
        <ele>347.4</ele>
      </trkpt>
<trkpt lat="47.534103" lon="18.997765">
        <ele>343.2</ele>
      </trkpt>
<trkpt lat="47.533849" lon="18.997175">
        <ele>337.4</ele>
      </trkpt>
<trkpt lat="47.533871" lon="18.996963">
        <ele>331</ele>
      </trkpt>
<trkpt lat="47.534073" lon="18.996449">
        <ele>324.6</ele>
      </trkpt>
<trkpt lat="47.534784" lon="18.995077">
        <ele>315.4</ele>
      </trkpt>
<trkpt lat="47.534849" lon="18.995023">
        <ele>306.2</ele>
      </trkpt>
<trkpt lat="47.534999" lon="18.994977">
        <ele>305.2</ele>
      </trkpt>
<trkpt lat="47.535302" lon="18.994568">
        <ele>300.8</ele>
      </trkpt>
<trkpt lat="47.535392" lon="18.994468">
        <ele>296.4</ele>
      </trkpt>
<trkpt lat="47.535510" lon="18.994276">
        <ele>296.4</ele>
      </trkpt>
<trkpt lat="47.535297" lon="18.994079">
        <ele>293.4</ele>
      </trkpt>
<trkpt lat="47.535072" lon="18.993934">
        <ele>286</ele>
      </trkpt>
<trkpt lat="47.534993" lon="18.993791">
        <ele>282</ele>
      </trkpt>
<trkpt lat="47.534791" lon="18.993114">
        <ele>278</ele>
      </trkpt>
<trkpt lat="47.534725" lon="18.992911">
        <ele>274</ele>
      </trkpt>
<trkpt lat="47.534634" lon="18.992732">
        <ele>271.8</ele>
      </trkpt>
<trkpt lat="47.534604" lon="18.992554">
        <ele>270.6</ele>
      </trkpt>
<trkpt lat="47.534626" lon="18.992143">
        <ele>269.4</ele>
      </trkpt>
<trkpt lat="47.534778" lon="18.991873">
        <ele>266</ele>
      </trkpt>
<trkpt lat="47.534812" lon="18.991649">
        <ele>262.6</ele>
      </trkpt>
<trkpt lat="47.534762" lon="18.991280">
        <ele>257.2</ele>
      </trkpt>
<trkpt lat="47.534773" lon="18.990832">
        <ele>251.8</ele>
      </trkpt>
<trkpt lat="47.534857" lon="18.990690">
        <ele>248.2</ele>
      </trkpt>
<trkpt lat="47.534867" lon="18.990412">
        <ele>246.8</ele>
      </trkpt>
<trkpt lat="47.534626" lon="18.990205">
        <ele>245.4</ele>
      </trkpt>
<trkpt lat="47.534229" lon="18.989363">
        <ele>247.2</ele>
      </trkpt>
<trkpt lat="47.534128" lon="18.989260">
        <ele>244.6</ele>
      </trkpt>
<trkpt lat="47.534044" lon="18.989103">
        <ele>241.4</ele>
      </trkpt>
<trkpt lat="47.533954" lon="18.988750">
        <ele>240.6</ele>
      </trkpt>
<trkpt lat="47.533820" lon="18.988477">
        <ele>239.8</ele>
      </trkpt>
<trkpt lat="47.533063" lon="18.987587">
        <ele>232.2</ele>
      </trkpt>
<trkpt lat="47.532669" lon="18.986905">
        <ele>229</ele>
      </trkpt>
<trkpt lat="47.532512" lon="18.986633">
        <ele>230.2</ele>
      </trkpt>
<trkpt lat="47.532022" lon="18.986182">
        <ele>223.4</ele>
      </trkpt>
<trkpt lat="47.531843" lon="18.986199">
        <ele>222.2</ele>
      </trkpt>
<trkpt lat="47.531658" lon="18.986334">
        <ele>227.8</ele>
      </trkpt>
<trkpt lat="47.531591" lon="18.986158">
        <ele>232.2</ele>
      </trkpt>
<trkpt lat="47.531658" lon="18.986334">
        <ele>231</ele>
      </trkpt>
<trkpt lat="47.531410" lon="18.986781">
        <ele>235.4</ele>
      </trkpt>
<trkpt lat="47.531124" lon="18.987129">
        <ele>234.2</ele>
      </trkpt>
<trkpt lat="47.531100" lon="18.987268">
        <ele>233.8</ele>
      </trkpt>
<trkpt lat="47.531134" lon="18.987444">
        <ele>234.6</ele>
      </trkpt>
<trkpt lat="47.531034" lon="18.987558">
        <ele>234.8</ele>
      </trkpt>
<trkpt lat="47.530555" lon="18.989952">
        <ele>235.2</ele>
      </trkpt>
<trkpt lat="47.530540" lon="18.990201">
        <ele>235</ele>
      </trkpt>
<trkpt lat="47.530528" lon="18.990707">
        <ele>234.4</ele>
      </trkpt>
<trkpt lat="47.530529" lon="18.992143">
        <ele>231.2</ele>
      </trkpt>
<trkpt lat="47.530523" lon="18.993204">
        <ele>230</ele>
      </trkpt>
<trkpt lat="47.530515" lon="18.994596">
        <ele>229.4</ele>
      </trkpt>
<trkpt lat="47.530413" lon="18.995053">
        <ele>229.4</ele>
      </trkpt>
<trkpt lat="47.529915" lon="18.996626">
        <ele>228.2</ele>
      </trkpt>
<trkpt lat="47.529764" lon="18.997112">
        <ele>229.6</ele>
      </trkpt>
<trkpt lat="47.529706" lon="18.997308">
        <ele>229.6</ele>
      </trkpt>
<trkpt lat="47.529249" lon="18.998763">
        <ele>228.4</ele>
      </trkpt>
<trkpt lat="47.529088" lon="18.999057">
        <ele>227.2</ele>
      </trkpt>
<trkpt lat="47.528902" lon="18.999221">
        <ele>226.8</ele>
      </trkpt>
<trkpt lat="47.528497" lon="18.999238">
        <ele>225.2</ele>
      </trkpt>
<trkpt lat="47.528492" lon="18.999188">
        <ele>225.2</ele>
      </trkpt>
<trkpt lat="47.528326" lon="18.999073">
        <ele>223.6</ele>
      </trkpt>
<trkpt lat="47.528145" lon="18.998599">
        <ele>222.4</ele>
      </trkpt>
<trkpt lat="47.527889" lon="18.998000">
        <ele>221.2</ele>
      </trkpt>
<trkpt lat="47.527510" lon="18.997576">
        <ele>221.2</ele>
      </trkpt>
<trkpt lat="47.526957" lon="18.997236">
        <ele>218.6</ele>
      </trkpt>
<trkpt lat="47.526573" lon="18.997153">
        <ele>218</ele>
      </trkpt>
<trkpt lat="47.526316" lon="18.997183">
        <ele>220</ele>
      </trkpt>
<trkpt lat="47.525976" lon="18.997329">
        <ele>222</ele>
      </trkpt>
<trkpt lat="47.526093" lon="18.997603">
        <ele>226</ele>
      </trkpt>
<trkpt lat="47.526609" lon="18.998202">
        <ele>231</ele>
      </trkpt>
<trkpt lat="47.526442" lon="18.998639">
        <ele>236</ele>
      </trkpt>
<trkpt lat="47.526482" lon="18.998950">
        <ele>238</ele>
      </trkpt>
<trkpt lat="47.526553" lon="18.999013">
        <ele>240</ele>
      </trkpt>
<trkpt lat="47.526744" lon="18.998950">
        <ele>241</ele>
      </trkpt>
<trkpt lat="47.526965" lon="18.998991">
        <ele>242</ele>
      </trkpt>
<trkpt lat="47.527008" lon="18.999080">
        <ele>244.2</ele>
      </trkpt>
<trkpt lat="47.526741" lon="18.999826">
        <ele>246</ele>
      </trkpt>
<trkpt lat="47.526739" lon="19.000181">
        <ele>248.6</ele>
      </trkpt>
<trkpt lat="47.526802" lon="19.000439">
        <ele>250.2</ele>
      </trkpt>
<trkpt lat="47.527316" lon="19.001602">
        <ele>251.8</ele>
      </trkpt>
<trkpt lat="47.527983" lon="19.002311">
        <ele>252.2</ele>
      </trkpt>
<trkpt lat="47.528279" lon="19.002322">
        <ele>254.4</ele>
      </trkpt>
<trkpt lat="47.528226" lon="19.002660">
        <ele>255.8</ele>
      </trkpt>
<trkpt lat="47.528156" lon="19.002790">
        <ele>256.8</ele>
      </trkpt>
<trkpt lat="47.527053" lon="19.004634">
        <ele>258</ele>
      </trkpt>
<trkpt lat="47.526751" lon="19.005974">
        <ele>258.6</ele>
      </trkpt>
<trkpt lat="47.526808" lon="19.006406">
        <ele>257.8</ele>
      </trkpt>
<trkpt lat="47.527494" lon="19.007617">
        <ele>257.6</ele>
      </trkpt>
<trkpt lat="47.526881" lon="19.008091">
        <ele>257.2</ele>
      </trkpt>
<trkpt lat="47.526645" lon="19.008579">
        <ele>256.6</ele>
      </trkpt>
<trkpt lat="47.526833" lon="19.008912">
        <ele>256.8</ele>
      </trkpt>
<trkpt lat="47.526895" lon="19.010705">
        <ele>257</ele>
      </trkpt>
<trkpt lat="47.526702" lon="19.011211">
        <ele>257</ele>
      </trkpt>
<trkpt lat="47.526548" lon="19.011838">
        <ele>256.8</ele>
      </trkpt>
<trkpt lat="47.526771" lon="19.012020">
        <ele>257.4</ele>
      </trkpt>
<trkpt lat="47.526995" lon="19.012101">
        <ele>257.8</ele>
      </trkpt>
<trkpt lat="47.527084" lon="19.012256">
        <ele>257.8</ele>
      </trkpt>
<trkpt lat="47.526920" lon="19.012778">
        <ele>256.4</ele>
      </trkpt>
<trkpt lat="47.526823" lon="19.012904">
        <ele>256.2</ele>
      </trkpt>
<trkpt lat="47.527141" lon="19.013617">
        <ele>253.6</ele>
      </trkpt>
<trkpt lat="47.527195" lon="19.013905">
        <ele>252.6</ele>
      </trkpt>
<trkpt lat="47.527066" lon="19.014764">
        <ele>252</ele>
      </trkpt>
<trkpt lat="47.527089" lon="19.015516">
        <ele>251.4</ele>
      </trkpt>
<trkpt lat="47.526998" lon="19.016304">
        <ele>250.4</ele>
      </trkpt>
<trkpt lat="47.527054" lon="19.016762">
        <ele>251</ele>
      </trkpt>
<trkpt lat="47.526995" lon="19.017495">
        <ele>250</ele>
      </trkpt>
<trkpt lat="47.526930" lon="19.017789">
        <ele>249</ele>
      </trkpt>
<trkpt lat="47.527000" lon="19.017757">
        <ele>247.2</ele>
      </trkpt>
<trkpt lat="47.526930" lon="19.017789">
        <ele>243.4</ele>
      </trkpt>
<trkpt lat="47.526910" lon="19.017862">
        <ele>238.6</ele>
      </trkpt>
<trkpt lat="47.526627" lon="19.019219">
        <ele>233.8</ele>
      </trkpt>
<trkpt lat="47.526640" lon="19.020391">
        <ele>228.6</ele>
      </trkpt>
<trkpt lat="47.526684" lon="19.021465">
        <ele>223.8</ele>
      </trkpt>
<trkpt lat="47.526593" lon="19.021729">
        <ele>221</ele>
      </trkpt>
<trkpt lat="47.525631" lon="19.022851">
        <ele>219.2</ele>
      </trkpt>
<trkpt lat="47.525178" lon="19.023828">
        <ele>217.4</ele>
      </trkpt>
<trkpt lat="47.525153" lon="19.023865">
        <ele>215.2</ele>
      </trkpt>
<trkpt lat="47.525126" lon="19.023898">
        <ele>214.8</ele>
      </trkpt>
<trkpt lat="47.525184" lon="19.023999">
        <ele>215.6</ele>
      </trkpt>
<trkpt lat="47.525427" lon="19.024371">
        <ele>216.4</ele>
      </trkpt>
<trkpt lat="47.524916" lon="19.024903">
        <ele>217.6</ele>
      </trkpt>
<trkpt lat="47.524365" lon="19.025532">
        <ele>219.6</ele>
      </trkpt>
<trkpt lat="47.524100" lon="19.025979">
        <ele>221</ele>
      </trkpt>
<trkpt lat="47.523874" lon="19.026591">
        <ele>221</ele>
      </trkpt>
<trkpt lat="47.523766" lon="19.026868">
        <ele>221</ele>
      </trkpt>
<trkpt lat="47.523742" lon="19.026925">
        <ele>220.6</ele>
      </trkpt>
<trkpt lat="47.523557" lon="19.027335">
        <ele>218.4</ele>
      </trkpt>
<trkpt lat="47.523455" lon="19.027504">
        <ele>215.6</ele>
      </trkpt>
<trkpt lat="47.522971" lon="19.027605">
        <ele>213</ele>
      </trkpt>
<trkpt lat="47.522897" lon="19.027803">
        <ele>207.2</ele>
      </trkpt>
<trkpt lat="47.522907" lon="19.027953">
        <ele>201</ele>
      </trkpt>
<trkpt lat="47.522636" lon="19.028724">
        <ele>195.2</ele>
      </trkpt>
<trkpt lat="47.522150" lon="19.030095">
        <ele>187.6</ele>
      </trkpt>
<trkpt lat="47.521788" lon="19.029856">
        <ele>178.4</ele>
      </trkpt>
<trkpt lat="47.522198" lon="19.030871">
        <ele>172.4</ele>
      </trkpt>
<trkpt lat="47.522558" lon="19.032323">
        <ele>166.8</ele>
      </trkpt>
<trkpt lat="47.522662" lon="19.032961">
        <ele>161.6</ele>
      </trkpt>
<trkpt lat="47.522589" lon="19.033052">
        <ele>157.8</ele>
      </trkpt>
<trkpt lat="47.522509" lon="19.033050">
        <ele>155.2</ele>
      </trkpt>
<trkpt lat="47.521974" lon="19.032501">
        <ele>148.4</ele>
      </trkpt>
<trkpt lat="47.521622" lon="19.033005">
        <ele>142</ele>
      </trkpt>
<trkpt lat="47.521117" lon="19.033552">
        <ele>133.2</ele>
      </trkpt>
<trkpt lat="47.521236" lon="19.034603">
        <ele>125.4</ele>
      </trkpt>
<trkpt lat="47.521290" lon="19.035077">
        <ele>119.75</ele>
      </trkpt>
<trkpt lat="47.521290" lon="19.035852">
        <ele>117.33333333333</ele>
      </trkpt>
<trkpt lat="47.521302" lon="19.036955">
        <ele>111.5</ele>
      </trkpt>
</trkseg>
</trk>
</gpx>



