<?xml version="1.0" encoding="UTF-8"?>
<gpx xmlns="http://www.topografix.com/GPX/1/1" creator="turistautak.openstreetmap.hu" version="1.1" xmlns:xsi="http://www.w3.org/2001/XMLSchema-instance" xsi:schemaLocation="http://www.garmin.com/xmlschemas/GpxExtensions/v3 http://www.garmin.com/xmlschemas/GpxExtensions/v3/GpxExtensionsv3.xsd http://www.topografix.com/GPX/1/1 http://www.topografix.com/GPX/1/1/gpx.xsd">
	<metadata>
		<name>15168905446kdn útvonal</name>
		<desc>15168905446kdn útvonal</desc>
	</metadata>
<trk>
  <name>utv</name>
<trkseg><trkpt lat="47.529819" lon="18.868735">
        <ele>299.5</ele>
      </trkpt>
<trkpt lat="47.529743" lon="18.868723">
        <ele>300.8</ele>
      </trkpt>
<trkpt lat="47.529754" lon="18.868588">
        <ele>304</ele>
      </trkpt>
<trkpt lat="47.530546" lon="18.868234">
        <ele>308.4</ele>
      </trkpt>
<trkpt lat="47.531965" lon="18.867304">
        <ele>312.8</ele>
      </trkpt>
<trkpt lat="47.533231" lon="18.866768">
        <ele>316.8</ele>
      </trkpt>
<trkpt lat="47.534044" lon="18.866411">
        <ele>320.6</ele>
      </trkpt>
<trkpt lat="47.534113" lon="18.866328">
        <ele>323.4</ele>
      </trkpt>
<trkpt lat="47.534336" lon="18.865695">
        <ele>325</ele>
      </trkpt>
<trkpt lat="47.534571" lon="18.865302">
        <ele>326.6</ele>
      </trkpt>
<trkpt lat="47.534920" lon="18.865042">
        <ele>329.4</ele>
      </trkpt>
<trkpt lat="47.535274" lon="18.864907">
        <ele>332.8</ele>
      </trkpt>
<trkpt lat="47.535347" lon="18.864901">
        <ele>337</ele>
      </trkpt>
<trkpt lat="47.536069" lon="18.864261">
        <ele>342.6</ele>
      </trkpt>
<trkpt lat="47.536453" lon="18.864007">
        <ele>348.2</ele>
      </trkpt>
<trkpt lat="47.537738" lon="18.863316">
        <ele>352.6</ele>
      </trkpt>
<trkpt lat="47.537948" lon="18.863189">
        <ele>357.6</ele>
      </trkpt>
<trkpt lat="47.538121" lon="18.863199">
        <ele>361</ele>
      </trkpt>
<trkpt lat="47.538517" lon="18.863178">
        <ele>363</ele>
      </trkpt>
<trkpt lat="47.538890" lon="18.862974">
        <ele>365</ele>
      </trkpt>
<trkpt lat="47.539074" lon="18.862995">
        <ele>369</ele>
      </trkpt>
<trkpt lat="47.539297" lon="18.863291">
        <ele>370.2</ele>
      </trkpt>
<trkpt lat="47.539536" lon="18.863650">
        <ele>371.4</ele>
      </trkpt>
<trkpt lat="47.539625" lon="18.863743">
        <ele>372.6</ele>
      </trkpt>
<trkpt lat="47.539993" lon="18.863972">
        <ele>373.4</ele>
      </trkpt>
<trkpt lat="47.540287" lon="18.864091">
        <ele>372.2</ele>
      </trkpt>
<trkpt lat="47.540367" lon="18.864319">
        <ele>371.8</ele>
      </trkpt>
<trkpt lat="47.540361" lon="18.864661">
        <ele>374.2</ele>
      </trkpt>
<trkpt lat="47.540254" lon="18.865175">
        <ele>376.6</ele>
      </trkpt>
<trkpt lat="47.540362" lon="18.865826">
        <ele>383</ele>
      </trkpt>
<trkpt lat="47.540690" lon="18.866471">
        <ele>388.6</ele>
      </trkpt>
<trkpt lat="47.541083" lon="18.866694">
        <ele>398</ele>
      </trkpt>
<trkpt lat="47.541403" lon="18.867008">
        <ele>405.4</ele>
      </trkpt>
<trkpt lat="47.541778" lon="18.867211">
        <ele>412.8</ele>
      </trkpt>
<trkpt lat="47.542262" lon="18.867292">
        <ele>419.8</ele>
      </trkpt>
<trkpt lat="47.542626" lon="18.868209">
        <ele>427.6</ele>
      </trkpt>
<trkpt lat="47.542835" lon="18.868438">
        <ele>431.4</ele>
      </trkpt>
<trkpt lat="47.543244" lon="18.868537">
        <ele>434.4</ele>
      </trkpt>
<trkpt lat="47.543246" lon="18.868667">
        <ele>437.4</ele>
      </trkpt>
<trkpt lat="47.542453" lon="18.869066">
        <ele>434.8</ele>
      </trkpt>
<trkpt lat="47.542302" lon="18.869028">
        <ele>432.2</ele>
      </trkpt>
<trkpt lat="47.542111" lon="18.868762">
        <ele>429.8</ele>
      </trkpt>
<trkpt lat="47.542002" lon="18.868757">
        <ele>427.4</ele>
      </trkpt>
<trkpt lat="47.541912" lon="18.868883">
        <ele>426.8</ele>
      </trkpt>
<trkpt lat="47.541838" lon="18.869172">
        <ele>431.6</ele>
      </trkpt>
<trkpt lat="47.541861" lon="18.869336">
        <ele>436.4</ele>
      </trkpt>
<trkpt lat="47.542080" lon="18.870222">
        <ele>438.8</ele>
      </trkpt>
<trkpt lat="47.542197" lon="18.870238">
        <ele>443.6</ele>
      </trkpt>
<trkpt lat="47.542443" lon="18.869916">
        <ele>448.8</ele>
      </trkpt>
<trkpt lat="47.542770" lon="18.869568">
        <ele>455.2</ele>
      </trkpt>
<trkpt lat="47.542894" lon="18.869641">
        <ele>461.6</ele>
      </trkpt>
<trkpt lat="47.543001" lon="18.870058">
        <ele>469.2</ele>
      </trkpt>
<trkpt lat="47.543829" lon="18.870420">
        <ele>477.2</ele>
      </trkpt>
<trkpt lat="47.544000" lon="18.870420">
        <ele>483</ele>
      </trkpt>
<trkpt lat="47.544484" lon="18.870091">
        <ele>491.4</ele>
      </trkpt>
<trkpt lat="47.545039" lon="18.870056">
        <ele>505</ele>
      </trkpt>
<trkpt lat="47.545364" lon="18.869899">
        <ele>519.8</ele>
      </trkpt>
<trkpt lat="47.547245" lon="18.867946">
        <ele>531.8</ele>
      </trkpt>
<trkpt lat="47.548945" lon="18.865637">
        <ele>544.4</ele>
      </trkpt>
<trkpt lat="47.549531" lon="18.865780">
        <ele>550.2</ele>
      </trkpt>
<trkpt lat="47.550274" lon="18.866331">
        <ele>550.8</ele>
      </trkpt>
<trkpt lat="47.550694" lon="18.866302">
        <ele>551.4</ele>
      </trkpt>
<trkpt lat="47.550863" lon="18.866505">
        <ele>552.6</ele>
      </trkpt>
<trkpt lat="47.551005" lon="18.866395">
        <ele>553.2</ele>
      </trkpt>
<trkpt lat="47.551243" lon="18.866325">
        <ele>553.8</ele>
      </trkpt>
<trkpt lat="47.551300" lon="18.866110">
        <ele>554.4</ele>
      </trkpt>
<trkpt lat="47.551434" lon="18.865901">
        <ele>555.2</ele>
      </trkpt>
<trkpt lat="47.551445" lon="18.865742">
        <ele>555.4</ele>
      </trkpt>
<trkpt lat="47.551400" lon="18.865566">
        <ele>555.6</ele>
      </trkpt>
<trkpt lat="47.551554" lon="18.865386">
        <ele>555.8</ele>
      </trkpt>
<trkpt lat="47.551626" lon="18.865310">
        <ele>555.8</ele>
      </trkpt>
<trkpt lat="47.551694" lon="18.865222">
        <ele>555.6</ele>
      </trkpt>
<trkpt lat="47.551626" lon="18.865310">
        <ele>554</ele>
      </trkpt>
<trkpt lat="47.551709" lon="18.865506">
        <ele>551.6</ele>
      </trkpt>
<trkpt lat="47.551716" lon="18.866125">
        <ele>548.8</ele>
      </trkpt>
<trkpt lat="47.551367" lon="18.867317">
        <ele>546.2</ele>
      </trkpt>
<trkpt lat="47.552573" lon="18.867871">
        <ele>543.6</ele>
      </trkpt>
<trkpt lat="47.552942" lon="18.867790">
        <ele>538.8</ele>
      </trkpt>
<trkpt lat="47.553388" lon="18.867525">
        <ele>534.8</ele>
      </trkpt>
<trkpt lat="47.553708" lon="18.867507">
        <ele>532</ele>
      </trkpt>
<trkpt lat="47.554684" lon="18.866896">
        <ele>527.2</ele>
      </trkpt>
<trkpt lat="47.554951" lon="18.866838">
        <ele>522.2</ele>
      </trkpt>
<trkpt lat="47.555324" lon="18.867138">
        <ele>520.8</ele>
      </trkpt>
<trkpt lat="47.556130" lon="18.867737">
        <ele>519.4</ele>
      </trkpt>
<trkpt lat="47.556632" lon="18.868129">
        <ele>516.4</ele>
      </trkpt>
<trkpt lat="47.556812" lon="18.868165">
        <ele>515.4</ele>
      </trkpt>
<trkpt lat="47.556978" lon="18.868030">
        <ele>514.4</ele>
      </trkpt>
<trkpt lat="47.557246" lon="18.867680">
        <ele>513.4</ele>
      </trkpt>
<trkpt lat="47.557579" lon="18.867460">
        <ele>510.4</ele>
      </trkpt>
<trkpt lat="47.557918" lon="18.867411">
        <ele>508.2</ele>
      </trkpt>
<trkpt lat="47.558191" lon="18.867165">
        <ele>506</ele>
      </trkpt>
<trkpt lat="47.558819" lon="18.866930">
        <ele>501.8</ele>
      </trkpt>
<trkpt lat="47.559079" lon="18.866702">
        <ele>497.6</ele>
      </trkpt>
<trkpt lat="47.559270" lon="18.866750">
        <ele>495.4</ele>
      </trkpt>
<trkpt lat="47.559599" lon="18.866955">
        <ele>492.2</ele>
      </trkpt>
<trkpt lat="47.559717" lon="18.867002">
        <ele>489</ele>
      </trkpt>
<trkpt lat="47.560329" lon="18.866988">
        <ele>486.8</ele>
      </trkpt>
<trkpt lat="47.560418" lon="18.866882">
        <ele>484.6</ele>
      </trkpt>
<trkpt lat="47.560564" lon="18.866743">
        <ele>481</ele>
      </trkpt>
<trkpt lat="47.560881" lon="18.866219">
        <ele>476.4</ele>
      </trkpt>
<trkpt lat="47.561037" lon="18.865753">
        <ele>471.8</ele>
      </trkpt>
<trkpt lat="47.561499" lon="18.865449">
        <ele>464</ele>
      </trkpt>
<trkpt lat="47.562373" lon="18.865135">
        <ele>456.2</ele>
      </trkpt>
<trkpt lat="47.562826" lon="18.865134">
        <ele>449.8</ele>
      </trkpt>
<trkpt lat="47.563870" lon="18.864434">
        <ele>441.6</ele>
      </trkpt>
<trkpt lat="47.564394" lon="18.863622">
        <ele>431.6</ele>
      </trkpt>
<trkpt lat="47.564468" lon="18.863193">
        <ele>426</ele>
      </trkpt>
<trkpt lat="47.564753" lon="18.862694">
        <ele>419.4</ele>
      </trkpt>
<trkpt lat="47.564917" lon="18.861806">
        <ele>412.8</ele>
      </trkpt>
<trkpt lat="47.564696" lon="18.861304">
        <ele>411.2</ele>
      </trkpt>
<trkpt lat="47.564596" lon="18.860732">
        <ele>409.6</ele>
      </trkpt>
<trkpt lat="47.564687" lon="18.860530">
        <ele>407.6</ele>
      </trkpt>
<trkpt lat="47.566145" lon="18.859146">
        <ele>406.6</ele>
      </trkpt>
<trkpt lat="47.567891" lon="18.857539">
        <ele>405.6</ele>
      </trkpt>
<trkpt lat="47.568552" lon="18.856867">
        <ele>403.4</ele>
      </trkpt>
<trkpt lat="47.568584" lon="18.856779">
        <ele>403.8</ele>
      </trkpt>
<trkpt lat="47.568552" lon="18.856867">
        <ele>408.2</ele>
      </trkpt>
<trkpt lat="47.568529" lon="18.856714">
        <ele>414.2</ele>
      </trkpt>
<trkpt lat="47.568223" lon="18.856248">
        <ele>421.2</ele>
      </trkpt>
<trkpt lat="47.567088" lon="18.853364">
        <ele>429.2</ele>
      </trkpt>
<trkpt lat="47.566862" lon="18.853048">
        <ele>436.8</ele>
      </trkpt>
<trkpt lat="47.566445" lon="18.852895">
        <ele>440.8</ele>
      </trkpt>
<trkpt lat="47.566181" lon="18.852690">
        <ele>443</ele>
      </trkpt>
<trkpt lat="47.565779" lon="18.851971">
        <ele>444.2</ele>
      </trkpt>
<trkpt lat="47.565633" lon="18.851752">
        <ele>443.6</ele>
      </trkpt>
<trkpt lat="47.565316" lon="18.851236">
        <ele>442.4</ele>
      </trkpt>
<trkpt lat="47.564988" lon="18.850901">
        <ele>439.8</ele>
      </trkpt>
<trkpt lat="47.564151" lon="18.850482">
        <ele>437.4</ele>
      </trkpt>
<trkpt lat="47.563896" lon="18.850179">
        <ele>435</ele>
      </trkpt>
<trkpt lat="47.563497" lon="18.849451">
        <ele>433.4</ele>
      </trkpt>
<trkpt lat="47.563266" lon="18.849300">
        <ele>431.8</ele>
      </trkpt>
<trkpt lat="47.562831" lon="18.849299">
        <ele>430.4</ele>
      </trkpt>
<trkpt lat="47.562210" lon="18.849421">
        <ele>429</ele>
      </trkpt>
<trkpt lat="47.561305" lon="18.849416">
        <ele>427</ele>
      </trkpt>
<trkpt lat="47.560966" lon="18.849300">
        <ele>425</ele>
      </trkpt>
<trkpt lat="47.560708" lon="18.849351">
        <ele>421.6</ele>
      </trkpt>
<trkpt lat="47.560181" lon="18.849727">
        <ele>419.4</ele>
      </trkpt>
<trkpt lat="47.559932" lon="18.849778">
        <ele>417.2</ele>
      </trkpt>
<trkpt lat="47.559475" lon="18.849484">
        <ele>414.4</ele>
      </trkpt>
<trkpt lat="47.559242" lon="18.849469">
        <ele>410.8</ele>
      </trkpt>
<trkpt lat="47.559008" lon="18.849341">
        <ele>408.8</ele>
      </trkpt>
<trkpt lat="47.558210" lon="18.848583">
        <ele>406.8</ele>
      </trkpt>
<trkpt lat="47.557879" lon="18.848268">
        <ele>405</ele>
      </trkpt>
<trkpt lat="47.557415" lon="18.848034">
        <ele>404.2</ele>
      </trkpt>
<trkpt lat="47.557426" lon="18.847918">
        <ele>404.2</ele>
      </trkpt>
<trkpt lat="47.557495" lon="18.847855">
        <ele>403.8</ele>
      </trkpt>
<trkpt lat="47.557426" lon="18.847918">
        <ele>403.4</ele>
      </trkpt>
<trkpt lat="47.557415" lon="18.848034">
        <ele>403</ele>
      </trkpt>
<trkpt lat="47.557003" lon="18.848157">
        <ele>402.8</ele>
      </trkpt>
<trkpt lat="47.556886" lon="18.848010">
        <ele>402.6</ele>
      </trkpt>
<trkpt lat="47.556818" lon="18.847759">
        <ele>404</ele>
      </trkpt>
<trkpt lat="47.556564" lon="18.847385">
        <ele>405.4</ele>
      </trkpt>
<trkpt lat="47.556351" lon="18.847324">
        <ele>407.2</ele>
      </trkpt>
<trkpt lat="47.554878" lon="18.847374">
        <ele>409</ele>
      </trkpt>
<trkpt lat="47.554592" lon="18.847175">
        <ele>412.2</ele>
      </trkpt>
<trkpt lat="47.554456" lon="18.846861">
        <ele>414.2</ele>
      </trkpt>
<trkpt lat="47.554476" lon="18.846509">
        <ele>417</ele>
      </trkpt>
<trkpt lat="47.554635" lon="18.846197">
        <ele>419.2</ele>
      </trkpt>
<trkpt lat="47.555040" lon="18.845634">
        <ele>421.4</ele>
      </trkpt>
<trkpt lat="47.555142" lon="18.845371">
        <ele>422.6</ele>
      </trkpt>
<trkpt lat="47.555170" lon="18.845112">
        <ele>423.8</ele>
      </trkpt>
<trkpt lat="47.555103" lon="18.844801">
        <ele>422.2</ele>
      </trkpt>
<trkpt lat="47.554692" lon="18.844164">
        <ele>418.8</ele>
      </trkpt>
<trkpt lat="47.554565" lon="18.844010">
        <ele>415.4</ele>
      </trkpt>
<trkpt lat="47.553395" lon="18.842217">
        <ele>408.2</ele>
      </trkpt>
<trkpt lat="47.552814" lon="18.841555">
        <ele>396.4</ele>
      </trkpt>
<trkpt lat="47.552498" lon="18.841517">
        <ele>382.8</ele>
      </trkpt>
<trkpt lat="47.550597" lon="18.842310">
        <ele>370.6</ele>
      </trkpt>
<trkpt lat="47.547929" lon="18.844185">
        <ele>356</ele>
      </trkpt>
<trkpt lat="47.547010" lon="18.844831">
        <ele>344.8</ele>
      </trkpt>
<trkpt lat="47.546371" lon="18.845455">
        <ele>336.2</ele>
      </trkpt>
<trkpt lat="47.544956" lon="18.847286">
        <ele>331.4</ele>
      </trkpt>
<trkpt lat="47.544691" lon="18.847687">
        <ele>326</ele>
      </trkpt>
<trkpt lat="47.544166" lon="18.848225">
        <ele>321.8</ele>
      </trkpt>
<trkpt lat="47.543983" lon="18.848373">
        <ele>317.6</ele>
      </trkpt>
<trkpt lat="47.543454" lon="18.848592">
        <ele>315.2</ele>
      </trkpt>
<trkpt lat="47.542742" lon="18.848686">
        <ele>313</ele>
      </trkpt>
<trkpt lat="47.542651" lon="18.848698">
        <ele>312.8</ele>
      </trkpt>
<trkpt lat="47.542813" lon="18.848970">
        <ele>314.8</ele>
      </trkpt>
<trkpt lat="47.543265" lon="18.849398">
        <ele>316.2</ele>
      </trkpt>
<trkpt lat="47.543311" lon="18.849678">
        <ele>317.8</ele>
      </trkpt>
<trkpt lat="47.542927" lon="18.850565">
        <ele>319.8</ele>
      </trkpt>
<trkpt lat="47.542670" lon="18.850815">
        <ele>321.8</ele>
      </trkpt>
<trkpt lat="47.542094" lon="18.850933">
        <ele>322.6</ele>
      </trkpt>
<trkpt lat="47.541119" lon="18.851970">
        <ele>324</ele>
      </trkpt>
<trkpt lat="47.540418" lon="18.853110">
        <ele>325.2</ele>
      </trkpt>
<trkpt lat="47.539816" lon="18.853813">
        <ele>326.8</ele>
      </trkpt>
<trkpt lat="47.539592" lon="18.854136">
        <ele>326.6</ele>
      </trkpt>
<trkpt lat="47.539043" lon="18.854453">
        <ele>326.6</ele>
      </trkpt>
<trkpt lat="47.538760" lon="18.854892">
        <ele>326.6</ele>
      </trkpt>
<trkpt lat="47.538659" lon="18.854972">
        <ele>326.8</ele>
      </trkpt>
<trkpt lat="47.538356" lon="18.854944">
        <ele>326.6</ele>
      </trkpt>
<trkpt lat="47.538216" lon="18.855129">
        <ele>326.8</ele>
      </trkpt>
<trkpt lat="47.538183" lon="18.855275">
        <ele>327.8</ele>
      </trkpt>
<trkpt lat="47.538137" lon="18.855547">
        <ele>331.4</ele>
      </trkpt>
<trkpt lat="47.537709" lon="18.856840">
        <ele>335</ele>
      </trkpt>
<trkpt lat="47.537442" lon="18.857759">
        <ele>336.8</ele>
      </trkpt>
<trkpt lat="47.536866" lon="18.859589">
        <ele>339</ele>
      </trkpt>
<trkpt lat="47.536682" lon="18.860177">
        <ele>340.4</ele>
      </trkpt>
<trkpt lat="47.536178" lon="18.861993">
        <ele>338.6</ele>
      </trkpt>
<trkpt lat="47.535997" lon="18.862545">
        <ele>335.6</ele>
      </trkpt>
<trkpt lat="47.535654" lon="18.863587">
        <ele>333.8</ele>
      </trkpt>
<trkpt lat="47.535580" lon="18.863951">
        <ele>331.2</ele>
      </trkpt>
<trkpt lat="47.535274" lon="18.864907">
        <ele>327.8</ele>
      </trkpt>
<trkpt lat="47.534920" lon="18.865042">
        <ele>325</ele>
      </trkpt>
<trkpt lat="47.534571" lon="18.865302">
        <ele>323.4</ele>
      </trkpt>
<trkpt lat="47.534336" lon="18.865695">
        <ele>320.6</ele>
      </trkpt>
<trkpt lat="47.534113" lon="18.866328">
        <ele>316.8</ele>
      </trkpt>
<trkpt lat="47.534044" lon="18.866411">
        <ele>312.8</ele>
      </trkpt>
<trkpt lat="47.533231" lon="18.866768">
        <ele>308.4</ele>
      </trkpt>
<trkpt lat="47.531965" lon="18.867304">
        <ele>304</ele>
      </trkpt>
<trkpt lat="47.530546" lon="18.868234">
        <ele>300.8</ele>
      </trkpt>
<trkpt lat="47.529754" lon="18.868588">
        <ele>299.4</ele>
      </trkpt>
<trkpt lat="47.529743" lon="18.868723">
        <ele>299</ele>
      </trkpt>
<trkpt lat="47.529904" lon="18.868748">
        <ele>299</ele>
      </trkpt>
<trkpt lat="47.529893" lon="18.868880">
        <ele>299</ele>
      </trkpt>
<trkpt lat="47.529865" lon="18.869043">
        <ele>299</ele>
      </trkpt>
</trkseg>
</trk>
</gpx>



