<?xml version="1.0" encoding="UTF-8"?>
<gpx xmlns="http://www.topografix.com/GPX/1/1" creator="turistautak.openstreetmap.hu" version="1.1" xmlns:xsi="http://www.w3.org/2001/XMLSchema-instance" xsi:schemaLocation="http://www.garmin.com/xmlschemas/GpxExtensions/v3 http://www.garmin.com/xmlschemas/GpxExtensions/v3/GpxExtensionsv3.xsd http://www.topografix.com/GPX/1/1 http://www.topografix.com/GPX/1/1/gpx.xsd">
	<metadata>
		<name>1708418315lu4v útvonal</name>
		<desc>1708418315lu4v útvonal</desc>
	</metadata>
<trk>
  <name>utv</name>
<trkseg><trkpt lat="47.676913" lon="18.884775">
        <ele>302.75</ele>
      </trkpt>
<trkpt lat="47.677015" lon="18.884530">
        <ele>307.2</ele>
      </trkpt>
<trkpt lat="47.677479" lon="18.883741">
        <ele>313.4</ele>
      </trkpt>
<trkpt lat="47.677505" lon="18.883921">
        <ele>323.4</ele>
      </trkpt>
<trkpt lat="47.678270" lon="18.883679">
        <ele>329.8</ele>
      </trkpt>
<trkpt lat="47.678490" lon="18.883686">
        <ele>337.6</ele>
      </trkpt>
<trkpt lat="47.678834" lon="18.883589">
        <ele>345.8</ele>
      </trkpt>
<trkpt lat="47.679345" lon="18.883566">
        <ele>354</ele>
      </trkpt>
<trkpt lat="47.679547" lon="18.883357">
        <ele>364</ele>
      </trkpt>
<trkpt lat="47.679904" lon="18.883221">
        <ele>378.2</ele>
      </trkpt>
<trkpt lat="47.680303" lon="18.883071">
        <ele>398.2</ele>
      </trkpt>
<trkpt lat="47.680901" lon="18.882628">
        <ele>413.8</ele>
      </trkpt>
<trkpt lat="47.682106" lon="18.882084">
        <ele>427</ele>
      </trkpt>
<trkpt lat="47.681333" lon="18.881042">
        <ele>434.2</ele>
      </trkpt>
<trkpt lat="47.680963" lon="18.880974">
        <ele>432.4</ele>
      </trkpt>
<trkpt lat="47.680078" lon="18.880706">
        <ele>429.6</ele>
      </trkpt>
<trkpt lat="47.679677" lon="18.880781">
        <ele>427.2</ele>
      </trkpt>
<trkpt lat="47.679576" lon="18.880820">
        <ele>429.6</ele>
      </trkpt>
<trkpt lat="47.679677" lon="18.880781">
        <ele>432.4</ele>
      </trkpt>
<trkpt lat="47.680078" lon="18.880706">
        <ele>434.2</ele>
      </trkpt>
<trkpt lat="47.680963" lon="18.880974">
        <ele>434.4</ele>
      </trkpt>
<trkpt lat="47.681333" lon="18.881042">
        <ele>434.6</ele>
      </trkpt>
<trkpt lat="47.682106" lon="18.882084">
        <ele>437.6</ele>
      </trkpt>
<trkpt lat="47.682555" lon="18.881620">
        <ele>438.6</ele>
      </trkpt>
<trkpt lat="47.682746" lon="18.881286">
        <ele>449.8</ele>
      </trkpt>
<trkpt lat="47.683089" lon="18.881009">
        <ele>457.8</ele>
      </trkpt>
<trkpt lat="47.682577" lon="18.880617">
        <ele>466</ele>
      </trkpt>
<trkpt lat="47.681586" lon="18.880318">
        <ele>470.2</ele>
      </trkpt>
<trkpt lat="47.681584" lon="18.880237">
        <ele>476</ele>
      </trkpt>
<trkpt lat="47.682314" lon="18.880219">
        <ele>478.4</ele>
      </trkpt>
<trkpt lat="47.684075" lon="18.879661">
        <ele>480.8</ele>
      </trkpt>
<trkpt lat="47.684214" lon="18.879690">
        <ele>483</ele>
      </trkpt>
<trkpt lat="47.684734" lon="18.879777">
        <ele>484</ele>
      </trkpt>
<trkpt lat="47.684841" lon="18.879819">
        <ele>488.4</ele>
      </trkpt>
<trkpt lat="47.684927" lon="18.879811">
        <ele>491.8</ele>
      </trkpt>
<trkpt lat="47.685011" lon="18.879665">
        <ele>495.2</ele>
      </trkpt>
<trkpt lat="47.685158" lon="18.879521">
        <ele>502.8</ele>
      </trkpt>
<trkpt lat="47.685158" lon="18.879314">
        <ele>510.4</ele>
      </trkpt>
<trkpt lat="47.685064" lon="18.878948">
        <ele>514.6</ele>
      </trkpt>
<trkpt lat="47.684486" lon="18.878543">
        <ele>522.2</ele>
      </trkpt>
<trkpt lat="47.684406" lon="18.878482">
        <ele>529.8</ele>
      </trkpt>
<trkpt lat="47.683922" lon="18.878343">
        <ele>531.2</ele>
      </trkpt>
<trkpt lat="47.682718" lon="18.878637">
        <ele>532.6</ele>
      </trkpt>
<trkpt lat="47.682306" lon="18.878580">
        <ele>534</ele>
      </trkpt>
<trkpt lat="47.680617" lon="18.878632">
        <ele>532</ele>
      </trkpt>
<trkpt lat="47.680536" lon="18.878517">
        <ele>533.4</ele>
      </trkpt>
<trkpt lat="47.680734" lon="18.878187">
        <ele>542.6</ele>
      </trkpt>
<trkpt lat="47.681092" lon="18.878040">
        <ele>553.4</ele>
      </trkpt>
<trkpt lat="47.681878" lon="18.877279">
        <ele>564.2</ele>
      </trkpt>
<trkpt lat="47.682337" lon="18.876415">
        <ele>573.6</ele>
      </trkpt>
<trkpt lat="47.682380" lon="18.876239">
        <ele>579.6</ele>
      </trkpt>
<trkpt lat="47.682374" lon="18.875732">
        <ele>586.4</ele>
      </trkpt>
<trkpt lat="47.681776" lon="18.874028">
        <ele>589.6</ele>
      </trkpt>
<trkpt lat="47.681855" lon="18.873801">
        <ele>591.8</ele>
      </trkpt>
<trkpt lat="47.682319" lon="18.873158">
        <ele>600.8</ele>
      </trkpt>
<trkpt lat="47.682553" lon="18.872639">
        <ele>609.8</ele>
      </trkpt>
<trkpt lat="47.682634" lon="18.871824">
        <ele>612.2</ele>
      </trkpt>
<trkpt lat="47.682954" lon="18.871657">
        <ele>612.2</ele>
      </trkpt>
<trkpt lat="47.683639" lon="18.871384">
        <ele>621</ele>
      </trkpt>
<trkpt lat="47.683031" lon="18.871853">
        <ele>618.6</ele>
      </trkpt>
<trkpt lat="47.682901" lon="18.872112">
        <ele>616.6</ele>
      </trkpt>
<trkpt lat="47.682922" lon="18.872894">
        <ele>614.6</ele>
      </trkpt>
<trkpt lat="47.682891" lon="18.873027">
        <ele>624.4</ele>
      </trkpt>
<trkpt lat="47.682637" lon="18.873775">
        <ele>624.4</ele>
      </trkpt>
<trkpt lat="47.682607" lon="18.873951">
        <ele>630.2</ele>
      </trkpt>
<trkpt lat="47.683014" lon="18.873123">
        <ele>635.6</ele>
      </trkpt>
<trkpt lat="47.683208" lon="18.872236">
        <ele>643</ele>
      </trkpt>
<trkpt lat="47.683287" lon="18.872193">
        <ele>643</ele>
      </trkpt>
<trkpt lat="47.683204" lon="18.872558">
        <ele>645.2</ele>
      </trkpt>
<trkpt lat="47.683144" lon="18.873308">
        <ele>647.4</ele>
      </trkpt>
<trkpt lat="47.683116" lon="18.873444">
        <ele>647.8</ele>
      </trkpt>
<trkpt lat="47.683017" lon="18.873916">
        <ele>646.2</ele>
      </trkpt>
<trkpt lat="47.683133" lon="18.874302">
        <ele>646.4</ele>
      </trkpt>
<trkpt lat="47.683358" lon="18.874829">
        <ele>646.4</ele>
      </trkpt>
<trkpt lat="47.683373" lon="18.874741">
        <ele>646.2</ele>
      </trkpt>
<trkpt lat="47.683265" lon="18.874241">
        <ele>647.8</ele>
      </trkpt>
<trkpt lat="47.683298" lon="18.873855">
        <ele>653.4</ele>
      </trkpt>
<trkpt lat="47.683384" lon="18.873612">
        <ele>657.2</ele>
      </trkpt>
<trkpt lat="47.683484" lon="18.873191">
        <ele>657</ele>
      </trkpt>
<trkpt lat="47.683779" lon="18.872732">
        <ele>657</ele>
      </trkpt>
<trkpt lat="47.683771" lon="18.872894">
        <ele>661.8</ele>
      </trkpt>
<trkpt lat="47.683670" lon="18.873210">
        <ele>662.6</ele>
      </trkpt>
<trkpt lat="47.683681" lon="18.873449">
        <ele>664</ele>
      </trkpt>
<trkpt lat="47.683905" lon="18.874219">
        <ele>672.8</ele>
      </trkpt>
<trkpt lat="47.684013" lon="18.874188">
        <ele>681.6</ele>
      </trkpt>
<trkpt lat="47.684101" lon="18.873472">
        <ele>685.6</ele>
      </trkpt>
<trkpt lat="47.684665" lon="18.872134">
        <ele>689.6</ele>
      </trkpt>
<trkpt lat="47.685524" lon="18.871061">
        <ele>697.6</ele>
      </trkpt>
<trkpt lat="47.685767" lon="18.870558">
        <ele>702.2</ele>
      </trkpt>
<trkpt lat="47.686028" lon="18.870476">
        <ele>706.4</ele>
      </trkpt>
<trkpt lat="47.686409" lon="18.870778">
        <ele>714.2</ele>
      </trkpt>
<trkpt lat="47.686442" lon="18.871142">
        <ele>722</ele>
      </trkpt>
<trkpt lat="47.686122" lon="18.873016">
        <ele>725.2</ele>
      </trkpt>
<trkpt lat="47.686282" lon="18.873048">
        <ele>730.6</ele>
      </trkpt>
<trkpt lat="47.686649" lon="18.873013">
        <ele>736.4</ele>
      </trkpt>
<trkpt lat="47.686917" lon="18.872963">
        <ele>739.2</ele>
      </trkpt>
<trkpt lat="47.687284" lon="18.873167">
        <ele>742</ele>
      </trkpt>
<trkpt lat="47.687519" lon="18.873116">
        <ele>746.2</ele>
      </trkpt>
<trkpt lat="47.687734" lon="18.872853">
        <ele>748.2</ele>
      </trkpt>
<trkpt lat="47.687886" lon="18.872675">
        <ele>750.2</ele>
      </trkpt>
<trkpt lat="47.688109" lon="18.872590">
        <ele>751.6</ele>
      </trkpt>
<trkpt lat="47.688404" lon="18.872574">
        <ele>753</ele>
      </trkpt>
<trkpt lat="47.688636" lon="18.872687">
        <ele>753</ele>
      </trkpt>
<trkpt lat="47.688733" lon="18.872803">
        <ele>753</ele>
      </trkpt>
<trkpt lat="47.688636" lon="18.872687">
        <ele>751.6</ele>
      </trkpt>
<trkpt lat="47.688404" lon="18.872574">
        <ele>750.2</ele>
      </trkpt>
<trkpt lat="47.688109" lon="18.872590">
        <ele>748.2</ele>
      </trkpt>
<trkpt lat="47.687886" lon="18.872675">
        <ele>746.2</ele>
      </trkpt>
<trkpt lat="47.687734" lon="18.872853">
        <ele>742</ele>
      </trkpt>
<trkpt lat="47.687519" lon="18.873116">
        <ele>739.2</ele>
      </trkpt>
<trkpt lat="47.687284" lon="18.873167">
        <ele>736.4</ele>
      </trkpt>
<trkpt lat="47.686917" lon="18.872963">
        <ele>730.6</ele>
      </trkpt>
<trkpt lat="47.686649" lon="18.873013">
        <ele>725.2</ele>
      </trkpt>
<trkpt lat="47.686282" lon="18.873048">
        <ele>722</ele>
      </trkpt>
<trkpt lat="47.686122" lon="18.873016">
        <ele>717</ele>
      </trkpt>
<trkpt lat="47.686442" lon="18.871142">
        <ele>710.2</ele>
      </trkpt>
<trkpt lat="47.686409" lon="18.870778">
        <ele>707</ele>
      </trkpt>
<trkpt lat="47.686451" lon="18.870109">
        <ele>706.4</ele>
      </trkpt>
<trkpt lat="47.686621" lon="18.869466">
        <ele>703.2</ele>
      </trkpt>
<trkpt lat="47.686731" lon="18.869401">
        <ele>701.8</ele>
      </trkpt>
<trkpt lat="47.687924" lon="18.867515">
        <ele>702.2</ele>
      </trkpt>
<trkpt lat="47.688279" lon="18.866633">
        <ele>702.6</ele>
      </trkpt>
<trkpt lat="47.688110" lon="18.866583">
        <ele>700</ele>
      </trkpt>
<trkpt lat="47.688045" lon="18.866498">
        <ele>700</ele>
      </trkpt>
<trkpt lat="47.687985" lon="18.866264">
        <ele>700</ele>
      </trkpt>
<trkpt lat="47.688045" lon="18.866498">
        <ele>702.4</ele>
      </trkpt>
<trkpt lat="47.688110" lon="18.866583">
        <ele>705.4</ele>
      </trkpt>
<trkpt lat="47.688279" lon="18.866633">
        <ele>706.6</ele>
      </trkpt>
<trkpt lat="47.688938" lon="18.865590">
        <ele>708</ele>
      </trkpt>
<trkpt lat="47.689715" lon="18.864690">
        <ele>707.8</ele>
      </trkpt>
<trkpt lat="47.691327" lon="18.862276">
        <ele>705.2</ele>
      </trkpt>
<trkpt lat="47.692142" lon="18.861360">
        <ele>701.8</ele>
      </trkpt>
<trkpt lat="47.693240" lon="18.860047">
        <ele>702.8</ele>
      </trkpt>
<trkpt lat="47.693510" lon="18.859647">
        <ele>703.6</ele>
      </trkpt>
<trkpt lat="47.693957" lon="18.859113">
        <ele>704.4</ele>
      </trkpt>
<trkpt lat="47.696285" lon="18.855735">
        <ele>704.6</ele>
      </trkpt>
<trkpt lat="47.696402" lon="18.855513">
        <ele>705</ele>
      </trkpt>
<trkpt lat="47.697191" lon="18.854011">
        <ele>700.6</ele>
      </trkpt>
<trkpt lat="47.698219" lon="18.852811">
        <ele>697.2</ele>
      </trkpt>
<trkpt lat="47.698352" lon="18.852524">
        <ele>695.2</ele>
      </trkpt>
<trkpt lat="47.698676" lon="18.852050">
        <ele>693.8</ele>
      </trkpt>
<trkpt lat="47.699078" lon="18.851720">
        <ele>692.4</ele>
      </trkpt>
<trkpt lat="47.699600" lon="18.851769">
        <ele>693.2</ele>
      </trkpt>
<trkpt lat="47.699871" lon="18.851793">
        <ele>693</ele>
      </trkpt>
<trkpt lat="47.700317" lon="18.851725">
        <ele>693</ele>
      </trkpt>
<trkpt lat="47.700398" lon="18.851708">
        <ele>692.2</ele>
      </trkpt>
<trkpt lat="47.700581" lon="18.851642">
        <ele>689.6</ele>
      </trkpt>
<trkpt lat="47.701204" lon="18.851969">
        <ele>687</ele>
      </trkpt>
<trkpt lat="47.701533" lon="18.852458">
        <ele>683</ele>
      </trkpt>
<trkpt lat="47.702187" lon="18.853093">
        <ele>677.4</ele>
      </trkpt>
<trkpt lat="47.702642" lon="18.853323">
        <ele>672.6</ele>
      </trkpt>
<trkpt lat="47.703004" lon="18.853266">
        <ele>669.6</ele>
      </trkpt>
<trkpt lat="47.703929" lon="18.853242">
        <ele>666.6</ele>
      </trkpt>
<trkpt lat="47.704240" lon="18.853352">
        <ele>665</ele>
      </trkpt>
<trkpt lat="47.704363" lon="18.853464">
        <ele>663</ele>
      </trkpt>
<trkpt lat="47.704363" lon="18.853163">
        <ele>661</ele>
      </trkpt>
<trkpt lat="47.704526" lon="18.852949">
        <ele>657.6</ele>
      </trkpt>
<trkpt lat="47.704890" lon="18.852763">
        <ele>653</ele>
      </trkpt>
<trkpt lat="47.705183" lon="18.852826">
        <ele>640.8</ele>
      </trkpt>
<trkpt lat="47.706033" lon="18.852237">
        <ele>626.4</ele>
      </trkpt>
<trkpt lat="47.706223" lon="18.851849">
        <ele>608.6</ele>
      </trkpt>
<trkpt lat="47.706419" lon="18.850240">
        <ele>587.8</ele>
      </trkpt>
<trkpt lat="47.706565" lon="18.849552">
        <ele>566.4</ele>
      </trkpt>
<trkpt lat="47.706632" lon="18.848718">
        <ele>551.6</ele>
      </trkpt>
<trkpt lat="47.707055" lon="18.847029">
        <ele>539.6</ele>
      </trkpt>
<trkpt lat="47.707125" lon="18.846474">
        <ele>533.4</ele>
      </trkpt>
<trkpt lat="47.707062" lon="18.846090">
        <ele>530.8</ele>
      </trkpt>
<trkpt lat="47.706598" lon="18.845377">
        <ele>530</ele>
      </trkpt>
<trkpt lat="47.706137" lon="18.844713">
        <ele>529.6</ele>
      </trkpt>
<trkpt lat="47.705496" lon="18.843957">
        <ele>530.4</ele>
      </trkpt>
<trkpt lat="47.705431" lon="18.843971">
        <ele>528.8</ele>
      </trkpt>
<trkpt lat="47.705254" lon="18.844021">
        <ele>519.4</ele>
      </trkpt>
<trkpt lat="47.704101" lon="18.844642">
        <ele>503.6</ele>
      </trkpt>
<trkpt lat="47.703830" lon="18.844584">
        <ele>488.4</ele>
      </trkpt>
<trkpt lat="47.703209" lon="18.844103">
        <ele>471.8</ele>
      </trkpt>
<trkpt lat="47.702460" lon="18.843659">
        <ele>455.2</ele>
      </trkpt>
<trkpt lat="47.702269" lon="18.843562">
        <ele>447.2</ele>
      </trkpt>
<trkpt lat="47.702056" lon="18.843215">
        <ele>443.4</ele>
      </trkpt>
<trkpt lat="47.701798" lon="18.843144">
        <ele>439.8</ele>
      </trkpt>
<trkpt lat="47.701604" lon="18.842986">
        <ele>437.2</ele>
      </trkpt>
<trkpt lat="47.701320" lon="18.842743">
        <ele>434.4</ele>
      </trkpt>
<trkpt lat="47.700901" lon="18.842229">
        <ele>431.6</ele>
      </trkpt>
<trkpt lat="47.700427" lon="18.841988">
        <ele>430.4</ele>
      </trkpt>
<trkpt lat="47.700089" lon="18.842071">
        <ele>429</ele>
      </trkpt>
<trkpt lat="47.699800" lon="18.841993">
        <ele>428.2</ele>
      </trkpt>
<trkpt lat="47.699459" lon="18.842175">
        <ele>429.4</ele>
      </trkpt>
<trkpt lat="47.699359" lon="18.842568">
        <ele>430.6</ele>
      </trkpt>
<trkpt lat="47.698997" lon="18.842894">
        <ele>432.4</ele>
      </trkpt>
<trkpt lat="47.699045" lon="18.843098">
        <ele>436.2</ele>
      </trkpt>
<trkpt lat="47.699137" lon="18.843326">
        <ele>440</ele>
      </trkpt>
<trkpt lat="47.699392" lon="18.843665">
        <ele>442</ele>
      </trkpt>
<trkpt lat="47.699659" lon="18.843794">
        <ele>447.8</ele>
      </trkpt>
<trkpt lat="47.699772" lon="18.843796">
        <ele>453.6</ele>
      </trkpt>
<trkpt lat="47.699981" lon="18.844372">
        <ele>451.6</ele>
      </trkpt>
<trkpt lat="47.699362" lon="18.844124">
        <ele>449.6</ele>
      </trkpt>
<trkpt lat="47.699207" lon="18.843776">
        <ele>445.8</ele>
      </trkpt>
<trkpt lat="47.699137" lon="18.843326">
        <ele>438.2</ele>
      </trkpt>
<trkpt lat="47.699045" lon="18.843098">
        <ele>428.4</ele>
      </trkpt>
<trkpt lat="47.698997" lon="18.842894">
        <ele>422.6</ele>
      </trkpt>
<trkpt lat="47.698824" lon="18.842663">
        <ele>416.8</ele>
      </trkpt>
<trkpt lat="47.698441" lon="18.841617">
        <ele>412.8</ele>
      </trkpt>
<trkpt lat="47.697872" lon="18.840911">
        <ele>408.8</ele>
      </trkpt>
<trkpt lat="47.697636" lon="18.840719">
        <ele>407</ele>
      </trkpt>
<trkpt lat="47.697148" lon="18.840740">
        <ele>407</ele>
      </trkpt>
<trkpt lat="47.697079" lon="18.840688">
        <ele>405.2</ele>
      </trkpt>
<trkpt lat="47.696413" lon="18.840434">
        <ele>403.4</ele>
      </trkpt>
<trkpt lat="47.696306" lon="18.840471">
        <ele>398.6</ele>
      </trkpt>
<trkpt lat="47.695939" lon="18.840560">
        <ele>393.8</ele>
      </trkpt>
<trkpt lat="47.695659" lon="18.840490">
        <ele>392</ele>
      </trkpt>
<trkpt lat="47.695402" lon="18.840319">
        <ele>388.4</ele>
      </trkpt>
<trkpt lat="47.694574" lon="18.841046">
        <ele>384.6</ele>
      </trkpt>
<trkpt lat="47.693775" lon="18.843171">
        <ele>385.8</ele>
      </trkpt>
<trkpt lat="47.693635" lon="18.843548">
        <ele>388.8</ele>
      </trkpt>
<trkpt lat="47.692581" lon="18.846141">
        <ele>383.2</ele>
      </trkpt>
<trkpt lat="47.692339" lon="18.846737">
        <ele>384</ele>
      </trkpt>
<trkpt lat="47.690556" lon="18.848805">
        <ele>386.4</ele>
      </trkpt>
<trkpt lat="47.689502" lon="18.850407">
        <ele>387.4</ele>
      </trkpt>
<trkpt lat="47.688230" lon="18.852000">
        <ele>386.6</ele>
      </trkpt>
<trkpt lat="47.687377" lon="18.852497">
        <ele>390</ele>
      </trkpt>
<trkpt lat="47.686878" lon="18.853101">
        <ele>393.2</ele>
      </trkpt>
<trkpt lat="47.686274" lon="18.853335">
        <ele>393.4</ele>
      </trkpt>
<trkpt lat="47.685955" lon="18.853627">
        <ele>393</ele>
      </trkpt>
<trkpt lat="47.685729" lon="18.853836">
        <ele>392.6</ele>
      </trkpt>
<trkpt lat="47.685099" lon="18.854281">
        <ele>394</ele>
      </trkpt>
<trkpt lat="47.684952" lon="18.854385">
        <ele>393.2</ele>
      </trkpt>
<trkpt lat="47.684823" lon="18.854564">
        <ele>396.2</ele>
      </trkpt>
<trkpt lat="47.684312" lon="18.855547">
        <ele>397.2</ele>
      </trkpt>
<trkpt lat="47.683179" lon="18.857611">
        <ele>398.2</ele>
      </trkpt>
<trkpt lat="47.682199" lon="18.859646">
        <ele>400.2</ele>
      </trkpt>
<trkpt lat="47.681770" lon="18.860662">
        <ele>400.2</ele>
      </trkpt>
<trkpt lat="47.681707" lon="18.860823">
        <ele>401.2</ele>
      </trkpt>
<trkpt lat="47.681524" lon="18.861492">
        <ele>401.6</ele>
      </trkpt>
<trkpt lat="47.681197" lon="18.862296">
        <ele>403.2</ele>
      </trkpt>
<trkpt lat="47.680465" lon="18.863768">
        <ele>402</ele>
      </trkpt>
<trkpt lat="47.680097" lon="18.864869">
        <ele>404.2</ele>
      </trkpt>
<trkpt lat="47.679590" lon="18.866819">
        <ele>398</ele>
      </trkpt>
<trkpt lat="47.679404" lon="18.867323">
        <ele>394.4</ele>
      </trkpt>
<trkpt lat="47.678791" lon="18.869230">
        <ele>391.2</ele>
      </trkpt>
<trkpt lat="47.678744" lon="18.869764">
        <ele>387.6</ele>
      </trkpt>
<trkpt lat="47.678538" lon="18.870302">
        <ele>382.2</ele>
      </trkpt>
<trkpt lat="47.678419" lon="18.870658">
        <ele>380.8</ele>
      </trkpt>
<trkpt lat="47.677844" lon="18.872345">
        <ele>379.4</ele>
      </trkpt>
<trkpt lat="47.677722" lon="18.873157">
        <ele>376.4</ele>
      </trkpt>
<trkpt lat="47.677394" lon="18.874984">
        <ele>375.2</ele>
      </trkpt>
<trkpt lat="47.677302" lon="18.875157">
        <ele>370.8</ele>
      </trkpt>
<trkpt lat="47.677288" lon="18.875177">
        <ele>367.6</ele>
      </trkpt>
<trkpt lat="47.677215" lon="18.875276">
        <ele>361</ele>
      </trkpt>
<trkpt lat="47.676622" lon="18.875872">
        <ele>357</ele>
      </trkpt>
<trkpt lat="47.676536" lon="18.876055">
        <ele>356.4</ele>
      </trkpt>
<trkpt lat="47.676175" lon="18.877477">
        <ele>359</ele>
      </trkpt>
<trkpt lat="47.676592" lon="18.877962">
        <ele>361.6</ele>
      </trkpt>
<trkpt lat="47.677242" lon="18.878482">
        <ele>366</ele>
      </trkpt>
<trkpt lat="47.677299" lon="18.878602">
        <ele>367.8</ele>
      </trkpt>
<trkpt lat="47.677313" lon="18.878632">
        <ele>366.2</ele>
      </trkpt>
<trkpt lat="47.677407" lon="18.878810">
        <ele>364.6</ele>
      </trkpt>
<trkpt lat="47.677540" lon="18.879097">
        <ele>363</ele>
      </trkpt>
<trkpt lat="47.677606" lon="18.879247">
        <ele>364.6</ele>
      </trkpt>
<trkpt lat="47.677540" lon="18.879097">
        <ele>366.2</ele>
      </trkpt>
<trkpt lat="47.677407" lon="18.878810">
        <ele>367.8</ele>
      </trkpt>
<trkpt lat="47.677313" lon="18.878632">
        <ele>367.8</ele>
      </trkpt>
<trkpt lat="47.677299" lon="18.878602">
        <ele>367.8</ele>
      </trkpt>
<trkpt lat="47.677242" lon="18.878482">
        <ele>372.2</ele>
      </trkpt>
<trkpt lat="47.677684" lon="18.878820">
        <ele>376.6</ele>
      </trkpt>
<trkpt lat="47.677813" lon="18.879013">
        <ele>381</ele>
      </trkpt>
<trkpt lat="47.677917" lon="18.879056">
        <ele>384.2</ele>
      </trkpt>
<trkpt lat="47.678194" lon="18.879152">
        <ele>390.2</ele>
      </trkpt>
<trkpt lat="47.678317" lon="18.879400">
        <ele>390.2</ele>
      </trkpt>
<trkpt lat="47.678326" lon="18.879644">
        <ele>390.2</ele>
      </trkpt>
<trkpt lat="47.678317" lon="18.879400">
        <ele>384.2</ele>
      </trkpt>
<trkpt lat="47.678194" lon="18.879152">
        <ele>381</ele>
      </trkpt>
<trkpt lat="47.677917" lon="18.879056">
        <ele>376.6</ele>
      </trkpt>
<trkpt lat="47.677813" lon="18.879013">
        <ele>368.8</ele>
      </trkpt>
<trkpt lat="47.677684" lon="18.878820">
        <ele>361</ele>
      </trkpt>
<trkpt lat="47.677242" lon="18.878482">
        <ele>359.2</ele>
      </trkpt>
<trkpt lat="47.676578" lon="18.878317">
        <ele>355.4</ele>
      </trkpt>
<trkpt lat="47.676346" lon="18.878277">
        <ele>347.6</ele>
      </trkpt>
<trkpt lat="47.676285" lon="18.878483">
        <ele>341.4</ele>
      </trkpt>
<trkpt lat="47.676357" lon="18.879545">
        <ele>335.2</ele>
      </trkpt>
<trkpt lat="47.676584" lon="18.880394">
        <ele>330.8</ele>
      </trkpt>
<trkpt lat="47.676607" lon="18.880482">
        <ele>328.4</ele>
      </trkpt>
<trkpt lat="47.676651" lon="18.880534">
        <ele>326.6</ele>
      </trkpt>
<trkpt lat="47.676700" lon="18.880341">
        <ele>331.8</ele>
      </trkpt>
<trkpt lat="47.676807" lon="18.880246">
        <ele>335.2</ele>
      </trkpt>
<trkpt lat="47.677049" lon="18.880477">
        <ele>336.8</ele>
      </trkpt>
<trkpt lat="47.677195" lon="18.880399">
        <ele>338.4</ele>
      </trkpt>
<trkpt lat="47.677324" lon="18.880582">
        <ele>341.8</ele>
      </trkpt>
<trkpt lat="47.677452" lon="18.880616">
        <ele>340</ele>
      </trkpt>
<trkpt lat="47.677629" lon="18.880480">
        <ele>340</ele>
      </trkpt>
<trkpt lat="47.677851" lon="18.880501">
        <ele>337.8</ele>
      </trkpt>
<trkpt lat="47.677629" lon="18.880480">
        <ele>335.6</ele>
      </trkpt>
<trkpt lat="47.677452" lon="18.880616">
        <ele>331.4</ele>
      </trkpt>
<trkpt lat="47.677658" lon="18.881551">
        <ele>326.2</ele>
      </trkpt>
<trkpt lat="47.677658" lon="18.881786">
        <ele>321</ele>
      </trkpt>
<trkpt lat="47.677549" lon="18.882822">
        <ele>314.4</ele>
      </trkpt>
<trkpt lat="47.677554" lon="18.883422">
        <ele>307.4</ele>
      </trkpt>
<trkpt lat="47.677479" lon="18.883741">
        <ele>304.5</ele>
      </trkpt>
<trkpt lat="47.677015" lon="18.884530">
        <ele>301.33333333333</ele>
      </trkpt>
<trkpt lat="47.676888" lon="18.884834">
        <ele>295</ele>
      </trkpt>
</trkseg>
</trk>
</gpx>



