<?xml version="1.0" encoding="UTF-8"?>
<gpx xmlns="http://www.topografix.com/GPX/1/1" creator="turistautak.openstreetmap.hu" version="1.1" xmlns:xsi="http://www.w3.org/2001/XMLSchema-instance" xsi:schemaLocation="http://www.garmin.com/xmlschemas/GpxExtensions/v3 http://www.garmin.com/xmlschemas/GpxExtensions/v3/GpxExtensionsv3.xsd http://www.topografix.com/GPX/1/1 http://www.topografix.com/GPX/1/1/gpx.xsd">
	<metadata>
		<name>1589185142r9sz útvonal</name>
		<desc>1589185142r9sz útvonal</desc>
	</metadata>
<trk>
  <name>utv</name>
<trkseg><trkpt lat="47.610715" lon="18.985944">
        <ele>237.75</ele>
      </trkpt>
<trkpt lat="47.610683" lon="18.986012">
        <ele>237.4</ele>
      </trkpt>
<trkpt lat="47.610656" lon="18.986114">
        <ele>237</ele>
      </trkpt>
<trkpt lat="47.610549" lon="18.986800">
        <ele>236.6</ele>
      </trkpt>
<trkpt lat="47.610481" lon="18.987261">
        <ele>234.8</ele>
      </trkpt>
<trkpt lat="47.610558" lon="18.987870">
        <ele>232.6</ele>
      </trkpt>
<trkpt lat="47.610472" lon="18.988104">
        <ele>230.6</ele>
      </trkpt>
<trkpt lat="47.610361" lon="18.988259">
        <ele>228.6</ele>
      </trkpt>
<trkpt lat="47.610110" lon="18.989154">
        <ele>226.4</ele>
      </trkpt>
<trkpt lat="47.610029" lon="18.989370">
        <ele>224.8</ele>
      </trkpt>
<trkpt lat="47.609980" lon="18.989502">
        <ele>223.8</ele>
      </trkpt>
<trkpt lat="47.609636" lon="18.989656">
        <ele>222.8</ele>
      </trkpt>
<trkpt lat="47.609391" lon="18.989645">
        <ele>221.8</ele>
      </trkpt>
<trkpt lat="47.609310" lon="18.989766">
        <ele>220.8</ele>
      </trkpt>
<trkpt lat="47.609149" lon="18.989845">
        <ele>219.8</ele>
      </trkpt>
<trkpt lat="47.608997" lon="18.989941">
        <ele>220.2</ele>
      </trkpt>
<trkpt lat="47.608302" lon="18.990480">
        <ele>221.8</ele>
      </trkpt>
<trkpt lat="47.607686" lon="18.991056">
        <ele>223.4</ele>
      </trkpt>
<trkpt lat="47.608226" lon="18.991847">
        <ele>226.8</ele>
      </trkpt>
<trkpt lat="47.608473" lon="18.992085">
        <ele>230</ele>
      </trkpt>
<trkpt lat="47.608692" lon="18.992200">
        <ele>233.2</ele>
      </trkpt>
<trkpt lat="47.608987" lon="18.992116">
        <ele>237.4</ele>
      </trkpt>
<trkpt lat="47.609442" lon="18.991986">
        <ele>242.8</ele>
      </trkpt>
<trkpt lat="47.609895" lon="18.992082">
        <ele>246.6</ele>
      </trkpt>
<trkpt lat="47.610282" lon="18.993163">
        <ele>251.4</ele>
      </trkpt>
<trkpt lat="47.610430" lon="18.993158">
        <ele>254.8</ele>
      </trkpt>
<trkpt lat="47.610850" lon="18.992985">
        <ele>256.6</ele>
      </trkpt>
<trkpt lat="47.610807" lon="18.993146">
        <ele>257.6</ele>
      </trkpt>
<trkpt lat="47.610686" lon="18.993363">
        <ele>259.4</ele>
      </trkpt>
<trkpt lat="47.610563" lon="18.994530">
        <ele>261.8</ele>
      </trkpt>
<trkpt lat="47.610955" lon="18.994783">
        <ele>267.4</ele>
      </trkpt>
<trkpt lat="47.611440" lon="18.995096">
        <ele>276.4</ele>
      </trkpt>
<trkpt lat="47.611407" lon="18.995678">
        <ele>283.2</ele>
      </trkpt>
<trkpt lat="47.612692" lon="18.996722">
        <ele>289.2</ele>
      </trkpt>
<trkpt lat="47.612918" lon="18.996925">
        <ele>291.8</ele>
      </trkpt>
<trkpt lat="47.612689" lon="18.997334">
        <ele>291.2</ele>
      </trkpt>
<trkpt lat="47.612247" lon="18.997792">
        <ele>286.6</ele>
      </trkpt>
<trkpt lat="47.612002" lon="18.997935">
        <ele>283.8</ele>
      </trkpt>
<trkpt lat="47.611816" lon="18.998043">
        <ele>278.8</ele>
      </trkpt>
<trkpt lat="47.611544" lon="18.998280">
        <ele>277</ele>
      </trkpt>
<trkpt lat="47.611323" lon="18.998374">
        <ele>275.8</ele>
      </trkpt>
<trkpt lat="47.611230" lon="18.998503">
        <ele>274.6</ele>
      </trkpt>
<trkpt lat="47.611093" lon="18.999339">
        <ele>273.4</ele>
      </trkpt>
<trkpt lat="47.611037" lon="18.999928">
        <ele>276.2</ele>
      </trkpt>
<trkpt lat="47.610935" lon="19.000072">
        <ele>281.2</ele>
      </trkpt>
<trkpt lat="47.610933" lon="19.000415">
        <ele>285.6</ele>
      </trkpt>
<trkpt lat="47.610774" lon="19.000820">
        <ele>290</ele>
      </trkpt>
<trkpt lat="47.610650" lon="19.001343">
        <ele>292.4</ele>
      </trkpt>
<trkpt lat="47.610663" lon="19.001616">
        <ele>293</ele>
      </trkpt>
<trkpt lat="47.610605" lon="19.002056">
        <ele>299.6</ele>
      </trkpt>
<trkpt lat="47.610383" lon="19.002974">
        <ele>306.2</ele>
      </trkpt>
<trkpt lat="47.610357" lon="19.003536">
        <ele>312.8</ele>
      </trkpt>
<trkpt lat="47.610448" lon="19.004044">
        <ele>316.6</ele>
      </trkpt>
<trkpt lat="47.610554" lon="19.004241">
        <ele>320.4</ele>
      </trkpt>
<trkpt lat="47.610496" lon="19.004424">
        <ele>317.4</ele>
      </trkpt>
<trkpt lat="47.610197" lon="19.004886">
        <ele>316</ele>
      </trkpt>
<trkpt lat="47.610061" lon="19.005323">
        <ele>314.6</ele>
      </trkpt>
<trkpt lat="47.610073" lon="19.005892">
        <ele>318.6</ele>
      </trkpt>
<trkpt lat="47.610083" lon="19.006379">
        <ele>322.6</ele>
      </trkpt>
<trkpt lat="47.609896" lon="19.006979">
        <ele>326.8</ele>
      </trkpt>
<trkpt lat="47.609989" lon="19.007443">
        <ele>329.4</ele>
      </trkpt>
<trkpt lat="47.610270" lon="19.007978">
        <ele>332</ele>
      </trkpt>
<trkpt lat="47.610421" lon="19.008186">
        <ele>336.2</ele>
      </trkpt>
<trkpt lat="47.610687" lon="19.008176">
        <ele>340.4</ele>
      </trkpt>
<trkpt lat="47.610841" lon="19.008152">
        <ele>343.4</ele>
      </trkpt>
<trkpt lat="47.611350" lon="19.007904">
        <ele>346.4</ele>
      </trkpt>
<trkpt lat="47.612039" lon="19.007392">
        <ele>349.4</ele>
      </trkpt>
<trkpt lat="47.612173" lon="19.006680">
        <ele>350.2</ele>
      </trkpt>
<trkpt lat="47.612161" lon="19.006589">
        <ele>353.4</ele>
      </trkpt>
<trkpt lat="47.612148" lon="19.006497">
        <ele>355.8</ele>
      </trkpt>
<trkpt lat="47.612218" lon="19.006314">
        <ele>358.2</ele>
      </trkpt>
<trkpt lat="47.612227" lon="19.006005">
        <ele>358.4</ele>
      </trkpt>
<trkpt lat="47.612304" lon="19.005628">
        <ele>358.6</ele>
      </trkpt>
<trkpt lat="47.612208" lon="19.005734">
        <ele>358</ele>
      </trkpt>
<trkpt lat="47.612006" lon="19.005748">
        <ele>360.2</ele>
      </trkpt>
<trkpt lat="47.611973" lon="19.005537">
        <ele>360.2</ele>
      </trkpt>
<trkpt lat="47.612074" lon="19.005404">
        <ele>366.6</ele>
      </trkpt>
<trkpt lat="47.612181" lon="19.005391">
        <ele>373.4</ele>
      </trkpt>
<trkpt lat="47.612369" lon="19.005479">
        <ele>380</ele>
      </trkpt>
<trkpt lat="47.612864" lon="19.004388">
        <ele>384.2</ele>
      </trkpt>
<trkpt lat="47.613262" lon="19.003014">
        <ele>390.6</ele>
      </trkpt>
<trkpt lat="47.613322" lon="19.002805">
        <ele>392.8</ele>
      </trkpt>
<trkpt lat="47.613394" lon="19.001847">
        <ele>392.4</ele>
      </trkpt>
<trkpt lat="47.613237" lon="19.001477">
        <ele>390.6</ele>
      </trkpt>
<trkpt lat="47.613237" lon="19.001375">
        <ele>391.2</ele>
      </trkpt>
<trkpt lat="47.613529" lon="19.000155">
        <ele>391.2</ele>
      </trkpt>
<trkpt lat="47.613694" lon="18.999962">
        <ele>391.2</ele>
      </trkpt>
<trkpt lat="47.613911" lon="18.999661">
        <ele>392</ele>
      </trkpt>
<trkpt lat="47.614071" lon="18.999005">
        <ele>392.8</ele>
      </trkpt>
<trkpt lat="47.614132" lon="18.998787">
        <ele>393.6</ele>
      </trkpt>
<trkpt lat="47.614466" lon="18.998245">
        <ele>396.4</ele>
      </trkpt>
<trkpt lat="47.614557" lon="18.997999">
        <ele>397.4</ele>
      </trkpt>
<trkpt lat="47.614898" lon="18.997633">
        <ele>399.8</ele>
      </trkpt>
<trkpt lat="47.615504" lon="18.997257">
        <ele>403.2</ele>
      </trkpt>
<trkpt lat="47.615979" lon="18.996902">
        <ele>402.4</ele>
      </trkpt>
<trkpt lat="47.616049" lon="18.996765">
        <ele>400.2</ele>
      </trkpt>
<trkpt lat="47.616263" lon="18.996565">
        <ele>399.8</ele>
      </trkpt>
<trkpt lat="47.616780" lon="18.996038">
        <ele>400.2</ele>
      </trkpt>
<trkpt lat="47.616975" lon="18.995937">
        <ele>402</ele>
      </trkpt>
<trkpt lat="47.617058" lon="18.995891">
        <ele>405</ele>
      </trkpt>
<trkpt lat="47.617401" lon="18.995248">
        <ele>410.6</ele>
      </trkpt>
<trkpt lat="47.617997" lon="18.994130">
        <ele>416.6</ele>
      </trkpt>
<trkpt lat="47.618712" lon="18.992461">
        <ele>421.8</ele>
      </trkpt>
<trkpt lat="47.618795" lon="18.992230">
        <ele>425</ele>
      </trkpt>
<trkpt lat="47.618995" lon="18.991758">
        <ele>428.2</ele>
      </trkpt>
<trkpt lat="47.619068" lon="18.991482">
        <ele>432.2</ele>
      </trkpt>
<trkpt lat="47.619189" lon="18.990729">
        <ele>437</ele>
      </trkpt>
<trkpt lat="47.619376" lon="18.990407">
        <ele>441.8</ele>
      </trkpt>
<trkpt lat="47.619622" lon="18.989732">
        <ele>446.2</ele>
      </trkpt>
<trkpt lat="47.619866" lon="18.989398">
        <ele>450.8</ele>
      </trkpt>
<trkpt lat="47.619817" lon="18.989234">
        <ele>452</ele>
      </trkpt>
<trkpt lat="47.619842" lon="18.989113">
        <ele>457.2</ele>
      </trkpt>
<trkpt lat="47.620046" lon="18.989026">
        <ele>463</ele>
      </trkpt>
<trkpt lat="47.620128" lon="18.988839">
        <ele>468.8</ele>
      </trkpt>
<trkpt lat="47.620496" lon="18.988257">
        <ele>480</ele>
      </trkpt>
<trkpt lat="47.620730" lon="18.987515">
        <ele>491.2</ele>
      </trkpt>
<trkpt lat="47.621171" lon="18.987100">
        <ele>497.2</ele>
      </trkpt>
<trkpt lat="47.621342" lon="18.986849">
        <ele>502.6</ele>
      </trkpt>
<trkpt lat="47.621490" lon="18.986749">
        <ele>508</ele>
      </trkpt>
<trkpt lat="47.621679" lon="18.986224">
        <ele>510.6</ele>
      </trkpt>
<trkpt lat="47.621742" lon="18.985883">
        <ele>512.4</ele>
      </trkpt>
<trkpt lat="47.621951" lon="18.985882">
        <ele>514.2</ele>
      </trkpt>
<trkpt lat="47.622327" lon="18.985464">
        <ele>517.4</ele>
      </trkpt>
<trkpt lat="47.622624" lon="18.984962">
        <ele>519.6</ele>
      </trkpt>
<trkpt lat="47.622752" lon="18.984785">
        <ele>519.2</ele>
      </trkpt>
<trkpt lat="47.622917" lon="18.984741">
        <ele>518.2</ele>
      </trkpt>
<trkpt lat="47.623544" lon="18.984121">
        <ele>517.2</ele>
      </trkpt>
<trkpt lat="47.623714" lon="18.983813">
        <ele>511.2</ele>
      </trkpt>
<trkpt lat="47.624094" lon="18.983287">
        <ele>506.2</ele>
      </trkpt>
<trkpt lat="47.624235" lon="18.982943">
        <ele>500.2</ele>
      </trkpt>
<trkpt lat="47.624598" lon="18.982356">
        <ele>495.6</ele>
      </trkpt>
<trkpt lat="47.624623" lon="18.982174">
        <ele>487.6</ele>
      </trkpt>
<trkpt lat="47.624816" lon="18.981871">
        <ele>483.2</ele>
      </trkpt>
<trkpt lat="47.625077" lon="18.981304">
        <ele>476.6</ele>
      </trkpt>
<trkpt lat="47.625300" lon="18.980805">
        <ele>468.2</ele>
      </trkpt>
<trkpt lat="47.625355" lon="18.980490">
        <ele>459.8</ele>
      </trkpt>
<trkpt lat="47.625552" lon="18.980180">
        <ele>452.6</ele>
      </trkpt>
<trkpt lat="47.625956" lon="18.979265">
        <ele>444</ele>
      </trkpt>
<trkpt lat="47.626095" lon="18.979144">
        <ele>437.6</ele>
      </trkpt>
<trkpt lat="47.626415" lon="18.978168">
        <ele>433.6</ele>
      </trkpt>
<trkpt lat="47.626568" lon="18.977658">
        <ele>428.6</ele>
      </trkpt>
<trkpt lat="47.626733" lon="18.977111">
        <ele>423.8</ele>
      </trkpt>
<trkpt lat="47.626833" lon="18.976759">
        <ele>426</ele>
      </trkpt>
<trkpt lat="47.626924" lon="18.975915">
        <ele>428.2</ele>
      </trkpt>
<trkpt lat="47.627068" lon="18.975409">
        <ele>430</ele>
      </trkpt>
<trkpt lat="47.627290" lon="18.974928">
        <ele>432.8</ele>
      </trkpt>
<trkpt lat="47.627608" lon="18.974624">
        <ele>440.4</ele>
      </trkpt>
<trkpt lat="47.627617" lon="18.974426">
        <ele>443.2</ele>
      </trkpt>
<trkpt lat="47.627759" lon="18.974357">
        <ele>446</ele>
      </trkpt>
<trkpt lat="47.628001" lon="18.973845">
        <ele>449.6</ele>
      </trkpt>
<trkpt lat="47.628021" lon="18.973563">
        <ele>453.2</ele>
      </trkpt>
<trkpt lat="47.628236" lon="18.973468">
        <ele>454</ele>
      </trkpt>
<trkpt lat="47.628465" lon="18.973232">
        <ele>455.8</ele>
      </trkpt>
<trkpt lat="47.628530" lon="18.973144">
        <ele>457.6</ele>
      </trkpt>
<trkpt lat="47.628655" lon="18.973098">
        <ele>459.4</ele>
      </trkpt>
<trkpt lat="47.628816" lon="18.972888">
        <ele>463.2</ele>
      </trkpt>
<trkpt lat="47.629169" lon="18.972692">
        <ele>467</ele>
      </trkpt>
<trkpt lat="47.629405" lon="18.972352">
        <ele>468.8</ele>
      </trkpt>
<trkpt lat="47.629638" lon="18.972289">
        <ele>470.6</ele>
      </trkpt>
<trkpt lat="47.629785" lon="18.972094">
        <ele>472.4</ele>
      </trkpt>
<trkpt lat="47.629975" lon="18.971647">
        <ele>467.8</ele>
      </trkpt>
<trkpt lat="47.630157" lon="18.971436">
        <ele>467.6</ele>
      </trkpt>
<trkpt lat="47.630229" lon="18.971270">
        <ele>467.6</ele>
      </trkpt>
<trkpt lat="47.630215" lon="18.971137">
        <ele>467.6</ele>
      </trkpt>
<trkpt lat="47.630229" lon="18.971270">
        <ele>467.8</ele>
      </trkpt>
<trkpt lat="47.630157" lon="18.971436">
        <ele>472.4</ele>
      </trkpt>
<trkpt lat="47.629975" lon="18.971647">
        <ele>470.6</ele>
      </trkpt>
<trkpt lat="47.629785" lon="18.972094">
        <ele>468.8</ele>
      </trkpt>
<trkpt lat="47.629638" lon="18.972289">
        <ele>467</ele>
      </trkpt>
<trkpt lat="47.629405" lon="18.972352">
        <ele>463.2</ele>
      </trkpt>
<trkpt lat="47.629169" lon="18.972692">
        <ele>459.4</ele>
      </trkpt>
<trkpt lat="47.628816" lon="18.972888">
        <ele>457.6</ele>
      </trkpt>
<trkpt lat="47.628655" lon="18.973098">
        <ele>455.8</ele>
      </trkpt>
<trkpt lat="47.628530" lon="18.973144">
        <ele>454</ele>
      </trkpt>
<trkpt lat="47.628465" lon="18.973232">
        <ele>453.2</ele>
      </trkpt>
<trkpt lat="47.628236" lon="18.973468">
        <ele>449.6</ele>
      </trkpt>
<trkpt lat="47.628021" lon="18.973563">
        <ele>446</ele>
      </trkpt>
<trkpt lat="47.628001" lon="18.973845">
        <ele>443.2</ele>
      </trkpt>
<trkpt lat="47.627759" lon="18.974357">
        <ele>440.4</ele>
      </trkpt>
<trkpt lat="47.627617" lon="18.974426">
        <ele>432.8</ele>
      </trkpt>
<trkpt lat="47.627608" lon="18.974624">
        <ele>430</ele>
      </trkpt>
<trkpt lat="47.627290" lon="18.974928">
        <ele>428.2</ele>
      </trkpt>
<trkpt lat="47.627068" lon="18.975409">
        <ele>426</ele>
      </trkpt>
<trkpt lat="47.626924" lon="18.975915">
        <ele>423.8</ele>
      </trkpt>
<trkpt lat="47.626833" lon="18.976759">
        <ele>423.8</ele>
      </trkpt>
<trkpt lat="47.626733" lon="18.977111">
        <ele>421.8</ele>
      </trkpt>
<trkpt lat="47.626523" lon="18.977239">
        <ele>416.4</ele>
      </trkpt>
<trkpt lat="47.626222" lon="18.977313">
        <ele>410.6</ele>
      </trkpt>
<trkpt lat="47.625875" lon="18.977640">
        <ele>402</ele>
      </trkpt>
<trkpt lat="47.625355" lon="18.978383">
        <ele>396.8</ele>
      </trkpt>
<trkpt lat="47.624916" lon="18.978666">
        <ele>388.4</ele>
      </trkpt>
<trkpt lat="47.624542" lon="18.979058">
        <ele>382.4</ele>
      </trkpt>
<trkpt lat="47.624067" lon="18.979451">
        <ele>373.8</ele>
      </trkpt>
<trkpt lat="47.623676" lon="18.979576">
        <ele>366.8</ele>
      </trkpt>
<trkpt lat="47.623491" lon="18.979579">
        <ele>359.8</ele>
      </trkpt>
<trkpt lat="47.622563" lon="18.979345">
        <ele>348</ele>
      </trkpt>
<trkpt lat="47.621885" lon="18.979174">
        <ele>329.6</ele>
      </trkpt>
<trkpt lat="47.621433" lon="18.979538">
        <ele>311.2</ele>
      </trkpt>
<trkpt lat="47.619873" lon="18.977733">
        <ele>296.6</ele>
      </trkpt>
<trkpt lat="47.618657" lon="18.976362">
        <ele>279.4</ele>
      </trkpt>
<trkpt lat="47.618414" lon="18.976042">
        <ele>268</ele>
      </trkpt>
<trkpt lat="47.618083" lon="18.976347">
        <ele>261.4</ele>
      </trkpt>
<trkpt lat="47.618112" lon="18.976058">
        <ele>255.6</ele>
      </trkpt>
<trkpt lat="47.617998" lon="18.975056">
        <ele>247.2</ele>
      </trkpt>
<trkpt lat="47.617944" lon="18.974581">
        <ele>239.6</ele>
      </trkpt>
<trkpt lat="47.618183" lon="18.973712">
        <ele>234.2</ele>
      </trkpt>
<trkpt lat="47.618178" lon="18.973209">
        <ele>230.6</ele>
      </trkpt>
<trkpt lat="47.618378" lon="18.972666">
        <ele>228.8</ele>
      </trkpt>
<trkpt lat="47.618330" lon="18.972341">
        <ele>225.6</ele>
      </trkpt>
<trkpt lat="47.618413" lon="18.972263">
        <ele>224.2</ele>
      </trkpt>
<trkpt lat="47.618404" lon="18.972193">
        <ele>222.8</ele>
      </trkpt>
<trkpt lat="47.618376" lon="18.971772">
        <ele>221.4</ele>
      </trkpt>
<trkpt lat="47.618285" lon="18.971624">
        <ele>219.4</ele>
      </trkpt>
<trkpt lat="47.618073" lon="18.971723">
        <ele>218.8</ele>
      </trkpt>
<trkpt lat="47.617951" lon="18.971806">
        <ele>217.6</ele>
      </trkpt>
<trkpt lat="47.617510" lon="18.972246">
        <ele>217</ele>
      </trkpt>
<trkpt lat="47.617209" lon="18.972418">
        <ele>217.2</ele>
      </trkpt>
<trkpt lat="47.616475" lon="18.973438">
        <ele>218.6</ele>
      </trkpt>
<trkpt lat="47.616107" lon="18.974099">
        <ele>219.8</ele>
      </trkpt>
<trkpt lat="47.615619" lon="18.974762">
        <ele>222.4</ele>
      </trkpt>
<trkpt lat="47.615097" lon="18.975470">
        <ele>227.2</ele>
      </trkpt>
<trkpt lat="47.614530" lon="18.975893">
        <ele>231.2</ele>
      </trkpt>
<trkpt lat="47.614146" lon="18.976671">
        <ele>236.8</ele>
      </trkpt>
<trkpt lat="47.614049" lon="18.977422">
        <ele>241.8</ele>
      </trkpt>
<trkpt lat="47.613876" lon="18.977860">
        <ele>246</ele>
      </trkpt>
<trkpt lat="47.613781" lon="18.978127">
        <ele>247.4</ele>
      </trkpt>
<trkpt lat="47.613729" lon="18.978241">
        <ele>250.4</ele>
      </trkpt>
<trkpt lat="47.613661" lon="18.978393">
        <ele>251.6</ele>
      </trkpt>
<trkpt lat="47.613571" lon="18.978457">
        <ele>253.6</ele>
      </trkpt>
<trkpt lat="47.613025" lon="18.978848">
        <ele>255.6</ele>
      </trkpt>
<trkpt lat="47.612908" lon="18.978966">
        <ele>257.6</ele>
      </trkpt>
<trkpt lat="47.612831" lon="18.979118">
        <ele>256.8</ele>
      </trkpt>
<trkpt lat="47.612441" lon="18.979059">
        <ele>255.6</ele>
      </trkpt>
<trkpt lat="47.612251" lon="18.979030">
        <ele>254.4</ele>
      </trkpt>
<trkpt lat="47.611545" lon="18.979303">
        <ele>254</ele>
      </trkpt>
<trkpt lat="47.611422" lon="18.979433">
        <ele>253.6</ele>
      </trkpt>
<trkpt lat="47.611378" lon="18.979520">
        <ele>254.6</ele>
      </trkpt>
<trkpt lat="47.611236" lon="18.979801">
        <ele>255.6</ele>
      </trkpt>
<trkpt lat="47.610826" lon="18.980024">
        <ele>253.6</ele>
      </trkpt>
<trkpt lat="47.609955" lon="18.980229">
        <ele>250.8</ele>
      </trkpt>
<trkpt lat="47.609907" lon="18.980316">
        <ele>247.8</ele>
      </trkpt>
<trkpt lat="47.610595" lon="18.983806">
        <ele>244</ele>
      </trkpt>
<trkpt lat="47.610677" lon="18.984146">
        <ele>240.75</ele>
      </trkpt>
<trkpt lat="47.610976" lon="18.985394">
        <ele>240.33333333333</ele>
      </trkpt>
<trkpt lat="47.610767" lon="18.985835">
        <ele>239.5</ele>
      </trkpt>
</trkseg>
</trk>
</gpx>



