<?xml version="1.0" encoding="UTF-8"?>
<gpx xmlns="http://www.topografix.com/GPX/1/1" creator="turistautak.openstreetmap.hu" version="1.1" xmlns:xsi="http://www.w3.org/2001/XMLSchema-instance" xsi:schemaLocation="http://www.garmin.com/xmlschemas/GpxExtensions/v3 http://www.garmin.com/xmlschemas/GpxExtensions/v3/GpxExtensionsv3.xsd http://www.topografix.com/GPX/1/1 http://www.topografix.com/GPX/1/1/gpx.xsd">
	<metadata>
		<name>1549965977z5xy útvonal</name>
		<desc>1549965977z5xy útvonal</desc>
	</metadata>
<trk>
  <name>utv</name>
<trkseg><trkpt lat="47.575981" lon="18.884298">
        <ele>336</ele>
      </trkpt>
<trkpt lat="47.575972" lon="18.884551">
        <ele>336.6</ele>
      </trkpt>
<trkpt lat="47.576653" lon="18.884591">
        <ele>338.2</ele>
      </trkpt>
<trkpt lat="47.577156" lon="18.884622">
        <ele>339.8</ele>
      </trkpt>
<trkpt lat="47.577180" lon="18.883705">
        <ele>341</ele>
      </trkpt>
<trkpt lat="47.578673" lon="18.883800">
        <ele>341.2</ele>
      </trkpt>
<trkpt lat="47.579006" lon="18.883725">
        <ele>342</ele>
      </trkpt>
<trkpt lat="47.579997" lon="18.883830">
        <ele>343</ele>
      </trkpt>
<trkpt lat="47.580997" lon="18.883989">
        <ele>344</ele>
      </trkpt>
<trkpt lat="47.581239" lon="18.884015">
        <ele>346.6</ele>
      </trkpt>
<trkpt lat="47.581311" lon="18.884022">
        <ele>349</ele>
      </trkpt>
<trkpt lat="47.581871" lon="18.884061">
        <ele>353.8</ele>
      </trkpt>
<trkpt lat="47.582209" lon="18.884069">
        <ele>360.4</ele>
      </trkpt>
<trkpt lat="47.582907" lon="18.883958">
        <ele>367.4</ele>
      </trkpt>
<trkpt lat="47.583402" lon="18.883961">
        <ele>372.6</ele>
      </trkpt>
<trkpt lat="47.583839" lon="18.883349">
        <ele>379.8</ele>
      </trkpt>
<trkpt lat="47.584401" lon="18.882442">
        <ele>384.6</ele>
      </trkpt>
<trkpt lat="47.584457" lon="18.882353">
        <ele>387</ele>
      </trkpt>
<trkpt lat="47.584587" lon="18.882225">
        <ele>391.8</ele>
      </trkpt>
<trkpt lat="47.584882" lon="18.882216">
        <ele>396.6</ele>
      </trkpt>
<trkpt lat="47.585119" lon="18.882128">
        <ele>401.6</ele>
      </trkpt>
<trkpt lat="47.585805" lon="18.881821">
        <ele>406.6</ele>
      </trkpt>
<trkpt lat="47.586171" lon="18.881669">
        <ele>413.8</ele>
      </trkpt>
<trkpt lat="47.586427" lon="18.881475">
        <ele>418.2</ele>
      </trkpt>
<trkpt lat="47.586516" lon="18.881272">
        <ele>430</ele>
      </trkpt>
<trkpt lat="47.586547" lon="18.881155">
        <ele>439.6</ele>
      </trkpt>
<trkpt lat="47.586555" lon="18.880873">
        <ele>449.4</ele>
      </trkpt>
<trkpt lat="47.587194" lon="18.879497">
        <ele>459.4</ele>
      </trkpt>
<trkpt lat="47.587215" lon="18.879246">
        <ele>473.6</ele>
      </trkpt>
<trkpt lat="47.587528" lon="18.878523">
        <ele>484</ele>
      </trkpt>
<trkpt lat="47.587922" lon="18.878056">
        <ele>495.8</ele>
      </trkpt>
<trkpt lat="47.588772" lon="18.876814">
        <ele>507.4</ele>
      </trkpt>
<trkpt lat="47.589701" lon="18.875624">
        <ele>517.6</ele>
      </trkpt>
<trkpt lat="47.589989" lon="18.875052">
        <ele>523.6</ele>
      </trkpt>
<trkpt lat="47.590186" lon="18.874817">
        <ele>526</ele>
      </trkpt>
<trkpt lat="47.590546" lon="18.874349">
        <ele>527</ele>
      </trkpt>
<trkpt lat="47.590648" lon="18.874217">
        <ele>526.8</ele>
      </trkpt>
<trkpt lat="47.590710" lon="18.874202">
        <ele>525.6</ele>
      </trkpt>
<trkpt lat="47.590993" lon="18.873790">
        <ele>524.4</ele>
      </trkpt>
<trkpt lat="47.590753" lon="18.873680">
        <ele>524</ele>
      </trkpt>
<trkpt lat="47.590567" lon="18.873486">
        <ele>524.8</ele>
      </trkpt>
<trkpt lat="47.590515" lon="18.873341">
        <ele>525.8</ele>
      </trkpt>
<trkpt lat="47.590390" lon="18.872497">
        <ele>525</ele>
      </trkpt>
<trkpt lat="47.590620" lon="18.871640">
        <ele>523</ele>
      </trkpt>
<trkpt lat="47.589943" lon="18.871081">
        <ele>520.2</ele>
      </trkpt>
<trkpt lat="47.589522" lon="18.870692">
        <ele>516.2</ele>
      </trkpt>
<trkpt lat="47.588839" lon="18.870341">
        <ele>512</ele>
      </trkpt>
<trkpt lat="47.588796" lon="18.870158">
        <ele>509.6</ele>
      </trkpt>
<trkpt lat="47.589032" lon="18.869797">
        <ele>507.8</ele>
      </trkpt>
<trkpt lat="47.589346" lon="18.869521">
        <ele>505.2</ele>
      </trkpt>
<trkpt lat="47.589505" lon="18.869176">
        <ele>503.8</ele>
      </trkpt>
<trkpt lat="47.589557" lon="18.868285">
        <ele>503</ele>
      </trkpt>
<trkpt lat="47.589466" lon="18.867236">
        <ele>501.6</ele>
      </trkpt>
<trkpt lat="47.589646" lon="18.866349">
        <ele>500.8</ele>
      </trkpt>
<trkpt lat="47.589660" lon="18.865729">
        <ele>501.2</ele>
      </trkpt>
<trkpt lat="47.589848" lon="18.864713">
        <ele>500.8</ele>
      </trkpt>
<trkpt lat="47.589869" lon="18.864023">
        <ele>501.8</ele>
      </trkpt>
<trkpt lat="47.590146" lon="18.863619">
        <ele>503.4</ele>
      </trkpt>
<trkpt lat="47.590411" lon="18.862565">
        <ele>505</ele>
      </trkpt>
<trkpt lat="47.590410" lon="18.861672">
        <ele>506.6</ele>
      </trkpt>
<trkpt lat="47.590358" lon="18.861376">
        <ele>509</ele>
      </trkpt>
<trkpt lat="47.590212" lon="18.861071">
        <ele>510.6</ele>
      </trkpt>
<trkpt lat="47.590039" lon="18.860408">
        <ele>518.8</ele>
      </trkpt>
<trkpt lat="47.589680" lon="18.859544">
        <ele>526.8</ele>
      </trkpt>
<trkpt lat="47.589345" lon="18.859131">
        <ele>536.2</ele>
      </trkpt>
<trkpt lat="47.589413" lon="18.854076">
        <ele>544.8</ele>
      </trkpt>
<trkpt lat="47.589602" lon="18.853100">
        <ele>552.4</ele>
      </trkpt>
<trkpt lat="47.589927" lon="18.852570">
        <ele>551.4</ele>
      </trkpt>
<trkpt lat="47.590312" lon="18.850678">
        <ele>550.6</ele>
      </trkpt>
<trkpt lat="47.590341" lon="18.849854">
        <ele>545.6</ele>
      </trkpt>
<trkpt lat="47.590277" lon="18.849381">
        <ele>537.6</ele>
      </trkpt>
<trkpt lat="47.590300" lon="18.849027">
        <ele>530.6</ele>
      </trkpt>
<trkpt lat="47.590596" lon="18.848275">
        <ele>523.4</ele>
      </trkpt>
<trkpt lat="47.590692" lon="18.847787">
        <ele>514</ele>
      </trkpt>
<trkpt lat="47.590877" lon="18.847444">
        <ele>507</ele>
      </trkpt>
<trkpt lat="47.591174" lon="18.846657">
        <ele>501.4</ele>
      </trkpt>
<trkpt lat="47.591069" lon="18.846200">
        <ele>494.2</ele>
      </trkpt>
<trkpt lat="47.590993" lon="18.846035">
        <ele>488</ele>
      </trkpt>
<trkpt lat="47.590821" lon="18.844625">
        <ele>485.2</ele>
      </trkpt>
<trkpt lat="47.590709" lon="18.844497">
        <ele>480.8</ele>
      </trkpt>
<trkpt lat="47.590314" lon="18.844543">
        <ele>477.6</ele>
      </trkpt>
<trkpt lat="47.589906" lon="18.844698">
        <ele>476</ele>
      </trkpt>
<trkpt lat="47.589026" lon="18.844409">
        <ele>474.2</ele>
      </trkpt>
<trkpt lat="47.588833" lon="18.844261">
        <ele>470.8</ele>
      </trkpt>
<trkpt lat="47.588774" lon="18.844215">
        <ele>469.6</ele>
      </trkpt>
<trkpt lat="47.588546" lon="18.843753">
        <ele>468.4</ele>
      </trkpt>
<trkpt lat="47.588496" lon="18.843513">
        <ele>467.2</ele>
      </trkpt>
<trkpt lat="47.588487" lon="18.842419">
        <ele>468</ele>
      </trkpt>
<trkpt lat="47.588416" lon="18.842293">
        <ele>469.2</ele>
      </trkpt>
<trkpt lat="47.588400" lon="18.842177">
        <ele>469.8</ele>
      </trkpt>
<trkpt lat="47.588356" lon="18.842006">
        <ele>470.4</ele>
      </trkpt>
<trkpt lat="47.588189" lon="18.841782">
        <ele>471.2</ele>
      </trkpt>
<trkpt lat="47.588138" lon="18.841456">
        <ele>471.4</ele>
      </trkpt>
<trkpt lat="47.587914" lon="18.840987">
        <ele>471.4</ele>
      </trkpt>
<trkpt lat="47.587727" lon="18.839855">
        <ele>470</ele>
      </trkpt>
<trkpt lat="47.587720" lon="18.839630">
        <ele>468.2</ele>
      </trkpt>
<trkpt lat="47.587748" lon="18.839302">
        <ele>466.2</ele>
      </trkpt>
<trkpt lat="47.588011" lon="18.838304">
        <ele>464.2</ele>
      </trkpt>
<trkpt lat="47.588215" lon="18.837788">
        <ele>461.4</ele>
      </trkpt>
<trkpt lat="47.588413" lon="18.837469">
        <ele>461.8</ele>
      </trkpt>
<trkpt lat="47.588574" lon="18.837145">
        <ele>461.6</ele>
      </trkpt>
<trkpt lat="47.588614" lon="18.836780">
        <ele>461</ele>
      </trkpt>
<trkpt lat="47.589037" lon="18.835563">
        <ele>457.8</ele>
      </trkpt>
<trkpt lat="47.589445" lon="18.835163">
        <ele>455.6</ele>
      </trkpt>
<trkpt lat="47.590015" lon="18.834709">
        <ele>450.4</ele>
      </trkpt>
<trkpt lat="47.590812" lon="18.834332">
        <ele>444.2</ele>
      </trkpt>
<trkpt lat="47.590983" lon="18.834115">
        <ele>439</ele>
      </trkpt>
<trkpt lat="47.591214" lon="18.833623">
        <ele>435.6</ele>
      </trkpt>
<trkpt lat="47.591782" lon="18.832723">
        <ele>431.6</ele>
      </trkpt>
<trkpt lat="47.592141" lon="18.832467">
        <ele>430.2</ele>
      </trkpt>
<trkpt lat="47.593112" lon="18.830735">
        <ele>429.6</ele>
      </trkpt>
<trkpt lat="47.593407" lon="18.829966">
        <ele>426</ele>
      </trkpt>
<trkpt lat="47.594747" lon="18.828086">
        <ele>422.2</ele>
      </trkpt>
<trkpt lat="47.595038" lon="18.827252">
        <ele>419</ele>
      </trkpt>
<trkpt lat="47.595053" lon="18.825503">
        <ele>413.6</ele>
      </trkpt>
<trkpt lat="47.595049" lon="18.825056">
        <ele>409.8</ele>
      </trkpt>
<trkpt lat="47.595107" lon="18.824655">
        <ele>407.4</ele>
      </trkpt>
<trkpt lat="47.595347" lon="18.823869">
        <ele>406</ele>
      </trkpt>
<trkpt lat="47.595668" lon="18.823249">
        <ele>402.8</ele>
      </trkpt>
<trkpt lat="47.595991" lon="18.822796">
        <ele>400.4</ele>
      </trkpt>
<trkpt lat="47.596045" lon="18.822641">
        <ele>395.6</ele>
      </trkpt>
<trkpt lat="47.596286" lon="18.821949">
        <ele>391.4</ele>
      </trkpt>
<trkpt lat="47.596389" lon="18.821844">
        <ele>386.8</ele>
      </trkpt>
<trkpt lat="47.597222" lon="18.821426">
        <ele>383.4</ele>
      </trkpt>
<trkpt lat="47.597409" lon="18.820760">
        <ele>380</ele>
      </trkpt>
<trkpt lat="47.597534" lon="18.819767">
        <ele>377.6</ele>
      </trkpt>
<trkpt lat="47.597638" lon="18.819507">
        <ele>375.6</ele>
      </trkpt>
<trkpt lat="47.597887" lon="18.819130">
        <ele>371.2</ele>
      </trkpt>
<trkpt lat="47.598611" lon="18.818336">
        <ele>365</ele>
      </trkpt>
<trkpt lat="47.598734" lon="18.818145">
        <ele>351.6</ele>
      </trkpt>
<trkpt lat="47.599434" lon="18.816941">
        <ele>338.8</ele>
      </trkpt>
<trkpt lat="47.600068" lon="18.815069">
        <ele>326</ele>
      </trkpt>
<trkpt lat="47.600773" lon="18.811231">
        <ele>316.4</ele>
      </trkpt>
<trkpt lat="47.600951" lon="18.810296">
        <ele>309.2</ele>
      </trkpt>
<trkpt lat="47.600999" lon="18.809832">
        <ele>307.4</ele>
      </trkpt>
<trkpt lat="47.600753" lon="18.808721">
        <ele>305.8</ele>
      </trkpt>
<trkpt lat="47.600684" lon="18.808385">
        <ele>302</ele>
      </trkpt>
<trkpt lat="47.600399" lon="18.808174">
        <ele>297.8</ele>
      </trkpt>
<trkpt lat="47.600019" lon="18.807712">
        <ele>292.8</ele>
      </trkpt>
<trkpt lat="47.599564" lon="18.807448">
        <ele>280.6</ele>
      </trkpt>
<trkpt lat="47.599413" lon="18.807298">
        <ele>268.6</ele>
      </trkpt>
<trkpt lat="47.598897" lon="18.806613">
        <ele>258.6</ele>
      </trkpt>
<trkpt lat="47.595328" lon="18.803983">
        <ele>248.6</ele>
      </trkpt>
<trkpt lat="47.594629" lon="18.803541">
        <ele>239.2</ele>
      </trkpt>
<trkpt lat="47.594469" lon="18.803613">
        <ele>239</ele>
      </trkpt>
<trkpt lat="47.594420" lon="18.803684">
        <ele>238.8</ele>
      </trkpt>
<trkpt lat="47.594428" lon="18.804560">
        <ele>240</ele>
      </trkpt>
<trkpt lat="47.594438" lon="18.805651">
        <ele>240</ele>
      </trkpt>
<trkpt lat="47.594373" lon="18.805917">
        <ele>240.2</ele>
      </trkpt>
<trkpt lat="47.593988" lon="18.806588">
        <ele>241.8</ele>
      </trkpt>
<trkpt lat="47.592818" lon="18.808540">
        <ele>243.4</ele>
      </trkpt>
<trkpt lat="47.592773" lon="18.808691">
        <ele>245.4</ele>
      </trkpt>
<trkpt lat="47.592797" lon="18.808964">
        <ele>250</ele>
      </trkpt>
<trkpt lat="47.592863" lon="18.809131">
        <ele>263.2</ele>
      </trkpt>
<trkpt lat="47.593001" lon="18.809349">
        <ele>281</ele>
      </trkpt>
<trkpt lat="47.592704" lon="18.809962">
        <ele>304.4</ele>
      </trkpt>
<trkpt lat="47.592044" lon="18.811803">
        <ele>325.6</ele>
      </trkpt>
<trkpt lat="47.591970" lon="18.812240">
        <ele>346.8</ele>
      </trkpt>
<trkpt lat="47.591337" lon="18.813800">
        <ele>359.4</ele>
      </trkpt>
<trkpt lat="47.591141" lon="18.814343">
        <ele>366.2</ele>
      </trkpt>
<trkpt lat="47.591030" lon="18.814710">
        <ele>367.4</ele>
      </trkpt>
<trkpt lat="47.590982" lon="18.814869">
        <ele>369</ele>
      </trkpt>
<trkpt lat="47.590921" lon="18.815749">
        <ele>368.6</ele>
      </trkpt>
<trkpt lat="47.590578" lon="18.816622">
        <ele>368.2</ele>
      </trkpt>
<trkpt lat="47.590052" lon="18.816905">
        <ele>367.8</ele>
      </trkpt>
<trkpt lat="47.589535" lon="18.817479">
        <ele>367.4</ele>
      </trkpt>
<trkpt lat="47.589380" lon="18.817685">
        <ele>365.4</ele>
      </trkpt>
<trkpt lat="47.588967" lon="18.817924">
        <ele>364.8</ele>
      </trkpt>
<trkpt lat="47.588798" lon="18.818276">
        <ele>364.4</ele>
      </trkpt>
<trkpt lat="47.588370" lon="18.818734">
        <ele>363.6</ele>
      </trkpt>
<trkpt lat="47.588354" lon="18.818989">
        <ele>365</ele>
      </trkpt>
<trkpt lat="47.588507" lon="18.819645">
        <ele>368.2</ele>
      </trkpt>
<trkpt lat="47.588667" lon="18.820129">
        <ele>370.6</ele>
      </trkpt>
<trkpt lat="47.588922" lon="18.820542">
        <ele>372.8</ele>
      </trkpt>
<trkpt lat="47.588942" lon="18.820665">
        <ele>375.2</ele>
      </trkpt>
<trkpt lat="47.588961" lon="18.821358">
        <ele>375</ele>
      </trkpt>
<trkpt lat="47.588913" lon="18.821851">
        <ele>374.2</ele>
      </trkpt>
<trkpt lat="47.588723" lon="18.822325">
        <ele>376.4</ele>
      </trkpt>
<trkpt lat="47.588486" lon="18.823257">
        <ele>380.2</ele>
      </trkpt>
<trkpt lat="47.588468" lon="18.823846">
        <ele>385</ele>
      </trkpt>
<trkpt lat="47.588842" lon="18.825077">
        <ele>390.2</ele>
      </trkpt>
<trkpt lat="47.588984" lon="18.825746">
        <ele>396.6</ele>
      </trkpt>
<trkpt lat="47.588936" lon="18.826500">
        <ele>401</ele>
      </trkpt>
<trkpt lat="47.588931" lon="18.826581">
        <ele>404</ele>
      </trkpt>
<trkpt lat="47.588669" lon="18.827689">
        <ele>405.8</ele>
      </trkpt>
<trkpt lat="47.588657" lon="18.828163">
        <ele>407</ele>
      </trkpt>
<trkpt lat="47.588522" lon="18.828849">
        <ele>407.6</ele>
      </trkpt>
<trkpt lat="47.588299" lon="18.829378">
        <ele>408</ele>
      </trkpt>
<trkpt lat="47.588290" lon="18.829617">
        <ele>414</ele>
      </trkpt>
<trkpt lat="47.588449" lon="18.830160">
        <ele>421.4</ele>
      </trkpt>
<trkpt lat="47.588651" lon="18.831085">
        <ele>428.6</ele>
      </trkpt>
<trkpt lat="47.588508" lon="18.833422">
        <ele>435.4</ele>
      </trkpt>
<trkpt lat="47.588383" lon="18.833779">
        <ele>441.4</ele>
      </trkpt>
<trkpt lat="47.587676" lon="18.834551">
        <ele>441.6</ele>
      </trkpt>
<trkpt lat="47.587653" lon="18.834758">
        <ele>444</ele>
      </trkpt>
<trkpt lat="47.587640" lon="18.834868">
        <ele>447.2</ele>
      </trkpt>
<trkpt lat="47.587731" lon="18.835122">
        <ele>450.6</ele>
      </trkpt>
<trkpt lat="47.588156" lon="18.835485">
        <ele>455</ele>
      </trkpt>
<trkpt lat="47.588481" lon="18.836017">
        <ele>459.4</ele>
      </trkpt>
<trkpt lat="47.588614" lon="18.836780">
        <ele>460.2</ele>
      </trkpt>
<trkpt lat="47.588574" lon="18.837145">
        <ele>461.4</ele>
      </trkpt>
<trkpt lat="47.588413" lon="18.837469">
        <ele>464.2</ele>
      </trkpt>
<trkpt lat="47.588215" lon="18.837788">
        <ele>466.2</ele>
      </trkpt>
<trkpt lat="47.588011" lon="18.838304">
        <ele>468.2</ele>
      </trkpt>
<trkpt lat="47.587748" lon="18.839302">
        <ele>470</ele>
      </trkpt>
<trkpt lat="47.587720" lon="18.839630">
        <ele>471.4</ele>
      </trkpt>
<trkpt lat="47.587727" lon="18.839855">
        <ele>471.4</ele>
      </trkpt>
<trkpt lat="47.587914" lon="18.840987">
        <ele>470.6</ele>
      </trkpt>
<trkpt lat="47.588138" lon="18.841456">
        <ele>468.6</ele>
      </trkpt>
<trkpt lat="47.588189" lon="18.841782">
        <ele>464.6</ele>
      </trkpt>
<trkpt lat="47.588132" lon="18.842224">
        <ele>460.6</ele>
      </trkpt>
<trkpt lat="47.587678" lon="18.842994">
        <ele>455.2</ele>
      </trkpt>
<trkpt lat="47.586786" lon="18.845183">
        <ele>451.8</ele>
      </trkpt>
<trkpt lat="47.586516" lon="18.846347">
        <ele>448</ele>
      </trkpt>
<trkpt lat="47.586223" lon="18.847405">
        <ele>447</ele>
      </trkpt>
<trkpt lat="47.585461" lon="18.849362">
        <ele>446.2</ele>
      </trkpt>
<trkpt lat="47.585249" lon="18.849906">
        <ele>446.6</ele>
      </trkpt>
<trkpt lat="47.585044" lon="18.851126">
        <ele>445.2</ele>
      </trkpt>
<trkpt lat="47.584827" lon="18.851787">
        <ele>441.6</ele>
      </trkpt>
<trkpt lat="47.584747" lon="18.852382">
        <ele>437.4</ele>
      </trkpt>
<trkpt lat="47.584602" lon="18.853426">
        <ele>433</ele>
      </trkpt>
<trkpt lat="47.584407" lon="18.854005">
        <ele>428.4</ele>
      </trkpt>
<trkpt lat="47.584207" lon="18.854373">
        <ele>420.6</ele>
      </trkpt>
<trkpt lat="47.584072" lon="18.854510">
        <ele>416</ele>
      </trkpt>
<trkpt lat="47.583885" lon="18.854702">
        <ele>407.8</ele>
      </trkpt>
<trkpt lat="47.583363" lon="18.855389">
        <ele>399.4</ele>
      </trkpt>
<trkpt lat="47.583016" lon="18.856363">
        <ele>389.8</ele>
      </trkpt>
<trkpt lat="47.582416" lon="18.858910">
        <ele>382</ele>
      </trkpt>
<trkpt lat="47.582170" lon="18.859731">
        <ele>373.2</ele>
      </trkpt>
<trkpt lat="47.581650" lon="18.861114">
        <ele>366.8</ele>
      </trkpt>
<trkpt lat="47.581194" lon="18.862517">
        <ele>359.4</ele>
      </trkpt>
<trkpt lat="47.580737" lon="18.864171">
        <ele>353.6</ele>
      </trkpt>
<trkpt lat="47.579949" lon="18.867023">
        <ele>349.6</ele>
      </trkpt>
<trkpt lat="47.579507" lon="18.868192">
        <ele>346.6</ele>
      </trkpt>
<trkpt lat="47.579187" lon="18.868942">
        <ele>344.4</ele>
      </trkpt>
<trkpt lat="47.578798" lon="18.869877">
        <ele>343.6</ele>
      </trkpt>
<trkpt lat="47.578617" lon="18.870167">
        <ele>342.6</ele>
      </trkpt>
<trkpt lat="47.578362" lon="18.870588">
        <ele>341.4</ele>
      </trkpt>
<trkpt lat="47.577935" lon="18.871473">
        <ele>340.4</ele>
      </trkpt>
<trkpt lat="47.577354" lon="18.872732">
        <ele>339.8</ele>
      </trkpt>
<trkpt lat="47.577056" lon="18.873541">
        <ele>339.2</ele>
      </trkpt>
<trkpt lat="47.576882" lon="18.874047">
        <ele>338.4</ele>
      </trkpt>
<trkpt lat="47.576750" lon="18.874390">
        <ele>338</ele>
      </trkpt>
<trkpt lat="47.576354" lon="18.875586">
        <ele>338.2</ele>
      </trkpt>
<trkpt lat="47.576016" lon="18.876840">
        <ele>338.4</ele>
      </trkpt>
<trkpt lat="47.575875" lon="18.877669">
        <ele>338.2</ele>
      </trkpt>
<trkpt lat="47.575719" lon="18.878296">
        <ele>338.4</ele>
      </trkpt>
<trkpt lat="47.575717" lon="18.878546">
        <ele>337.8</ele>
      </trkpt>
<trkpt lat="47.575860" lon="18.879056">
        <ele>337</ele>
      </trkpt>
<trkpt lat="47.575898" lon="18.879444">
        <ele>336.2</ele>
      </trkpt>
<trkpt lat="47.575967" lon="18.879801">
        <ele>335.2</ele>
      </trkpt>
<trkpt lat="47.575979" lon="18.879875">
        <ele>334.2</ele>
      </trkpt>
<trkpt lat="47.576022" lon="18.880330">
        <ele>333.8</ele>
      </trkpt>
<trkpt lat="47.576006" lon="18.883238">
        <ele>333.4</ele>
      </trkpt>
<trkpt lat="47.576006" lon="18.883581">
        <ele>333</ele>
      </trkpt>
<trkpt lat="47.575999" lon="18.883739">
        <ele>333</ele>
      </trkpt>
<trkpt lat="47.575989" lon="18.884058">
        <ele>333</ele>
      </trkpt>
</trkseg>
</trk>
</gpx>



