<?xml version="1.0" encoding="UTF-8"?>
<gpx xmlns="http://www.topografix.com/GPX/1/1" xmlns:gpsies="http://www.gpsies.com/GPX/1/0" creator="GPSies http://www.gpsies.com - GPSies Track" version="1.1" xmlns:xsi="http://www.w3.org/2001/XMLSchema-instance" xsi:schemaLocation="http://www.topografix.com/GPX/1/1 http://www.topografix.com/GPX/1/1/gpx.xsd http://www.gpsies.com/GPX/1/0 http://www.gpsies.com/gpsies.xsd">
  <metadata>
    <name>GPSies Track</name>
    <link href="http://www.gpsies.com/">
      <text>GPSies Track on GPSies.com</text>
    </link>
    <time>2018-01-25T12:09:52Z</time>
  </metadata>
  <trk>
    <name>GPSies Track on GPSies.com</name>
    <trkseg>
      <trkpt lat="47.62250848" lon="18.86497378">
        <ele>278.00000</ele>
        <time>2010-01-01T00:00:00Z</time>
      </trkpt>
      <trkpt lat="47.62250000" lon="18.86496000">
        <ele>278.00000</ele>
        <time>2010-01-01T00:00:00Z</time>
      </trkpt>
      <trkpt lat="47.62240000" lon="18.86520000">
        <ele>277.00000</ele>
        <time>2010-01-01T00:00:08Z</time>
      </trkpt>
      <trkpt lat="47.62196000" lon="18.86631000">
        <ele>274.00000</ele>
        <time>2010-01-01T00:00:42Z</time>
      </trkpt>
      <trkpt lat="47.62207000" lon="18.86644000">
        <ele>275.00000</ele>
        <time>2010-01-01T00:00:48Z</time>
      </trkpt>
      <trkpt lat="47.62191000" lon="18.86678000">
        <ele>274.00000</ele>
        <time>2010-01-01T00:00:59Z</time>
      </trkpt>
      <trkpt lat="47.62188000" lon="18.86690000">
        <ele>274.00000</ele>
        <time>2010-01-01T00:01:03Z</time>
      </trkpt>
      <trkpt lat="47.62192000" lon="18.86707000">
        <ele>276.00000</ele>
        <time>2010-01-01T00:01:07Z</time>
      </trkpt>
      <trkpt lat="47.62189000" lon="18.86728000">
        <ele>276.00000</ele>
        <time>2010-01-01T00:01:13Z</time>
      </trkpt>
      <trkpt lat="47.62189000" lon="18.86737000">
        <ele>276.00000</ele>
        <time>2010-01-01T00:01:16Z</time>
      </trkpt>
      <trkpt lat="47.62188000" lon="18.86750000">
        <ele>277.00000</ele>
        <time>2010-01-01T00:01:19Z</time>
      </trkpt>
      <trkpt lat="47.62190000" lon="18.86794000">
        <ele>277.00000</ele>
        <time>2010-01-01T00:01:31Z</time>
      </trkpt>
      <trkpt lat="47.62191000" lon="18.86809000">
        <ele>277.00000</ele>
        <time>2010-01-01T00:01:35Z</time>
      </trkpt>
      <trkpt lat="47.62200000" lon="18.86842000">
        <ele>279.00000</ele>
        <time>2010-01-01T00:01:45Z</time>
      </trkpt>
      <trkpt lat="47.62201000" lon="18.86877000">
        <ele>280.00000</ele>
        <time>2010-01-01T00:01:54Z</time>
      </trkpt>
      <trkpt lat="47.62207000" lon="18.86907000">
        <ele>283.00000</ele>
        <time>2010-01-01T00:02:03Z</time>
      </trkpt>
      <trkpt lat="47.62207000" lon="18.86948000">
        <ele>283.00000</ele>
        <time>2010-01-01T00:02:14Z</time>
      </trkpt>
      <trkpt lat="47.62199000" lon="18.86991000">
        <ele>281.00000</ele>
        <time>2010-01-01T00:02:26Z</time>
      </trkpt>
      <trkpt lat="47.62199000" lon="18.87020000">
        <ele>282.00000</ele>
        <time>2010-01-01T00:02:34Z</time>
      </trkpt>
      <trkpt lat="47.62203000" lon="18.87040000">
        <ele>282.00000</ele>
        <time>2010-01-01T00:02:39Z</time>
      </trkpt>
      <trkpt lat="47.62207000" lon="18.87050000">
        <ele>282.00000</ele>
        <time>2010-01-01T00:02:42Z</time>
      </trkpt>
      <trkpt lat="47.62213000" lon="18.87055000">
        <ele>282.00000</ele>
        <time>2010-01-01T00:02:45Z</time>
      </trkpt>
      <trkpt lat="47.62221000" lon="18.87052000">
        <ele>283.00000</ele>
        <time>2010-01-01T00:02:48Z</time>
      </trkpt>
      <trkpt lat="47.62239000" lon="18.87039000">
        <ele>285.00000</ele>
        <time>2010-01-01T00:02:56Z</time>
      </trkpt>
      <trkpt lat="47.62262000" lon="18.87011000">
        <ele>289.00000</ele>
        <time>2010-01-01T00:03:08Z</time>
      </trkpt>
      <trkpt lat="47.62309000" lon="18.86963000">
        <ele>295.00000</ele>
        <time>2010-01-01T00:03:31Z</time>
      </trkpt>
      <trkpt lat="47.62361000" lon="18.86876000">
        <ele>304.00000</ele>
        <time>2010-01-01T00:04:03Z</time>
      </trkpt>
      <trkpt lat="47.62414000" lon="18.86814000">
        <ele>311.00000</ele>
        <time>2010-01-01T00:04:30Z</time>
      </trkpt>
      <trkpt lat="47.62426000" lon="18.86792000">
        <ele>314.00000</ele>
        <time>2010-01-01T00:04:37Z</time>
      </trkpt>
      <trkpt lat="47.62442000" lon="18.86765000">
        <ele>317.00000</ele>
        <time>2010-01-01T00:04:47Z</time>
      </trkpt>
      <trkpt lat="47.62458000" lon="18.86727000">
        <ele>321.00000</ele>
        <time>2010-01-01T00:04:59Z</time>
      </trkpt>
      <trkpt lat="47.62469000" lon="18.86707000">
        <ele>325.00000</ele>
        <time>2010-01-01T00:05:06Z</time>
      </trkpt>
      <trkpt lat="47.62545000" lon="18.86648000">
        <ele>336.00000</ele>
        <time>2010-01-01T00:05:40Z</time>
      </trkpt>
      <trkpt lat="47.62550000" lon="18.86648000">
        <ele>336.00000</ele>
        <time>2010-01-01T00:05:42Z</time>
      </trkpt>
      <trkpt lat="47.62553000" lon="18.86652000">
        <ele>336.00000</ele>
        <time>2010-01-01T00:05:44Z</time>
      </trkpt>
      <trkpt lat="47.62551000" lon="18.86680000">
        <ele>333.00000</ele>
        <time>2010-01-01T00:05:52Z</time>
      </trkpt>
      <trkpt lat="47.62552000" lon="18.86686000">
        <ele>332.00000</ele>
        <time>2010-01-01T00:05:53Z</time>
      </trkpt>
      <trkpt lat="47.62555000" lon="18.86690000">
        <ele>331.00000</ele>
        <time>2010-01-01T00:05:55Z</time>
      </trkpt>
      <trkpt lat="47.62560000" lon="18.86690000">
        <ele>332.00000</ele>
        <time>2010-01-01T00:05:57Z</time>
      </trkpt>
      <trkpt lat="47.62565000" lon="18.86686000">
        <ele>334.00000</ele>
        <time>2010-01-01T00:05:59Z</time>
      </trkpt>
      <trkpt lat="47.62574000" lon="18.86672000">
        <ele>337.00000</ele>
        <time>2010-01-01T00:06:04Z</time>
      </trkpt>
      <trkpt lat="47.62594000" lon="18.86658000">
        <ele>342.00000</ele>
        <time>2010-01-01T00:06:13Z</time>
      </trkpt>
      <trkpt lat="47.62614000" lon="18.86646000">
        <ele>345.00000</ele>
        <time>2010-01-01T00:06:22Z</time>
      </trkpt>
      <trkpt lat="47.62651000" lon="18.86639000">
        <ele>346.00000</ele>
        <time>2010-01-01T00:06:37Z</time>
      </trkpt>
      <trkpt lat="47.62664000" lon="18.86636000">
        <ele>345.00000</ele>
        <time>2010-01-01T00:06:42Z</time>
      </trkpt>
      <trkpt lat="47.62672000" lon="18.86639000">
        <ele>345.00000</ele>
        <time>2010-01-01T00:06:45Z</time>
      </trkpt>
      <trkpt lat="47.62676000" lon="18.86651000">
        <ele>345.00000</ele>
        <time>2010-01-01T00:06:49Z</time>
      </trkpt>
      <trkpt lat="47.62666000" lon="18.86721000">
        <ele>349.00000</ele>
        <time>2010-01-01T00:07:08Z</time>
      </trkpt>
      <trkpt lat="47.62667000" lon="18.86743000">
        <ele>349.00000</ele>
        <time>2010-01-01T00:07:14Z</time>
      </trkpt>
      <trkpt lat="47.62671000" lon="18.86749000">
        <ele>348.00000</ele>
        <time>2010-01-01T00:07:16Z</time>
      </trkpt>
      <trkpt lat="47.62678000" lon="18.86751000">
        <ele>348.00000</ele>
        <time>2010-01-01T00:07:19Z</time>
      </trkpt>
      <trkpt lat="47.62707000" lon="18.86746000">
        <ele>346.00000</ele>
        <time>2010-01-01T00:07:31Z</time>
      </trkpt>
      <trkpt lat="47.62712000" lon="18.86747000">
        <ele>346.00000</ele>
        <time>2010-01-01T00:07:33Z</time>
      </trkpt>
      <trkpt lat="47.62729000" lon="18.86802000">
        <ele>347.00000</ele>
        <time>2010-01-01T00:07:49Z</time>
      </trkpt>
      <trkpt lat="47.62734000" lon="18.86807000">
        <ele>347.00000</ele>
        <time>2010-01-01T00:07:52Z</time>
      </trkpt>
      <trkpt lat="47.62742000" lon="18.86810000">
        <ele>346.00000</ele>
        <time>2010-01-01T00:07:55Z</time>
      </trkpt>
      <trkpt lat="47.62741000" lon="18.86810000">
        <ele>346.00000</ele>
        <time>2010-01-01T00:07:55Z</time>
      </trkpt>
      <trkpt lat="47.62755000" lon="18.86816000">
        <ele>346.00000</ele>
        <time>2010-01-01T00:08:01Z</time>
      </trkpt>
      <trkpt lat="47.62772000" lon="18.86809000">
        <ele>348.00000</ele>
        <time>2010-01-01T00:08:08Z</time>
      </trkpt>
      <trkpt lat="47.62791000" lon="18.86802000">
        <ele>349.00000</ele>
        <time>2010-01-01T00:08:16Z</time>
      </trkpt>
      <trkpt lat="47.62800000" lon="18.86800000">
        <ele>350.00000</ele>
        <time>2010-01-01T00:08:20Z</time>
      </trkpt>
      <trkpt lat="47.62807000" lon="18.86794000">
        <ele>350.00000</ele>
        <time>2010-01-01T00:08:23Z</time>
      </trkpt>
      <trkpt lat="47.62813000" lon="18.86782000">
        <ele>351.00000</ele>
        <time>2010-01-01T00:08:27Z</time>
      </trkpt>
      <trkpt lat="47.62819000" lon="18.86776000">
        <ele>351.00000</ele>
        <time>2010-01-01T00:08:30Z</time>
      </trkpt>
      <trkpt lat="47.62854000" lon="18.86789000">
        <ele>355.00000</ele>
        <time>2010-01-01T00:08:44Z</time>
      </trkpt>
      <trkpt lat="47.62866000" lon="18.86791000">
        <ele>355.00000</ele>
        <time>2010-01-01T00:08:49Z</time>
      </trkpt>
      <trkpt lat="47.62879000" lon="18.86790000">
        <ele>357.00000</ele>
        <time>2010-01-01T00:08:54Z</time>
      </trkpt>
      <trkpt lat="47.62897000" lon="18.86781000">
        <ele>358.00000</ele>
        <time>2010-01-01T00:09:02Z</time>
      </trkpt>
      <trkpt lat="47.62915000" lon="18.86776000">
        <ele>360.00000</ele>
        <time>2010-01-01T00:09:09Z</time>
      </trkpt>
      <trkpt lat="47.62961000" lon="18.86724000">
        <ele>357.00000</ele>
        <time>2010-01-01T00:09:33Z</time>
      </trkpt>
      <trkpt lat="47.62981000" lon="18.86712000">
        <ele>354.00000</ele>
        <time>2010-01-01T00:09:41Z</time>
      </trkpt>
      <trkpt lat="47.62996000" lon="18.86715000">
        <ele>354.00000</ele>
        <time>2010-01-01T00:09:47Z</time>
      </trkpt>
      <trkpt lat="47.63008000" lon="18.86709000">
        <ele>352.00000</ele>
        <time>2010-01-01T00:09:52Z</time>
      </trkpt>
      <trkpt lat="47.63009000" lon="18.86708000">
        <ele>352.00000</ele>
        <time>2010-01-01T00:09:53Z</time>
      </trkpt>
      <trkpt lat="47.63020000" lon="18.86699000">
        <ele>350.00000</ele>
        <time>2010-01-01T00:09:58Z</time>
      </trkpt>
      <trkpt lat="47.63026000" lon="18.86687000">
        <ele>350.00000</ele>
        <time>2010-01-01T00:10:02Z</time>
      </trkpt>
      <trkpt lat="47.63031000" lon="18.86672000">
        <ele>351.00000</ele>
        <time>2010-01-01T00:10:06Z</time>
      </trkpt>
      <trkpt lat="47.63039000" lon="18.86656000">
        <ele>353.00000</ele>
        <time>2010-01-01T00:10:12Z</time>
      </trkpt>
      <trkpt lat="47.63052000" lon="18.86644000">
        <ele>355.00000</ele>
        <time>2010-01-01T00:10:18Z</time>
      </trkpt>
      <trkpt lat="47.63064000" lon="18.86620000">
        <ele>359.00000</ele>
        <time>2010-01-01T00:10:26Z</time>
      </trkpt>
      <trkpt lat="47.63074000" lon="18.86609000">
        <ele>360.00000</ele>
        <time>2010-01-01T00:10:31Z</time>
      </trkpt>
      <trkpt lat="47.63109000" lon="18.86593000">
        <ele>363.00000</ele>
        <time>2010-01-01T00:10:46Z</time>
      </trkpt>
      <trkpt lat="47.63120000" lon="18.86605000">
        <ele>361.00000</ele>
        <time>2010-01-01T00:10:51Z</time>
      </trkpt>
      <trkpt lat="47.63126000" lon="18.86608000">
        <ele>360.00000</ele>
        <time>2010-01-01T00:10:54Z</time>
      </trkpt>
      <trkpt lat="47.63134000" lon="18.86605000">
        <ele>360.00000</ele>
        <time>2010-01-01T00:10:57Z</time>
      </trkpt>
      <trkpt lat="47.63146000" lon="18.86596000">
        <ele>360.00000</ele>
        <time>2010-01-01T00:11:02Z</time>
      </trkpt>
      <trkpt lat="47.63159000" lon="18.86584000">
        <ele>361.00000</ele>
        <time>2010-01-01T00:11:08Z</time>
      </trkpt>
      <trkpt lat="47.63203000" lon="18.86554000">
        <ele>360.00000</ele>
        <time>2010-01-01T00:11:28Z</time>
      </trkpt>
      <trkpt lat="47.63227000" lon="18.86545000">
        <ele>360.00000</ele>
        <time>2010-01-01T00:11:38Z</time>
      </trkpt>
      <trkpt lat="47.63252000" lon="18.86526000">
        <ele>362.00000</ele>
        <time>2010-01-01T00:11:49Z</time>
      </trkpt>
      <trkpt lat="47.63274000" lon="18.86515000">
        <ele>363.00000</ele>
        <time>2010-01-01T00:11:58Z</time>
      </trkpt>
      <trkpt lat="47.63372000" lon="18.86466000">
        <ele>371.00000</ele>
        <time>2010-01-01T00:12:40Z</time>
      </trkpt>
      <trkpt lat="47.63426000" lon="18.86433000">
        <ele>369.00000</ele>
        <time>2010-01-01T00:13:03Z</time>
      </trkpt>
      <trkpt lat="47.63438000" lon="18.86420000">
        <ele>367.00000</ele>
        <time>2010-01-01T00:13:09Z</time>
      </trkpt>
      <trkpt lat="47.63444000" lon="18.86411000">
        <ele>367.00000</ele>
        <time>2010-01-01T00:13:12Z</time>
      </trkpt>
      <trkpt lat="47.63466000" lon="18.86376000">
        <ele>367.00000</ele>
        <time>2010-01-01T00:13:25Z</time>
      </trkpt>
      <trkpt lat="47.63470000" lon="18.86372000">
        <ele>367.00000</ele>
        <time>2010-01-01T00:13:27Z</time>
      </trkpt>
      <trkpt lat="47.63475000" lon="18.86371000">
        <ele>367.00000</ele>
        <time>2010-01-01T00:13:29Z</time>
      </trkpt>
      <trkpt lat="47.63481000" lon="18.86373000">
        <ele>368.00000</ele>
        <time>2010-01-01T00:13:32Z</time>
      </trkpt>
      <trkpt lat="47.63517000" lon="18.86394000">
        <ele>371.00000</ele>
        <time>2010-01-01T00:13:47Z</time>
      </trkpt>
      <trkpt lat="47.63523000" lon="18.86399000">
        <ele>371.00000</ele>
        <time>2010-01-01T00:13:50Z</time>
      </trkpt>
      <trkpt lat="47.63546000" lon="18.86431000">
        <ele>371.00000</ele>
        <time>2010-01-01T00:14:03Z</time>
      </trkpt>
      <trkpt lat="47.63556000" lon="18.86457000">
        <ele>370.00000</ele>
        <time>2010-01-01T00:14:11Z</time>
      </trkpt>
      <trkpt lat="47.63564000" lon="18.86471000">
        <ele>368.00000</ele>
        <time>2010-01-01T00:14:16Z</time>
      </trkpt>
      <trkpt lat="47.63579000" lon="18.86492000">
        <ele>368.00000</ele>
        <time>2010-01-01T00:14:24Z</time>
      </trkpt>
      <trkpt lat="47.63588000" lon="18.86511000">
        <ele>369.00000</ele>
        <time>2010-01-01T00:14:30Z</time>
      </trkpt>
      <trkpt lat="47.63595000" lon="18.86516000">
        <ele>370.00000</ele>
        <time>2010-01-01T00:14:33Z</time>
      </trkpt>
      <trkpt lat="47.63601000" lon="18.86516000">
        <ele>372.00000</ele>
        <time>2010-01-01T00:14:36Z</time>
      </trkpt>
      <trkpt lat="47.63607000" lon="18.86511000">
        <ele>373.00000</ele>
        <time>2010-01-01T00:14:38Z</time>
      </trkpt>
      <trkpt lat="47.63634000" lon="18.86479000">
        <ele>374.00000</ele>
        <time>2010-01-01T00:14:52Z</time>
      </trkpt>
      <trkpt lat="47.63658000" lon="18.86466000">
        <ele>376.00000</ele>
        <time>2010-01-01T00:15:02Z</time>
      </trkpt>
      <trkpt lat="47.63668000" lon="18.86465000">
        <ele>376.00000</ele>
        <time>2010-01-01T00:15:06Z</time>
      </trkpt>
      <trkpt lat="47.63697000" lon="18.86468000">
        <ele>378.00000</ele>
        <time>2010-01-01T00:15:18Z</time>
      </trkpt>
      <trkpt lat="47.63713000" lon="18.86467000">
        <ele>379.00000</ele>
        <time>2010-01-01T00:15:24Z</time>
      </trkpt>
      <trkpt lat="47.63738000" lon="18.86462000">
        <ele>380.00000</ele>
        <time>2010-01-01T00:15:35Z</time>
      </trkpt>
      <trkpt lat="47.63755000" lon="18.86464000">
        <ele>381.00000</ele>
        <time>2010-01-01T00:15:41Z</time>
      </trkpt>
      <trkpt lat="47.63796000" lon="18.86468000">
        <ele>387.00000</ele>
        <time>2010-01-01T00:15:58Z</time>
      </trkpt>
      <trkpt lat="47.63826000" lon="18.86463000">
        <ele>390.00000</ele>
        <time>2010-01-01T00:16:10Z</time>
      </trkpt>
      <trkpt lat="47.63846000" lon="18.86466000">
        <ele>390.00000</ele>
        <time>2010-01-01T00:16:18Z</time>
      </trkpt>
      <trkpt lat="47.63864000" lon="18.86461000">
        <ele>390.00000</ele>
        <time>2010-01-01T00:16:25Z</time>
      </trkpt>
      <trkpt lat="47.63894000" lon="18.86473000">
        <ele>388.00000</ele>
        <time>2010-01-01T00:16:38Z</time>
      </trkpt>
      <trkpt lat="47.63921000" lon="18.86470000">
        <ele>385.00000</ele>
        <time>2010-01-01T00:16:49Z</time>
      </trkpt>
      <trkpt lat="47.63930000" lon="18.86472000">
        <ele>383.00000</ele>
        <time>2010-01-01T00:16:52Z</time>
      </trkpt>
      <trkpt lat="47.63957000" lon="18.86490000">
        <ele>377.00000</ele>
        <time>2010-01-01T00:17:04Z</time>
      </trkpt>
      <trkpt lat="47.63988000" lon="18.86500000">
        <ele>368.00000</ele>
        <time>2010-01-01T00:17:17Z</time>
      </trkpt>
      <trkpt lat="47.64027000" lon="18.86522000">
        <ele>355.00000</ele>
        <time>2010-01-01T00:17:33Z</time>
      </trkpt>
      <trkpt lat="47.64042000" lon="18.86535000">
        <ele>352.00000</ele>
        <time>2010-01-01T00:17:40Z</time>
      </trkpt>
      <trkpt lat="47.64068000" lon="18.86543000">
        <ele>348.00000</ele>
        <time>2010-01-01T00:17:51Z</time>
      </trkpt>
      <trkpt lat="47.64083000" lon="18.86561000">
        <ele>344.00000</ele>
        <time>2010-01-01T00:17:59Z</time>
      </trkpt>
      <trkpt lat="47.64097000" lon="18.86571000">
        <ele>340.00000</ele>
        <time>2010-01-01T00:18:05Z</time>
      </trkpt>
      <trkpt lat="47.64127000" lon="18.86576000">
        <ele>331.00000</ele>
        <time>2010-01-01T00:18:17Z</time>
      </trkpt>
      <trkpt lat="47.64138000" lon="18.86582000">
        <ele>327.00000</ele>
        <time>2010-01-01T00:18:22Z</time>
      </trkpt>
      <trkpt lat="47.64149000" lon="18.86584000">
        <ele>323.00000</ele>
        <time>2010-01-01T00:18:26Z</time>
      </trkpt>
      <trkpt lat="47.64157000" lon="18.86536000">
        <ele>325.00000</ele>
        <time>2010-01-01T00:18:40Z</time>
      </trkpt>
      <trkpt lat="47.64161000" lon="18.86533000">
        <ele>324.00000</ele>
        <time>2010-01-01T00:18:41Z</time>
      </trkpt>
      <trkpt lat="47.64184000" lon="18.86531000">
        <ele>317.00000</ele>
        <time>2010-01-01T00:18:51Z</time>
      </trkpt>
      <trkpt lat="47.64277000" lon="18.86551000">
        <ele>303.00000</ele>
        <time>2010-01-01T00:19:28Z</time>
      </trkpt>
      <trkpt lat="47.64278000" lon="18.86548000">
        <ele>302.00000</ele>
        <time>2010-01-01T00:19:29Z</time>
      </trkpt>
      <trkpt lat="47.64293000" lon="18.86501000">
        <ele>299.00000</ele>
        <time>2010-01-01T00:19:43Z</time>
      </trkpt>
      <trkpt lat="47.64307000" lon="18.86520000">
        <ele>298.00000</ele>
        <time>2010-01-01T00:19:51Z</time>
      </trkpt>
      <trkpt lat="47.64361000" lon="18.86557000">
        <ele>298.00000</ele>
        <time>2010-01-01T00:20:15Z</time>
      </trkpt>
      <trkpt lat="47.64386000" lon="18.86585000">
        <ele>295.00000</ele>
        <time>2010-01-01T00:20:27Z</time>
      </trkpt>
      <trkpt lat="47.64405000" lon="18.86595000">
        <ele>294.00000</ele>
        <time>2010-01-01T00:20:35Z</time>
      </trkpt>
      <trkpt lat="47.64419000" lon="18.86594000">
        <ele>294.00000</ele>
        <time>2010-01-01T00:20:41Z</time>
      </trkpt>
      <trkpt lat="47.64473000" lon="18.86580000">
        <ele>294.00000</ele>
        <time>2010-01-01T00:21:03Z</time>
      </trkpt>
      <trkpt lat="47.64497000" lon="18.86582000">
        <ele>294.00000</ele>
        <time>2010-01-01T00:21:12Z</time>
      </trkpt>
      <trkpt lat="47.64505000" lon="18.86579000">
        <ele>295.00000</ele>
        <time>2010-01-01T00:21:16Z</time>
      </trkpt>
      <trkpt lat="47.64514000" lon="18.86579000">
        <ele>295.00000</ele>
        <time>2010-01-01T00:21:19Z</time>
      </trkpt>
      <trkpt lat="47.64536000" lon="18.86578000">
        <ele>294.00000</ele>
        <time>2010-01-01T00:21:28Z</time>
      </trkpt>
      <trkpt lat="47.64569000" lon="18.86578000">
        <ele>295.00000</ele>
        <time>2010-01-01T00:21:41Z</time>
      </trkpt>
      <trkpt lat="47.64616000" lon="18.86592000">
        <ele>294.00000</ele>
        <time>2010-01-01T00:22:00Z</time>
      </trkpt>
      <trkpt lat="47.64639000" lon="18.86594000">
        <ele>292.00000</ele>
        <time>2010-01-01T00:22:10Z</time>
      </trkpt>
      <trkpt lat="47.64638000" lon="18.86594000">
        <ele>292.00000</ele>
        <time>2010-01-01T00:22:10Z</time>
      </trkpt>
      <trkpt lat="47.64640000" lon="18.86594000">
        <ele>292.00000</ele>
        <time>2010-01-01T00:22:11Z</time>
      </trkpt>
      <trkpt lat="47.64626000" lon="18.86568000">
        <ele>295.00000</ele>
        <time>2010-01-01T00:22:20Z</time>
      </trkpt>
      <trkpt lat="47.64601000" lon="18.86541000">
        <ele>297.00000</ele>
        <time>2010-01-01T00:22:32Z</time>
      </trkpt>
      <trkpt lat="47.64575000" lon="18.86517000">
        <ele>299.00000</ele>
        <time>2010-01-01T00:22:44Z</time>
      </trkpt>
      <trkpt lat="47.64540000" lon="18.86479000">
        <ele>302.00000</ele>
        <time>2010-01-01T00:23:02Z</time>
      </trkpt>
      <trkpt lat="47.64524000" lon="18.86458000">
        <ele>303.00000</ele>
        <time>2010-01-01T00:23:10Z</time>
      </trkpt>
      <trkpt lat="47.64488000" lon="18.86386000">
        <ele>309.00000</ele>
        <time>2010-01-01T00:23:35Z</time>
      </trkpt>
      <trkpt lat="47.64459000" lon="18.86334000">
        <ele>311.00000</ele>
        <time>2010-01-01T00:23:53Z</time>
      </trkpt>
      <trkpt lat="47.64443000" lon="18.86311000">
        <ele>313.00000</ele>
        <time>2010-01-01T00:24:02Z</time>
      </trkpt>
      <trkpt lat="47.64430000" lon="18.86275000">
        <ele>316.00000</ele>
        <time>2010-01-01T00:24:13Z</time>
      </trkpt>
      <trkpt lat="47.64406000" lon="18.86219000">
        <ele>318.00000</ele>
        <time>2010-01-01T00:24:31Z</time>
      </trkpt>
      <trkpt lat="47.64380000" lon="18.86168000">
        <ele>318.00000</ele>
        <time>2010-01-01T00:24:48Z</time>
      </trkpt>
      <trkpt lat="47.64429000" lon="18.85990000">
        <ele>327.00000</ele>
        <time>2010-01-01T00:25:40Z</time>
      </trkpt>
      <trkpt lat="47.64455000" lon="18.85889000">
        <ele>326.00000</ele>
        <time>2010-01-01T00:26:09Z</time>
      </trkpt>
      <trkpt lat="47.64637000" lon="18.85203000">
        <ele>337.00000</ele>
        <time>2010-01-01T00:29:28Z</time>
      </trkpt>
      <trkpt lat="47.64638000" lon="18.85200000">
        <ele>337.00000</ele>
        <time>2010-01-01T00:29:29Z</time>
      </trkpt>
      <trkpt lat="47.64601000" lon="18.85175000">
        <ele>341.00000</ele>
        <time>2010-01-01T00:29:45Z</time>
      </trkpt>
      <trkpt lat="47.64516000" lon="18.85118000">
        <ele>350.00000</ele>
        <time>2010-01-01T00:30:22Z</time>
      </trkpt>
      <trkpt lat="47.64474000" lon="18.85086000">
        <ele>353.00000</ele>
        <time>2010-01-01T00:30:41Z</time>
      </trkpt>
      <trkpt lat="47.64480000" lon="18.85056000">
        <ele>352.00000</ele>
        <time>2010-01-01T00:30:50Z</time>
      </trkpt>
      <trkpt lat="47.64483000" lon="18.85016000">
        <ele>353.00000</ele>
        <time>2010-01-01T00:31:00Z</time>
      </trkpt>
      <trkpt lat="47.64479000" lon="18.84951000">
        <ele>357.00000</ele>
        <time>2010-01-01T00:31:18Z</time>
      </trkpt>
      <trkpt lat="47.64505000" lon="18.84901000">
        <ele>362.00000</ele>
        <time>2010-01-01T00:31:35Z</time>
      </trkpt>
      <trkpt lat="47.64579000" lon="18.84811000">
        <ele>368.00000</ele>
        <time>2010-01-01T00:32:13Z</time>
      </trkpt>
      <trkpt lat="47.64591000" lon="18.84790000">
        <ele>368.00000</ele>
        <time>2010-01-01T00:32:21Z</time>
      </trkpt>
      <trkpt lat="47.64603000" lon="18.84766000">
        <ele>369.00000</ele>
        <time>2010-01-01T00:32:29Z</time>
      </trkpt>
      <trkpt lat="47.64603000" lon="18.84765000">
        <ele>368.00000</ele>
        <time>2010-01-01T00:32:29Z</time>
      </trkpt>
      <trkpt lat="47.64678000" lon="18.84675000">
        <ele>374.00000</ele>
        <time>2010-01-01T00:33:08Z</time>
      </trkpt>
      <trkpt lat="47.64695000" lon="18.84640000">
        <ele>374.00000</ele>
        <time>2010-01-01T00:33:19Z</time>
      </trkpt>
      <trkpt lat="47.64739000" lon="18.84573000">
        <ele>377.00000</ele>
        <time>2010-01-01T00:33:45Z</time>
      </trkpt>
      <trkpt lat="47.64742000" lon="18.84569000">
        <ele>377.00000</ele>
        <time>2010-01-01T00:33:46Z</time>
      </trkpt>
      <trkpt lat="47.64757000" lon="18.84552000">
        <ele>380.00000</ele>
        <time>2010-01-01T00:33:54Z</time>
      </trkpt>
      <trkpt lat="47.64779000" lon="18.84481000">
        <ele>387.00000</ele>
        <time>2010-01-01T00:34:15Z</time>
      </trkpt>
      <trkpt lat="47.64798000" lon="18.84446000">
        <ele>391.00000</ele>
        <time>2010-01-01T00:34:27Z</time>
      </trkpt>
      <trkpt lat="47.64809000" lon="18.84421000">
        <ele>392.00000</ele>
        <time>2010-01-01T00:34:35Z</time>
      </trkpt>
      <trkpt lat="47.64818000" lon="18.84398000">
        <ele>392.00000</ele>
        <time>2010-01-01T00:34:42Z</time>
      </trkpt>
      <trkpt lat="47.64848000" lon="18.84355000">
        <ele>393.00000</ele>
        <time>2010-01-01T00:34:59Z</time>
      </trkpt>
      <trkpt lat="47.64861000" lon="18.84325000">
        <ele>397.00000</ele>
        <time>2010-01-01T00:35:08Z</time>
      </trkpt>
      <trkpt lat="47.64867000" lon="18.84297000">
        <ele>400.00000</ele>
        <time>2010-01-01T00:35:16Z</time>
      </trkpt>
      <trkpt lat="47.64869000" lon="18.84255000">
        <ele>404.00000</ele>
        <time>2010-01-01T00:35:28Z</time>
      </trkpt>
      <trkpt lat="47.64878000" lon="18.84233000">
        <ele>405.00000</ele>
        <time>2010-01-01T00:35:35Z</time>
      </trkpt>
      <trkpt lat="47.64881000" lon="18.84215000">
        <ele>406.00000</ele>
        <time>2010-01-01T00:35:40Z</time>
      </trkpt>
      <trkpt lat="47.64883000" lon="18.84197000">
        <ele>408.00000</ele>
        <time>2010-01-01T00:35:45Z</time>
      </trkpt>
      <trkpt lat="47.64887000" lon="18.84156000">
        <ele>411.00000</ele>
        <time>2010-01-01T00:35:56Z</time>
      </trkpt>
      <trkpt lat="47.64895000" lon="18.84128000">
        <ele>412.00000</ele>
        <time>2010-01-01T00:36:04Z</time>
      </trkpt>
      <trkpt lat="47.64932000" lon="18.84038000">
        <ele>413.00000</ele>
        <time>2010-01-01T00:36:32Z</time>
      </trkpt>
      <trkpt lat="47.64944000" lon="18.83995000">
        <ele>415.00000</ele>
        <time>2010-01-01T00:36:45Z</time>
      </trkpt>
      <trkpt lat="47.64949000" lon="18.83984000">
        <ele>414.00000</ele>
        <time>2010-01-01T00:36:49Z</time>
      </trkpt>
      <trkpt lat="47.64950000" lon="18.83983000">
        <ele>414.00000</ele>
        <time>2010-01-01T00:36:49Z</time>
      </trkpt>
      <trkpt lat="47.64949000" lon="18.83984000">
        <ele>414.00000</ele>
        <time>2010-01-01T00:36:50Z</time>
      </trkpt>
      <trkpt lat="47.64949000" lon="18.83974000">
        <ele>415.00000</ele>
        <time>2010-01-01T00:36:52Z</time>
      </trkpt>
      <trkpt lat="47.64947000" lon="18.83965000">
        <ele>415.00000</ele>
        <time>2010-01-01T00:36:55Z</time>
      </trkpt>
      <trkpt lat="47.64942000" lon="18.83953000">
        <ele>417.00000</ele>
        <time>2010-01-01T00:36:59Z</time>
      </trkpt>
      <trkpt lat="47.64928000" lon="18.83943000">
        <ele>419.00000</ele>
        <time>2010-01-01T00:37:05Z</time>
      </trkpt>
      <trkpt lat="47.64720000" lon="18.83800000">
        <ele>439.00000</ele>
        <time>2010-01-01T00:38:37Z</time>
      </trkpt>
      <trkpt lat="47.64713000" lon="18.83792000">
        <ele>439.00000</ele>
        <time>2010-01-01T00:38:40Z</time>
      </trkpt>
      <trkpt lat="47.64712000" lon="18.83779000">
        <ele>438.00000</ele>
        <time>2010-01-01T00:38:44Z</time>
      </trkpt>
      <trkpt lat="47.64713000" lon="18.83769000">
        <ele>438.00000</ele>
        <time>2010-01-01T00:38:46Z</time>
      </trkpt>
      <trkpt lat="47.64718000" lon="18.83753000">
        <ele>438.00000</ele>
        <time>2010-01-01T00:38:51Z</time>
      </trkpt>
      <trkpt lat="47.64719000" lon="18.83751000">
        <ele>438.00000</ele>
        <time>2010-01-01T00:38:52Z</time>
      </trkpt>
      <trkpt lat="47.64732000" lon="18.83726000">
        <ele>439.00000</ele>
        <time>2010-01-01T00:39:00Z</time>
      </trkpt>
      <trkpt lat="47.64766000" lon="18.83679000">
        <ele>440.00000</ele>
        <time>2010-01-01T00:39:19Z</time>
      </trkpt>
      <trkpt lat="47.64775000" lon="18.83661000">
        <ele>440.00000</ele>
        <time>2010-01-01T00:39:25Z</time>
      </trkpt>
      <trkpt lat="47.64784000" lon="18.83623000">
        <ele>441.00000</ele>
        <time>2010-01-01T00:39:36Z</time>
      </trkpt>
      <trkpt lat="47.64790000" lon="18.83610000">
        <ele>442.00000</ele>
        <time>2010-01-01T00:39:40Z</time>
      </trkpt>
      <trkpt lat="47.64798000" lon="18.83602000">
        <ele>442.00000</ele>
        <time>2010-01-01T00:39:44Z</time>
      </trkpt>
      <trkpt lat="47.64818000" lon="18.83596000">
        <ele>444.00000</ele>
        <time>2010-01-01T00:39:52Z</time>
      </trkpt>
      <trkpt lat="47.64832000" lon="18.83593000">
        <ele>445.00000</ele>
        <time>2010-01-01T00:39:58Z</time>
      </trkpt>
      <trkpt lat="47.64840000" lon="18.83584000">
        <ele>445.00000</ele>
        <time>2010-01-01T00:40:02Z</time>
      </trkpt>
      <trkpt lat="47.64849000" lon="18.83563000">
        <ele>444.00000</ele>
        <time>2010-01-01T00:40:08Z</time>
      </trkpt>
      <trkpt lat="47.64852000" lon="18.83551000">
        <ele>443.00000</ele>
        <time>2010-01-01T00:40:12Z</time>
      </trkpt>
      <trkpt lat="47.64849000" lon="18.83563000">
        <ele>444.00000</ele>
        <time>2010-01-01T00:40:15Z</time>
      </trkpt>
      <trkpt lat="47.64840000" lon="18.83584000">
        <ele>445.00000</ele>
        <time>2010-01-01T00:40:22Z</time>
      </trkpt>
      <trkpt lat="47.64832000" lon="18.83593000">
        <ele>445.00000</ele>
        <time>2010-01-01T00:40:26Z</time>
      </trkpt>
      <trkpt lat="47.64818000" lon="18.83596000">
        <ele>444.00000</ele>
        <time>2010-01-01T00:40:32Z</time>
      </trkpt>
      <trkpt lat="47.64798000" lon="18.83602000">
        <ele>442.00000</ele>
        <time>2010-01-01T00:40:40Z</time>
      </trkpt>
      <trkpt lat="47.64790000" lon="18.83610000">
        <ele>442.00000</ele>
        <time>2010-01-01T00:40:44Z</time>
      </trkpt>
      <trkpt lat="47.64784000" lon="18.83623000">
        <ele>441.00000</ele>
        <time>2010-01-01T00:40:48Z</time>
      </trkpt>
      <trkpt lat="47.64775000" lon="18.83661000">
        <ele>440.00000</ele>
        <time>2010-01-01T00:40:59Z</time>
      </trkpt>
      <trkpt lat="47.64766000" lon="18.83679000">
        <ele>440.00000</ele>
        <time>2010-01-01T00:41:05Z</time>
      </trkpt>
      <trkpt lat="47.64732000" lon="18.83726000">
        <ele>439.00000</ele>
        <time>2010-01-01T00:41:24Z</time>
      </trkpt>
      <trkpt lat="47.64719000" lon="18.83751000">
        <ele>438.00000</ele>
        <time>2010-01-01T00:41:32Z</time>
      </trkpt>
      <trkpt lat="47.64713000" lon="18.83769000">
        <ele>438.00000</ele>
        <time>2010-01-01T00:41:37Z</time>
      </trkpt>
      <trkpt lat="47.64712000" lon="18.83779000">
        <ele>438.00000</ele>
        <time>2010-01-01T00:41:40Z</time>
      </trkpt>
      <trkpt lat="47.64713000" lon="18.83792000">
        <ele>439.00000</ele>
        <time>2010-01-01T00:41:44Z</time>
      </trkpt>
      <trkpt lat="47.64706000" lon="18.83835000">
        <ele>439.00000</ele>
        <time>2010-01-01T00:41:56Z</time>
      </trkpt>
      <trkpt lat="47.64702000" lon="18.83855000">
        <ele>438.00000</ele>
        <time>2010-01-01T00:42:01Z</time>
      </trkpt>
      <trkpt lat="47.64695000" lon="18.83864000">
        <ele>437.00000</ele>
        <time>2010-01-01T00:42:05Z</time>
      </trkpt>
      <trkpt lat="47.64681000" lon="18.83874000">
        <ele>435.00000</ele>
        <time>2010-01-01T00:42:11Z</time>
      </trkpt>
      <trkpt lat="47.64630000" lon="18.83966000">
        <ele>419.00000</ele>
        <time>2010-01-01T00:42:43Z</time>
      </trkpt>
      <trkpt lat="47.64627000" lon="18.83990000">
        <ele>417.00000</ele>
        <time>2010-01-01T00:42:50Z</time>
      </trkpt>
      <trkpt lat="47.64599000" lon="18.84069000">
        <ele>413.00000</ele>
        <time>2010-01-01T00:43:14Z</time>
      </trkpt>
      <trkpt lat="47.64594000" lon="18.84074000">
        <ele>412.00000</ele>
        <time>2010-01-01T00:43:16Z</time>
      </trkpt>
      <trkpt lat="47.64584000" lon="18.84077000">
        <ele>411.00000</ele>
        <time>2010-01-01T00:43:20Z</time>
      </trkpt>
      <trkpt lat="47.64576000" lon="18.84070000">
        <ele>410.00000</ele>
        <time>2010-01-01T00:43:24Z</time>
      </trkpt>
      <trkpt lat="47.64535000" lon="18.84124000">
        <ele>398.00000</ele>
        <time>2010-01-01T00:43:46Z</time>
      </trkpt>
      <trkpt lat="47.64498000" lon="18.84146000">
        <ele>388.00000</ele>
        <time>2010-01-01T00:44:02Z</time>
      </trkpt>
      <trkpt lat="47.64486000" lon="18.84174000">
        <ele>382.00000</ele>
        <time>2010-01-01T00:44:11Z</time>
      </trkpt>
      <trkpt lat="47.64506000" lon="18.84236000">
        <ele>380.00000</ele>
        <time>2010-01-01T00:44:30Z</time>
      </trkpt>
      <trkpt lat="47.64501000" lon="18.84321000">
        <ele>367.00000</ele>
        <time>2010-01-01T00:44:53Z</time>
      </trkpt>
      <trkpt lat="47.64486000" lon="18.84369000">
        <ele>358.00000</ele>
        <time>2010-01-01T00:45:07Z</time>
      </trkpt>
      <trkpt lat="47.64465000" lon="18.84422000">
        <ele>350.00000</ele>
        <time>2010-01-01T00:45:23Z</time>
      </trkpt>
      <trkpt lat="47.64438000" lon="18.84471000">
        <ele>340.00000</ele>
        <time>2010-01-01T00:45:41Z</time>
      </trkpt>
      <trkpt lat="47.64407000" lon="18.84507000">
        <ele>330.00000</ele>
        <time>2010-01-01T00:45:56Z</time>
      </trkpt>
      <trkpt lat="47.64375000" lon="18.84524000">
        <ele>322.00000</ele>
        <time>2010-01-01T00:46:10Z</time>
      </trkpt>
      <trkpt lat="47.64344000" lon="18.84545000">
        <ele>314.00000</ele>
        <time>2010-01-01T00:46:24Z</time>
      </trkpt>
      <trkpt lat="47.64323000" lon="18.84556000">
        <ele>308.00000</ele>
        <time>2010-01-01T00:46:32Z</time>
      </trkpt>
      <trkpt lat="47.64325000" lon="18.84559000">
        <ele>309.00000</ele>
        <time>2010-01-01T00:46:34Z</time>
      </trkpt>
      <trkpt lat="47.64325000" lon="18.84558000">
        <ele>309.00000</ele>
        <time>2010-01-01T00:46:34Z</time>
      </trkpt>
      <trkpt lat="47.64323000" lon="18.84556000">
        <ele>308.00000</ele>
        <time>2010-01-01T00:46:35Z</time>
      </trkpt>
      <trkpt lat="47.64295000" lon="18.84534000">
        <ele>305.00000</ele>
        <time>2010-01-01T00:46:48Z</time>
      </trkpt>
      <trkpt lat="47.64263000" lon="18.84498000">
        <ele>304.00000</ele>
        <time>2010-01-01T00:47:04Z</time>
      </trkpt>
      <trkpt lat="47.64242000" lon="18.84437000">
        <ele>301.00000</ele>
        <time>2010-01-01T00:47:22Z</time>
      </trkpt>
      <trkpt lat="47.64226000" lon="18.84384000">
        <ele>295.00000</ele>
        <time>2010-01-01T00:47:38Z</time>
      </trkpt>
      <trkpt lat="47.64205000" lon="18.84356000">
        <ele>289.00000</ele>
        <time>2010-01-01T00:47:49Z</time>
      </trkpt>
      <trkpt lat="47.64163000" lon="18.84302000">
        <ele>285.00000</ele>
        <time>2010-01-01T00:48:11Z</time>
      </trkpt>
      <trkpt lat="47.64132000" lon="18.84263000">
        <ele>283.00000</ele>
        <time>2010-01-01T00:48:28Z</time>
      </trkpt>
      <trkpt lat="47.64107000" lon="18.84334000">
        <ele>276.00000</ele>
        <time>2010-01-01T00:48:49Z</time>
      </trkpt>
      <trkpt lat="47.64087000" lon="18.84399000">
        <ele>268.00000</ele>
        <time>2010-01-01T00:49:08Z</time>
      </trkpt>
      <trkpt lat="47.64046000" lon="18.84537000">
        <ele>262.00000</ele>
        <time>2010-01-01T00:49:49Z</time>
      </trkpt>
      <trkpt lat="47.64000000" lon="18.84670000">
        <ele>256.00000</ele>
        <time>2010-01-01T00:50:29Z</time>
      </trkpt>
      <trkpt lat="47.63997000" lon="18.84680000">
        <ele>256.00000</ele>
        <time>2010-01-01T00:50:32Z</time>
      </trkpt>
      <trkpt lat="47.63974000" lon="18.84756000">
        <ele>253.00000</ele>
        <time>2010-01-01T00:50:55Z</time>
      </trkpt>
      <trkpt lat="47.63966000" lon="18.84784000">
        <ele>253.00000</ele>
        <time>2010-01-01T00:51:03Z</time>
      </trkpt>
      <trkpt lat="47.63962000" lon="18.84799000">
        <ele>254.00000</ele>
        <time>2010-01-01T00:51:07Z</time>
      </trkpt>
      <trkpt lat="47.63953000" lon="18.84788000">
        <ele>253.00000</ele>
        <time>2010-01-01T00:51:12Z</time>
      </trkpt>
      <trkpt lat="47.63895000" lon="18.84707000">
        <ele>248.00000</ele>
        <time>2010-01-01T00:51:44Z</time>
      </trkpt>
      <trkpt lat="47.63878000" lon="18.84685000">
        <ele>247.00000</ele>
        <time>2010-01-01T00:51:53Z</time>
      </trkpt>
      <trkpt lat="47.63878000" lon="18.84684000">
        <ele>247.00000</ele>
        <time>2010-01-01T00:51:53Z</time>
      </trkpt>
      <trkpt lat="47.63787000" lon="18.84567000">
        <ele>244.00000</ele>
        <time>2010-01-01T00:52:41Z</time>
      </trkpt>
      <trkpt lat="47.63769000" lon="18.84615000">
        <ele>242.00000</ele>
        <time>2010-01-01T00:52:56Z</time>
      </trkpt>
      <trkpt lat="47.63777000" lon="18.84666000">
        <ele>242.00000</ele>
        <time>2010-01-01T00:53:10Z</time>
      </trkpt>
      <trkpt lat="47.63783000" lon="18.84682000">
        <ele>242.00000</ele>
        <time>2010-01-01T00:53:15Z</time>
      </trkpt>
      <trkpt lat="47.63784000" lon="18.84706000">
        <ele>242.00000</ele>
        <time>2010-01-01T00:53:22Z</time>
      </trkpt>
      <trkpt lat="47.63785000" lon="18.84716000">
        <ele>242.00000</ele>
        <time>2010-01-01T00:53:25Z</time>
      </trkpt>
      <trkpt lat="47.63786000" lon="18.84730000">
        <ele>243.00000</ele>
        <time>2010-01-01T00:53:28Z</time>
      </trkpt>
      <trkpt lat="47.63785000" lon="18.84768000">
        <ele>243.00000</ele>
        <time>2010-01-01T00:53:39Z</time>
      </trkpt>
      <trkpt lat="47.63782000" lon="18.84809000">
        <ele>242.00000</ele>
        <time>2010-01-01T00:53:50Z</time>
      </trkpt>
      <trkpt lat="47.63777000" lon="18.84841000">
        <ele>241.00000</ele>
        <time>2010-01-01T00:53:59Z</time>
      </trkpt>
      <trkpt lat="47.63763000" lon="18.84882000">
        <ele>242.00000</ele>
        <time>2010-01-01T00:54:11Z</time>
      </trkpt>
      <trkpt lat="47.63750000" lon="18.84918000">
        <ele>243.00000</ele>
        <time>2010-01-01T00:54:22Z</time>
      </trkpt>
      <trkpt lat="47.63750000" lon="18.84920000">
        <ele>243.00000</ele>
        <time>2010-01-01T00:54:23Z</time>
      </trkpt>
      <trkpt lat="47.63741000" lon="18.84944000">
        <ele>244.00000</ele>
        <time>2010-01-01T00:54:30Z</time>
      </trkpt>
      <trkpt lat="47.63719000" lon="18.84982000">
        <ele>246.00000</ele>
        <time>2010-01-01T00:54:43Z</time>
      </trkpt>
      <trkpt lat="47.63633000" lon="18.85067000">
        <ele>251.00000</ele>
        <time>2010-01-01T00:55:25Z</time>
      </trkpt>
      <trkpt lat="47.63677000" lon="18.85132000">
        <ele>252.00000</ele>
        <time>2010-01-01T00:55:50Z</time>
      </trkpt>
      <trkpt lat="47.63638000" lon="18.85263000">
        <ele>258.00000</ele>
        <time>2010-01-01T00:56:28Z</time>
      </trkpt>
      <trkpt lat="47.63582000" lon="18.85382000">
        <ele>268.00000</ele>
        <time>2010-01-01T00:57:07Z</time>
      </trkpt>
      <trkpt lat="47.63595000" lon="18.85408000">
        <ele>264.00000</ele>
        <time>2010-01-01T00:57:16Z</time>
      </trkpt>
      <trkpt lat="47.63593000" lon="18.85411000">
        <ele>264.00000</ele>
        <time>2010-01-01T00:57:17Z</time>
      </trkpt>
      <trkpt lat="47.63549000" lon="18.85473000">
        <ele>271.00000</ele>
        <time>2010-01-01T00:57:42Z</time>
      </trkpt>
      <trkpt lat="47.63527000" lon="18.85502000">
        <ele>275.00000</ele>
        <time>2010-01-01T00:57:53Z</time>
      </trkpt>
      <trkpt lat="47.63509000" lon="18.85511000">
        <ele>277.00000</ele>
        <time>2010-01-01T00:58:01Z</time>
      </trkpt>
      <trkpt lat="47.63477000" lon="18.85567000">
        <ele>285.00000</ele>
        <time>2010-01-01T00:58:21Z</time>
      </trkpt>
      <trkpt lat="47.63450000" lon="18.85581000">
        <ele>292.00000</ele>
        <time>2010-01-01T00:58:32Z</time>
      </trkpt>
      <trkpt lat="47.63428000" lon="18.85671000">
        <ele>306.00000</ele>
        <time>2010-01-01T00:58:58Z</time>
      </trkpt>
      <trkpt lat="47.63429000" lon="18.85714000">
        <ele>309.00000</ele>
        <time>2010-01-01T00:59:10Z</time>
      </trkpt>
      <trkpt lat="47.63420000" lon="18.85760000">
        <ele>312.00000</ele>
        <time>2010-01-01T00:59:23Z</time>
      </trkpt>
      <trkpt lat="47.63400000" lon="18.85813000">
        <ele>317.00000</ele>
        <time>2010-01-01T00:59:39Z</time>
      </trkpt>
      <trkpt lat="47.63384000" lon="18.85850000">
        <ele>321.00000</ele>
        <time>2010-01-01T00:59:51Z</time>
      </trkpt>
      <trkpt lat="47.63384000" lon="18.85918000">
        <ele>324.00000</ele>
        <time>2010-01-01T01:00:09Z</time>
      </trkpt>
      <trkpt lat="47.63374000" lon="18.85975000">
        <ele>329.00000</ele>
        <time>2010-01-01T01:00:25Z</time>
      </trkpt>
      <trkpt lat="47.63357000" lon="18.86023000">
        <ele>331.00000</ele>
        <time>2010-01-01T01:00:40Z</time>
      </trkpt>
      <trkpt lat="47.63346000" lon="18.86047000">
        <ele>334.00000</ele>
        <time>2010-01-01T01:00:48Z</time>
      </trkpt>
      <trkpt lat="47.63314000" lon="18.86074000">
        <ele>338.00000</ele>
        <time>2010-01-01T01:01:02Z</time>
      </trkpt>
      <trkpt lat="47.63306000" lon="18.86105000">
        <ele>339.00000</ele>
        <time>2010-01-01T01:01:11Z</time>
      </trkpt>
      <trkpt lat="47.63296000" lon="18.86124000">
        <ele>341.00000</ele>
        <time>2010-01-01T01:01:18Z</time>
      </trkpt>
      <trkpt lat="47.63281000" lon="18.86141000">
        <ele>343.00000</ele>
        <time>2010-01-01T01:01:25Z</time>
      </trkpt>
      <trkpt lat="47.63254000" lon="18.86166000">
        <ele>343.00000</ele>
        <time>2010-01-01T01:01:38Z</time>
      </trkpt>
      <trkpt lat="47.63239000" lon="18.86200000">
        <ele>344.00000</ele>
        <time>2010-01-01T01:01:49Z</time>
      </trkpt>
      <trkpt lat="47.63217000" lon="18.86226000">
        <ele>347.00000</ele>
        <time>2010-01-01T01:02:00Z</time>
      </trkpt>
      <trkpt lat="47.63197000" lon="18.86266000">
        <ele>348.00000</ele>
        <time>2010-01-01T01:02:14Z</time>
      </trkpt>
      <trkpt lat="47.63200000" lon="18.86316000">
        <ele>348.00000</ele>
        <time>2010-01-01T01:02:27Z</time>
      </trkpt>
      <trkpt lat="47.63206000" lon="18.86337000">
        <ele>350.00000</ele>
        <time>2010-01-01T01:02:33Z</time>
      </trkpt>
      <trkpt lat="47.63206000" lon="18.86336000">
        <ele>350.00000</ele>
        <time>2010-01-01T01:02:34Z</time>
      </trkpt>
      <trkpt lat="47.63214000" lon="18.86368000">
        <ele>352.00000</ele>
        <time>2010-01-01T01:02:43Z</time>
      </trkpt>
      <trkpt lat="47.63213000" lon="18.86387000">
        <ele>354.00000</ele>
        <time>2010-01-01T01:02:48Z</time>
      </trkpt>
      <trkpt lat="47.63221000" lon="18.86443000">
        <ele>358.00000</ele>
        <time>2010-01-01T01:03:03Z</time>
      </trkpt>
      <trkpt lat="47.63217000" lon="18.86476000">
        <ele>361.00000</ele>
        <time>2010-01-01T01:03:12Z</time>
      </trkpt>
      <trkpt lat="47.63220000" lon="18.86511000">
        <ele>361.00000</ele>
        <time>2010-01-01T01:03:22Z</time>
      </trkpt>
      <trkpt lat="47.63228000" lon="18.86534000">
        <ele>360.00000</ele>
        <time>2010-01-01T01:03:29Z</time>
      </trkpt>
      <trkpt lat="47.63227000" lon="18.86545000">
        <ele>360.00000</ele>
        <time>2010-01-01T01:03:32Z</time>
      </trkpt>
      <trkpt lat="47.63203000" lon="18.86554000">
        <ele>360.00000</ele>
        <time>2010-01-01T01:03:42Z</time>
      </trkpt>
      <trkpt lat="47.63159000" lon="18.86584000">
        <ele>361.00000</ele>
        <time>2010-01-01T01:04:01Z</time>
      </trkpt>
      <trkpt lat="47.63146000" lon="18.86596000">
        <ele>360.00000</ele>
        <time>2010-01-01T01:04:07Z</time>
      </trkpt>
      <trkpt lat="47.63134000" lon="18.86605000">
        <ele>360.00000</ele>
        <time>2010-01-01T01:04:13Z</time>
      </trkpt>
      <trkpt lat="47.63126000" lon="18.86608000">
        <ele>360.00000</ele>
        <time>2010-01-01T01:04:16Z</time>
      </trkpt>
      <trkpt lat="47.63120000" lon="18.86605000">
        <ele>361.00000</ele>
        <time>2010-01-01T01:04:19Z</time>
      </trkpt>
      <trkpt lat="47.63109000" lon="18.86593000">
        <ele>363.00000</ele>
        <time>2010-01-01T01:04:24Z</time>
      </trkpt>
      <trkpt lat="47.63077000" lon="18.86557000">
        <ele>365.00000</ele>
        <time>2010-01-01T01:04:40Z</time>
      </trkpt>
      <trkpt lat="47.63024000" lon="18.86500000">
        <ele>359.00000</ele>
        <time>2010-01-01T01:05:06Z</time>
      </trkpt>
      <trkpt lat="47.62948000" lon="18.86421000">
        <ele>343.00000</ele>
        <time>2010-01-01T01:05:43Z</time>
      </trkpt>
      <trkpt lat="47.62907000" lon="18.86375000">
        <ele>332.00000</ele>
        <time>2010-01-01T01:06:04Z</time>
      </trkpt>
      <trkpt lat="47.62906000" lon="18.86375000">
        <ele>332.00000</ele>
        <time>2010-01-01T01:06:04Z</time>
      </trkpt>
      <trkpt lat="47.62904000" lon="18.86372000">
        <ele>331.00000</ele>
        <time>2010-01-01T01:06:06Z</time>
      </trkpt>
      <trkpt lat="47.62894000" lon="18.86322000">
        <ele>333.00000</ele>
        <time>2010-01-01T01:06:20Z</time>
      </trkpt>
      <trkpt lat="47.62880000" lon="18.86300000">
        <ele>332.00000</ele>
        <time>2010-01-01T01:06:28Z</time>
      </trkpt>
      <trkpt lat="47.62864000" lon="18.86295000">
        <ele>330.00000</ele>
        <time>2010-01-01T01:06:34Z</time>
      </trkpt>
      <trkpt lat="47.62848000" lon="18.86315000">
        <ele>326.00000</ele>
        <time>2010-01-01T01:06:43Z</time>
      </trkpt>
      <trkpt lat="47.62833000" lon="18.86309000">
        <ele>324.00000</ele>
        <time>2010-01-01T01:06:49Z</time>
      </trkpt>
      <trkpt lat="47.62813000" lon="18.86276000">
        <ele>318.00000</ele>
        <time>2010-01-01T01:07:01Z</time>
      </trkpt>
      <trkpt lat="47.62797000" lon="18.86221000">
        <ele>311.00000</ele>
        <time>2010-01-01T01:07:17Z</time>
      </trkpt>
      <trkpt lat="47.62794000" lon="18.86187000">
        <ele>306.00000</ele>
        <time>2010-01-01T01:07:26Z</time>
      </trkpt>
      <trkpt lat="47.62780000" lon="18.86162000">
        <ele>300.00000</ele>
        <time>2010-01-01T01:07:35Z</time>
      </trkpt>
      <trkpt lat="47.62748000" lon="18.86131000">
        <ele>292.00000</ele>
        <time>2010-01-01T01:07:50Z</time>
      </trkpt>
      <trkpt lat="47.62740000" lon="18.86140000">
        <ele>292.00000</ele>
        <time>2010-01-01T01:07:54Z</time>
      </trkpt>
      <trkpt lat="47.62732000" lon="18.86157000">
        <ele>292.00000</ele>
        <time>2010-01-01T01:08:00Z</time>
      </trkpt>
      <trkpt lat="47.62712000" lon="18.86163000">
        <ele>293.00000</ele>
        <time>2010-01-01T01:08:08Z</time>
      </trkpt>
      <trkpt lat="47.62690000" lon="18.86127000">
        <ele>293.00000</ele>
        <time>2010-01-01T01:08:21Z</time>
      </trkpt>
      <trkpt lat="47.62683000" lon="18.86105000">
        <ele>292.00000</ele>
        <time>2010-01-01T01:08:28Z</time>
      </trkpt>
      <trkpt lat="47.62682000" lon="18.86069000">
        <ele>287.00000</ele>
        <time>2010-01-01T01:08:38Z</time>
      </trkpt>
      <trkpt lat="47.62674000" lon="18.86054000">
        <ele>286.00000</ele>
        <time>2010-01-01T01:08:43Z</time>
      </trkpt>
      <trkpt lat="47.62671000" lon="18.86037000">
        <ele>284.00000</ele>
        <time>2010-01-01T01:08:48Z</time>
      </trkpt>
      <trkpt lat="47.62673000" lon="18.86007000">
        <ele>282.00000</ele>
        <time>2010-01-01T01:08:56Z</time>
      </trkpt>
      <trkpt lat="47.62667000" lon="18.85986000">
        <ele>280.00000</ele>
        <time>2010-01-01T01:09:02Z</time>
      </trkpt>
      <trkpt lat="47.62657000" lon="18.85976000">
        <ele>280.00000</ele>
        <time>2010-01-01T01:09:07Z</time>
      </trkpt>
      <trkpt lat="47.62644000" lon="18.85979000">
        <ele>281.00000</ele>
        <time>2010-01-01T01:09:12Z</time>
      </trkpt>
      <trkpt lat="47.62633000" lon="18.85990000">
        <ele>282.00000</ele>
        <time>2010-01-01T01:09:17Z</time>
      </trkpt>
      <trkpt lat="47.62630000" lon="18.86027000">
        <ele>284.00000</ele>
        <time>2010-01-01T01:09:27Z</time>
      </trkpt>
      <trkpt lat="47.62600000" lon="18.86087000">
        <ele>292.00000</ele>
        <time>2010-01-01T01:09:47Z</time>
      </trkpt>
      <trkpt lat="47.62581000" lon="18.86101000">
        <ele>292.00000</ele>
        <time>2010-01-01T01:09:56Z</time>
      </trkpt>
      <trkpt lat="47.62560000" lon="18.86186000">
        <ele>299.00000</ele>
        <time>2010-01-01T01:10:20Z</time>
      </trkpt>
      <trkpt lat="47.62541000" lon="18.86252000">
        <ele>304.00000</ele>
        <time>2010-01-01T01:10:40Z</time>
      </trkpt>
      <trkpt lat="47.62507000" lon="18.86302000">
        <ele>301.00000</ele>
        <time>2010-01-01T01:10:59Z</time>
      </trkpt>
      <trkpt lat="47.62473000" lon="18.86336000">
        <ele>298.00000</ele>
        <time>2010-01-01T01:11:15Z</time>
      </trkpt>
      <trkpt lat="47.62468000" lon="18.86356000">
        <ele>298.00000</ele>
        <time>2010-01-01T01:11:21Z</time>
      </trkpt>
      <trkpt lat="47.62464000" lon="18.86373000">
        <ele>298.00000</ele>
        <time>2010-01-01T01:11:26Z</time>
      </trkpt>
      <trkpt lat="47.62439000" lon="18.86390000">
        <ele>296.00000</ele>
        <time>2010-01-01T01:11:37Z</time>
      </trkpt>
      <trkpt lat="47.62432000" lon="18.86405000">
        <ele>296.00000</ele>
        <time>2010-01-01T01:11:42Z</time>
      </trkpt>
      <trkpt lat="47.62411000" lon="18.86416000">
        <ele>294.00000</ele>
        <time>2010-01-01T01:11:51Z</time>
      </trkpt>
      <trkpt lat="47.62399000" lon="18.86468000">
        <ele>295.00000</ele>
        <time>2010-01-01T01:12:06Z</time>
      </trkpt>
      <trkpt lat="47.62401000" lon="18.86502000">
        <ele>295.00000</ele>
        <time>2010-01-01T01:12:15Z</time>
      </trkpt>
      <trkpt lat="47.62401000" lon="18.86560000">
        <ele>301.00000</ele>
        <time>2010-01-01T01:12:30Z</time>
      </trkpt>
      <trkpt lat="47.62382000" lon="18.86632000">
        <ele>300.00000</ele>
        <time>2010-01-01T01:12:51Z</time>
      </trkpt>
      <trkpt lat="47.62363000" lon="18.86678000">
        <ele>297.00000</ele>
        <time>2010-01-01T01:13:06Z</time>
      </trkpt>
      <trkpt lat="47.62344000" lon="18.86692000">
        <ele>294.00000</ele>
        <time>2010-01-01T01:13:14Z</time>
      </trkpt>
      <trkpt lat="47.62302000" lon="18.86696000">
        <ele>288.00000</ele>
        <time>2010-01-01T01:13:31Z</time>
      </trkpt>
      <trkpt lat="47.62267000" lon="18.86671000">
        <ele>284.00000</ele>
        <time>2010-01-01T01:13:47Z</time>
      </trkpt>
      <trkpt lat="47.62239000" lon="18.86640000">
        <ele>280.00000</ele>
        <time>2010-01-01T01:14:01Z</time>
      </trkpt>
      <trkpt lat="47.62228000" lon="18.86640000">
        <ele>278.00000</ele>
        <time>2010-01-01T01:14:05Z</time>
      </trkpt>
      <trkpt lat="47.62223000" lon="18.86650000">
        <ele>278.00000</ele>
        <time>2010-01-01T01:14:08Z</time>
      </trkpt>
      <trkpt lat="47.62207000" lon="18.86644000">
        <ele>275.00000</ele>
        <time>2010-01-01T01:14:15Z</time>
      </trkpt>
      <trkpt lat="47.62196000" lon="18.86631000">
        <ele>274.00000</ele>
        <time>2010-01-01T01:14:21Z</time>
      </trkpt>
      <trkpt lat="47.62240000" lon="18.86520000">
        <ele>277.00000</ele>
        <time>2010-01-01T01:14:55Z</time>
      </trkpt>
      <trkpt lat="47.62255000" lon="18.86485000">
        <ele>278.00000</ele>
        <time>2010-01-01T01:15:07Z</time>
      </trkpt>
    </trkseg>
  </trk>
</gpx>

