<?xml version="1.0" encoding="UTF-8"?>
<gpx xmlns="http://www.topografix.com/GPX/1/1" creator="turistautak.openstreetmap.hu" version="1.1" xmlns:xsi="http://www.w3.org/2001/XMLSchema-instance" xsi:schemaLocation="http://www.garmin.com/xmlschemas/GpxExtensions/v3 http://www.garmin.com/xmlschemas/GpxExtensions/v3/GpxExtensionsv3.xsd http://www.topografix.com/GPX/1/1 http://www.topografix.com/GPX/1/1/gpx.xsd">
	<metadata>
		<name>1619514146agvw útvonal</name>
		<desc>1619514146agvw útvonal</desc>
	</metadata>
<trk>
  <name>utv</name>
<trkseg><trkpt lat="47.529934" lon="18.868737">
        <ele>299</ele>
      </trkpt>
<trkpt lat="47.529919" lon="18.868879">
        <ele>299.4</ele>
      </trkpt>
<trkpt lat="47.530016" lon="18.868889">
        <ele>299.8</ele>
      </trkpt>
<trkpt lat="47.530107" lon="18.868605">
        <ele>300.2</ele>
      </trkpt>
<trkpt lat="47.530481" lon="18.868393">
        <ele>301.2</ele>
      </trkpt>
<trkpt lat="47.530582" lon="18.868289">
        <ele>302.6</ele>
      </trkpt>
<trkpt lat="47.530586" lon="18.868209">
        <ele>305.4</ele>
      </trkpt>
<trkpt lat="47.531098" lon="18.867873">
        <ele>309.4</ele>
      </trkpt>
<trkpt lat="47.531965" lon="18.867304">
        <ele>313.4</ele>
      </trkpt>
<trkpt lat="47.533231" lon="18.866768">
        <ele>316.8</ele>
      </trkpt>
<trkpt lat="47.534044" lon="18.866411">
        <ele>320.6</ele>
      </trkpt>
<trkpt lat="47.534113" lon="18.866328">
        <ele>323.4</ele>
      </trkpt>
<trkpt lat="47.534336" lon="18.865695">
        <ele>325</ele>
      </trkpt>
<trkpt lat="47.534571" lon="18.865302">
        <ele>326.6</ele>
      </trkpt>
<trkpt lat="47.534920" lon="18.865042">
        <ele>329.4</ele>
      </trkpt>
<trkpt lat="47.535274" lon="18.864907">
        <ele>331.4</ele>
      </trkpt>
<trkpt lat="47.535347" lon="18.864901">
        <ele>334</ele>
      </trkpt>
<trkpt lat="47.535724" lon="18.864567">
        <ele>338.2</ele>
      </trkpt>
<trkpt lat="47.536069" lon="18.864261">
        <ele>343.8</ele>
      </trkpt>
<trkpt lat="47.536453" lon="18.864007">
        <ele>348.2</ele>
      </trkpt>
<trkpt lat="47.537738" lon="18.863316">
        <ele>352.6</ele>
      </trkpt>
<trkpt lat="47.537948" lon="18.863189">
        <ele>357.6</ele>
      </trkpt>
<trkpt lat="47.538121" lon="18.863199">
        <ele>361</ele>
      </trkpt>
<trkpt lat="47.538517" lon="18.863178">
        <ele>363</ele>
      </trkpt>
<trkpt lat="47.538890" lon="18.862974">
        <ele>367</ele>
      </trkpt>
<trkpt lat="47.539074" lon="18.862995">
        <ele>370.2</ele>
      </trkpt>
<trkpt lat="47.539297" lon="18.863291">
        <ele>371.4</ele>
      </trkpt>
<trkpt lat="47.539625" lon="18.863743">
        <ele>372.6</ele>
      </trkpt>
<trkpt lat="47.539993" lon="18.863972">
        <ele>373.4</ele>
      </trkpt>
<trkpt lat="47.540287" lon="18.864091">
        <ele>372.2</ele>
      </trkpt>
<trkpt lat="47.540367" lon="18.864319">
        <ele>371.8</ele>
      </trkpt>
<trkpt lat="47.540361" lon="18.864661">
        <ele>371.4</ele>
      </trkpt>
<trkpt lat="47.540254" lon="18.865175">
        <ele>373.8</ele>
      </trkpt>
<trkpt lat="47.540278" lon="18.865319">
        <ele>376.6</ele>
      </trkpt>
<trkpt lat="47.540362" lon="18.865826">
        <ele>383</ele>
      </trkpt>
<trkpt lat="47.540690" lon="18.866471">
        <ele>388.6</ele>
      </trkpt>
<trkpt lat="47.541083" lon="18.866694">
        <ele>398</ele>
      </trkpt>
<trkpt lat="47.541403" lon="18.867008">
        <ele>405.4</ele>
      </trkpt>
<trkpt lat="47.541778" lon="18.867211">
        <ele>412.8</ele>
      </trkpt>
<trkpt lat="47.542262" lon="18.867292">
        <ele>419.8</ele>
      </trkpt>
<trkpt lat="47.542626" lon="18.868209">
        <ele>427.6</ele>
      </trkpt>
<trkpt lat="47.542835" lon="18.868438">
        <ele>431.4</ele>
      </trkpt>
<trkpt lat="47.543244" lon="18.868537">
        <ele>434.4</ele>
      </trkpt>
<trkpt lat="47.543246" lon="18.868667">
        <ele>437.4</ele>
      </trkpt>
<trkpt lat="47.542453" lon="18.869066">
        <ele>434.8</ele>
      </trkpt>
<trkpt lat="47.542302" lon="18.869028">
        <ele>432.2</ele>
      </trkpt>
<trkpt lat="47.542111" lon="18.868762">
        <ele>429.8</ele>
      </trkpt>
<trkpt lat="47.542002" lon="18.868757">
        <ele>427.4</ele>
      </trkpt>
<trkpt lat="47.541912" lon="18.868883">
        <ele>425</ele>
      </trkpt>
<trkpt lat="47.541727" lon="18.868842">
        <ele>425</ele>
      </trkpt>
<trkpt lat="47.541532" lon="18.868855">
        <ele>425</ele>
      </trkpt>
<trkpt lat="47.541727" lon="18.868842">
        <ele>425</ele>
      </trkpt>
<trkpt lat="47.541827" lon="18.869088">
        <ele>426.8</ele>
      </trkpt>
<trkpt lat="47.541838" lon="18.869172">
        <ele>431.6</ele>
      </trkpt>
<trkpt lat="47.541861" lon="18.869336">
        <ele>436.4</ele>
      </trkpt>
<trkpt lat="47.542080" lon="18.870222">
        <ele>438.8</ele>
      </trkpt>
<trkpt lat="47.542197" lon="18.870238">
        <ele>443.6</ele>
      </trkpt>
<trkpt lat="47.542443" lon="18.869916">
        <ele>448.8</ele>
      </trkpt>
<trkpt lat="47.542770" lon="18.869568">
        <ele>455.2</ele>
      </trkpt>
<trkpt lat="47.542894" lon="18.869641">
        <ele>461.6</ele>
      </trkpt>
<trkpt lat="47.543001" lon="18.870058">
        <ele>469.2</ele>
      </trkpt>
<trkpt lat="47.543829" lon="18.870420">
        <ele>477.2</ele>
      </trkpt>
<trkpt lat="47.543985" lon="18.870440">
        <ele>483</ele>
      </trkpt>
<trkpt lat="47.544486" lon="18.870080">
        <ele>484.6</ele>
      </trkpt>
<trkpt lat="47.545034" lon="18.870043">
        <ele>486.2</ele>
      </trkpt>
<trkpt lat="47.545084" lon="18.870074">
        <ele>495.8</ele>
      </trkpt>
<trkpt lat="47.545034" lon="18.870043">
        <ele>507.8</ele>
      </trkpt>
<trkpt lat="47.545312" lon="18.869941">
        <ele>519.8</ele>
      </trkpt>
<trkpt lat="47.547234" lon="18.867968">
        <ele>532.2</ele>
      </trkpt>
<trkpt lat="47.548975" lon="18.865624">
        <ele>544.2</ele>
      </trkpt>
<trkpt lat="47.549272" lon="18.865657">
        <ele>550</ele>
      </trkpt>
<trkpt lat="47.549751" lon="18.865920">
        <ele>550.6</ele>
      </trkpt>
<trkpt lat="47.550274" lon="18.866331">
        <ele>551.2</ele>
      </trkpt>
<trkpt lat="47.550694" lon="18.866302">
        <ele>551.4</ele>
      </trkpt>
<trkpt lat="47.550863" lon="18.866505">
        <ele>552.6</ele>
      </trkpt>
<trkpt lat="47.551005" lon="18.866395">
        <ele>553.2</ele>
      </trkpt>
<trkpt lat="47.551243" lon="18.866325">
        <ele>553.8</ele>
      </trkpt>
<trkpt lat="47.551300" lon="18.866110">
        <ele>554.6</ele>
      </trkpt>
<trkpt lat="47.551434" lon="18.865901">
        <ele>555.4</ele>
      </trkpt>
<trkpt lat="47.551445" lon="18.865742">
        <ele>555.4</ele>
      </trkpt>
<trkpt lat="47.551554" lon="18.865386">
        <ele>555.4</ele>
      </trkpt>
<trkpt lat="47.551626" lon="18.865310">
        <ele>554</ele>
      </trkpt>
<trkpt lat="47.551688" lon="18.865432">
        <ele>552.4</ele>
      </trkpt>
<trkpt lat="47.551716" lon="18.866125">
        <ele>550</ele>
      </trkpt>
<trkpt lat="47.551367" lon="18.867317">
        <ele>547.4</ele>
      </trkpt>
<trkpt lat="47.552013" lon="18.867614">
        <ele>544.8</ele>
      </trkpt>
<trkpt lat="47.552573" lon="18.867871">
        <ele>543.6</ele>
      </trkpt>
<trkpt lat="47.552942" lon="18.867790">
        <ele>538.8</ele>
      </trkpt>
<trkpt lat="47.553388" lon="18.867525">
        <ele>534.8</ele>
      </trkpt>
<trkpt lat="47.553708" lon="18.867507">
        <ele>532</ele>
      </trkpt>
<trkpt lat="47.554684" lon="18.866896">
        <ele>527.2</ele>
      </trkpt>
<trkpt lat="47.554951" lon="18.866838">
        <ele>522.2</ele>
      </trkpt>
<trkpt lat="47.555324" lon="18.867138">
        <ele>520.8</ele>
      </trkpt>
<trkpt lat="47.556130" lon="18.867737">
        <ele>521</ele>
      </trkpt>
<trkpt lat="47.556632" lon="18.868129">
        <ele>519</ele>
      </trkpt>
<trkpt lat="47.556645" lon="18.868339">
        <ele>519.2</ele>
      </trkpt>
<trkpt lat="47.556404" lon="18.869635">
        <ele>520.6</ele>
      </trkpt>
<trkpt lat="47.555981" lon="18.872841">
        <ele>519.2</ele>
      </trkpt>
<trkpt lat="47.555890" lon="18.873793">
        <ele>516.2</ele>
      </trkpt>
<trkpt lat="47.555456" lon="18.875503">
        <ele>514.6</ele>
      </trkpt>
<trkpt lat="47.555337" lon="18.875968">
        <ele>512.4</ele>
      </trkpt>
<trkpt lat="47.555296" lon="18.877226">
        <ele>508.8</ele>
      </trkpt>
<trkpt lat="47.555161" lon="18.877838">
        <ele>508</ele>
      </trkpt>
<trkpt lat="47.554993" lon="18.878271">
        <ele>503.6</ele>
      </trkpt>
<trkpt lat="47.554892" lon="18.879011">
        <ele>498</ele>
      </trkpt>
<trkpt lat="47.554714" lon="18.879574">
        <ele>492.6</ele>
      </trkpt>
<trkpt lat="47.554554" lon="18.880493">
        <ele>487.6</ele>
      </trkpt>
<trkpt lat="47.553902" lon="18.882953">
        <ele>482.6</ele>
      </trkpt>
<trkpt lat="47.553730" lon="18.884020">
        <ele>481</ele>
      </trkpt>
<trkpt lat="47.553632" lon="18.884163">
        <ele>480.6</ele>
      </trkpt>
<trkpt lat="47.553577" lon="18.884158">
        <ele>480.4</ele>
      </trkpt>
<trkpt lat="47.553286" lon="18.883293">
        <ele>478.2</ele>
      </trkpt>
<trkpt lat="47.553187" lon="18.883137">
        <ele>474.2</ele>
      </trkpt>
<trkpt lat="47.552296" lon="18.881717">
        <ele>472.2</ele>
      </trkpt>
<trkpt lat="47.551814" lon="18.881222">
        <ele>470.2</ele>
      </trkpt>
<trkpt lat="47.551149" lon="18.880765">
        <ele>466.8</ele>
      </trkpt>
<trkpt lat="47.551288" lon="18.881010">
        <ele>465.6</ele>
      </trkpt>
<trkpt lat="47.551269" lon="18.881160">
        <ele>465.4</ele>
      </trkpt>
<trkpt lat="47.550927" lon="18.881974">
        <ele>463</ele>
      </trkpt>
<trkpt lat="47.550678" lon="18.882773">
        <ele>458.8</ele>
      </trkpt>
<trkpt lat="47.550542" lon="18.883059">
        <ele>456</ele>
      </trkpt>
<trkpt lat="47.550046" lon="18.883725">
        <ele>451.6</ele>
      </trkpt>
<trkpt lat="47.549510" lon="18.883837">
        <ele>448.4</ele>
      </trkpt>
<trkpt lat="47.549265" lon="18.884122">
        <ele>445.6</ele>
      </trkpt>
<trkpt lat="47.548909" lon="18.884776">
        <ele>443.6</ele>
      </trkpt>
<trkpt lat="47.548744" lon="18.885235">
        <ele>441.2</ele>
      </trkpt>
<trkpt lat="47.548708" lon="18.885392">
        <ele>440.2</ele>
      </trkpt>
<trkpt lat="47.548621" lon="18.885773">
        <ele>438.4</ele>
      </trkpt>
<trkpt lat="47.548364" lon="18.886296">
        <ele>436.6</ele>
      </trkpt>
<trkpt lat="47.548258" lon="18.886691">
        <ele>436.4</ele>
      </trkpt>
<trkpt lat="47.548242" lon="18.887145">
        <ele>436.6</ele>
      </trkpt>
<trkpt lat="47.547968" lon="18.887700">
        <ele>437.4</ele>
      </trkpt>
<trkpt lat="47.547695" lon="18.888702">
        <ele>438.6</ele>
      </trkpt>
<trkpt lat="47.547220" lon="18.888635">
        <ele>439.8</ele>
      </trkpt>
<trkpt lat="47.546985" lon="18.888697">
        <ele>441</ele>
      </trkpt>
<trkpt lat="47.546531" lon="18.889099">
        <ele>442.2</ele>
      </trkpt>
<trkpt lat="47.546370" lon="18.889286">
        <ele>442.6</ele>
      </trkpt>
<trkpt lat="47.546111" lon="18.889032">
        <ele>442.8</ele>
      </trkpt>
<trkpt lat="47.545502" lon="18.888928">
        <ele>443</ele>
      </trkpt>
<trkpt lat="47.544847" lon="18.889087">
        <ele>442.6</ele>
      </trkpt>
<trkpt lat="47.544201" lon="18.889691">
        <ele>441.8</ele>
      </trkpt>
<trkpt lat="47.543989" lon="18.889805">
        <ele>441.2</ele>
      </trkpt>
<trkpt lat="47.543827" lon="18.889809">
        <ele>440.8</ele>
      </trkpt>
<trkpt lat="47.543602" lon="18.889814">
        <ele>439.6</ele>
      </trkpt>
<trkpt lat="47.543240" lon="18.889734">
        <ele>438.4</ele>
      </trkpt>
<trkpt lat="47.542954" lon="18.889785">
        <ele>437.8</ele>
      </trkpt>
<trkpt lat="47.542604" lon="18.890037">
        <ele>437.2</ele>
      </trkpt>
<trkpt lat="47.542235" lon="18.890061">
        <ele>437.2</ele>
      </trkpt>
<trkpt lat="47.541929" lon="18.890250">
        <ele>439.8</ele>
      </trkpt>
<trkpt lat="47.541707" lon="18.890280">
        <ele>442.4</ele>
      </trkpt>
<trkpt lat="47.540451" lon="18.890089">
        <ele>444.8</ele>
      </trkpt>
<trkpt lat="47.540237" lon="18.889500">
        <ele>447.2</ele>
      </trkpt>
<trkpt lat="47.540015" lon="18.889128">
        <ele>451.2</ele>
      </trkpt>
<trkpt lat="47.539903" lon="18.889077">
        <ele>453.4</ele>
      </trkpt>
<trkpt lat="47.539663" lon="18.889195">
        <ele>455.6</ele>
      </trkpt>
<trkpt lat="47.539479" lon="18.889383">
        <ele>457.8</ele>
      </trkpt>
<trkpt lat="47.539437" lon="18.889504">
        <ele>460</ele>
      </trkpt>
<trkpt lat="47.539212" lon="18.889497">
        <ele>460</ele>
      </trkpt>
<trkpt lat="47.539159" lon="18.889441">
        <ele>459.2</ele>
      </trkpt>
<trkpt lat="47.539020" lon="18.889071">
        <ele>457.8</ele>
      </trkpt>
<trkpt lat="47.538933" lon="18.888947">
        <ele>456.4</ele>
      </trkpt>
<trkpt lat="47.538754" lon="18.888691">
        <ele>455</ele>
      </trkpt>
<trkpt lat="47.538424" lon="18.888337">
        <ele>453.6</ele>
      </trkpt>
<trkpt lat="47.538161" lon="18.888205">
        <ele>453</ele>
      </trkpt>
<trkpt lat="47.538059" lon="18.888094">
        <ele>453.8</ele>
      </trkpt>
<trkpt lat="47.538161" lon="18.888205">
        <ele>454.6</ele>
      </trkpt>
<trkpt lat="47.538150" lon="18.888542">
        <ele>453.8</ele>
      </trkpt>
<trkpt lat="47.538219" lon="18.888910">
        <ele>455.2</ele>
      </trkpt>
<trkpt lat="47.538321" lon="18.889174">
        <ele>454.6</ele>
      </trkpt>
<trkpt lat="47.537915" lon="18.890204">
        <ele>454.2</ele>
      </trkpt>
<trkpt lat="47.537983" lon="18.890544">
        <ele>453.8</ele>
      </trkpt>
<trkpt lat="47.537838" lon="18.891054">
        <ele>455</ele>
      </trkpt>
<trkpt lat="47.537651" lon="18.891405">
        <ele>452.4</ele>
      </trkpt>
<trkpt lat="47.537294" lon="18.891546">
        <ele>451.8</ele>
      </trkpt>
<trkpt lat="47.537154" lon="18.891743">
        <ele>451.6</ele>
      </trkpt>
<trkpt lat="47.537060" lon="18.891874">
        <ele>451.4</ele>
      </trkpt>
<trkpt lat="47.537035" lon="18.892051">
        <ele>451.2</ele>
      </trkpt>
<trkpt lat="47.537018" lon="18.892570">
        <ele>452.4</ele>
      </trkpt>
<trkpt lat="47.536800" lon="18.892653">
        <ele>453.6</ele>
      </trkpt>
<trkpt lat="47.536593" lon="18.892826">
        <ele>452.4</ele>
      </trkpt>
<trkpt lat="47.536319" lon="18.893466">
        <ele>451.2</ele>
      </trkpt>
<trkpt lat="47.536251" lon="18.893626">
        <ele>449.2</ele>
      </trkpt>
<trkpt lat="47.536186" lon="18.893942">
        <ele>447.4</ele>
      </trkpt>
<trkpt lat="47.535915" lon="18.894388">
        <ele>445</ele>
      </trkpt>
<trkpt lat="47.535778" lon="18.894783">
        <ele>442</ele>
      </trkpt>
<trkpt lat="47.535764" lon="18.894845">
        <ele>436.2</ele>
      </trkpt>
<trkpt lat="47.535436" lon="18.896223">
        <ele>428.4</ele>
      </trkpt>
<trkpt lat="47.534982" lon="18.896763">
        <ele>414.8</ele>
      </trkpt>
<trkpt lat="47.534038" lon="18.897235">
        <ele>399.2</ele>
      </trkpt>
<trkpt lat="47.533294" lon="18.897392">
        <ele>385.2</ele>
      </trkpt>
<trkpt lat="47.531781" lon="18.897543">
        <ele>371.4</ele>
      </trkpt>
<trkpt lat="47.531204" lon="18.897600">
        <ele>358.6</ele>
      </trkpt>
<trkpt lat="47.530500" lon="18.897776">
        <ele>351.6</ele>
      </trkpt>
<trkpt lat="47.530353" lon="18.897732">
        <ele>344</ele>
      </trkpt>
<trkpt lat="47.529264" lon="18.896815">
        <ele>334.6</ele>
      </trkpt>
<trkpt lat="47.529021" lon="18.896846">
        <ele>327.8</ele>
      </trkpt>
<trkpt lat="47.527451" lon="18.897053">
        <ele>322</ele>
      </trkpt>
<trkpt lat="47.527057" lon="18.897373">
        <ele>313.4</ele>
      </trkpt>
<trkpt lat="47.526907" lon="18.897526">
        <ele>304.6</ele>
      </trkpt>
<trkpt lat="47.526332" lon="18.898117">
        <ele>297.6</ele>
      </trkpt>
<trkpt lat="47.525828" lon="18.898362">
        <ele>290.6</ele>
      </trkpt>
<trkpt lat="47.524494" lon="18.898702">
        <ele>284.6</ele>
      </trkpt>
<trkpt lat="47.524054" lon="18.898718">
        <ele>281.4</ele>
      </trkpt>
<trkpt lat="47.524074" lon="18.898630">
        <ele>281.6</ele>
      </trkpt>
<trkpt lat="47.524268" lon="18.897755">
        <ele>281.8</ele>
      </trkpt>
<trkpt lat="47.524331" lon="18.896949">
        <ele>282</ele>
      </trkpt>
<trkpt lat="47.524258" lon="18.894445">
        <ele>282.4</ele>
      </trkpt>
<trkpt lat="47.524355" lon="18.894486">
        <ele>283</ele>
      </trkpt>
<trkpt lat="47.524409" lon="18.894315">
        <ele>282.2</ele>
      </trkpt>
<trkpt lat="47.524429" lon="18.893586">
        <ele>285.8</ele>
      </trkpt>
<trkpt lat="47.524621" lon="18.891634">
        <ele>288.8</ele>
      </trkpt>
<trkpt lat="47.525442" lon="18.889515">
        <ele>291.4</ele>
      </trkpt>
<trkpt lat="47.527165" lon="18.885097">
        <ele>298.6</ele>
      </trkpt>
<trkpt lat="47.528239" lon="18.882286">
        <ele>306</ele>
      </trkpt>
<trkpt lat="47.528303" lon="18.882109">
        <ele>307.2</ele>
      </trkpt>
<trkpt lat="47.530690" lon="18.874679">
        <ele>308</ele>
      </trkpt>
<trkpt lat="47.533231" lon="18.866768">
        <ele>308.8</ele>
      </trkpt>
<trkpt lat="47.531965" lon="18.867304">
        <ele>304.8</ele>
      </trkpt>
<trkpt lat="47.530586" lon="18.868209">
        <ele>301.6</ele>
      </trkpt>
<trkpt lat="47.530582" lon="18.868289">
        <ele>300.2</ele>
      </trkpt>
<trkpt lat="47.530481" lon="18.868393">
        <ele>299.8</ele>
      </trkpt>
<trkpt lat="47.530107" lon="18.868605">
        <ele>299.4</ele>
      </trkpt>
<trkpt lat="47.530016" lon="18.868889">
        <ele>299</ele>
      </trkpt>
<trkpt lat="47.529919" lon="18.868879">
        <ele>299</ele>
      </trkpt>
<trkpt lat="47.529887" lon="18.869049">
        <ele>299</ele>
      </trkpt>
</trkseg>
</trk>
</gpx>



