<?xml version="1.0" encoding="UTF-8"?>
<gpx xmlns="http://www.topografix.com/GPX/1/1" xmlns:gpsies="http://www.gpsies.com/GPX/1/0" creator="GPSies http://www.gpsies.com - GPSies Track" version="1.1" xmlns:xsi="http://www.w3.org/2001/XMLSchema-instance" xsi:schemaLocation="http://www.topografix.com/GPX/1/1 http://www.topografix.com/GPX/1/1/gpx.xsd http://www.gpsies.com/GPX/1/0 http://www.gpsies.com/gpsies.xsd">
  <metadata>
    <name>GPSies Track</name>
    <link href="http://www.gpsies.com/">
      <text>GPSies Track on GPSies.com</text>
    </link>
    <time>2018-01-25T10:48:31Z</time>
  </metadata>
  <trk>
    <name>GPSies Track on GPSies.com</name>
    <trkseg>
      <trkpt lat="47.26861556" lon="19.23070907">
        <ele>106.00000</ele>
        <time>2010-01-01T00:00:00Z</time>
      </trkpt>
      <trkpt lat="47.26860000" lon="19.23070000">
        <ele>106.00000</ele>
        <time>2010-01-01T00:00:00Z</time>
      </trkpt>
      <trkpt lat="47.26851000" lon="19.23088000">
        <ele>108.00000</ele>
        <time>2010-01-01T00:00:06Z</time>
      </trkpt>
      <trkpt lat="47.26815000" lon="19.23080000">
        <ele>110.00000</ele>
        <time>2010-01-01T00:00:21Z</time>
      </trkpt>
      <trkpt lat="47.26800000" lon="19.23087000">
        <ele>111.00000</ele>
        <time>2010-01-01T00:00:27Z</time>
      </trkpt>
      <trkpt lat="47.26787000" lon="19.23102000">
        <ele>113.00000</ele>
        <time>2010-01-01T00:00:34Z</time>
      </trkpt>
      <trkpt lat="47.26770000" lon="19.23126000">
        <ele>116.00000</ele>
        <time>2010-01-01T00:00:43Z</time>
      </trkpt>
      <trkpt lat="47.26754000" lon="19.23140000">
        <ele>117.00000</ele>
        <time>2010-01-01T00:00:51Z</time>
      </trkpt>
      <trkpt lat="47.26740000" lon="19.23136000">
        <ele>118.00000</ele>
        <time>2010-01-01T00:00:56Z</time>
      </trkpt>
      <trkpt lat="47.26686000" lon="19.23095000">
        <ele>114.00000</ele>
        <time>2010-01-01T00:01:21Z</time>
      </trkpt>
      <trkpt lat="47.26656000" lon="19.23082000">
        <ele>112.00000</ele>
        <time>2010-01-01T00:01:33Z</time>
      </trkpt>
      <trkpt lat="47.26632000" lon="19.23080000">
        <ele>111.00000</ele>
        <time>2010-01-01T00:01:43Z</time>
      </trkpt>
      <trkpt lat="47.26602000" lon="19.23097000">
        <ele>110.00000</ele>
        <time>2010-01-01T00:01:56Z</time>
      </trkpt>
      <trkpt lat="47.26576000" lon="19.23118000">
        <ele>109.00000</ele>
        <time>2010-01-01T00:02:07Z</time>
      </trkpt>
      <trkpt lat="47.26543000" lon="19.23133000">
        <ele>110.00000</ele>
        <time>2010-01-01T00:02:21Z</time>
      </trkpt>
      <trkpt lat="47.26426000" lon="19.23143000">
        <ele>110.00000</ele>
        <time>2010-01-01T00:03:08Z</time>
      </trkpt>
      <trkpt lat="47.26389000" lon="19.23149000">
        <ele>107.00000</ele>
        <time>2010-01-01T00:03:23Z</time>
      </trkpt>
      <trkpt lat="47.26360000" lon="19.23164000">
        <ele>106.00000</ele>
        <time>2010-01-01T00:03:35Z</time>
      </trkpt>
      <trkpt lat="47.26312000" lon="19.23198000">
        <ele>110.00000</ele>
        <time>2010-01-01T00:03:57Z</time>
      </trkpt>
      <trkpt lat="47.26271000" lon="19.23228000">
        <ele>109.00000</ele>
        <time>2010-01-01T00:04:15Z</time>
      </trkpt>
      <trkpt lat="47.26257000" lon="19.23226000">
        <ele>108.00000</ele>
        <time>2010-01-01T00:04:21Z</time>
      </trkpt>
      <trkpt lat="47.26242000" lon="19.23215000">
        <ele>106.00000</ele>
        <time>2010-01-01T00:04:27Z</time>
      </trkpt>
      <trkpt lat="47.26227000" lon="19.23209000">
        <ele>104.00000</ele>
        <time>2010-01-01T00:04:34Z</time>
      </trkpt>
      <trkpt lat="47.26219000" lon="19.23211000">
        <ele>103.00000</ele>
        <time>2010-01-01T00:04:37Z</time>
      </trkpt>
      <trkpt lat="47.26208000" lon="19.23223000">
        <ele>103.00000</ele>
        <time>2010-01-01T00:04:42Z</time>
      </trkpt>
      <trkpt lat="47.26175000" lon="19.23284000">
        <ele>105.00000</ele>
        <time>2010-01-01T00:05:04Z</time>
      </trkpt>
      <trkpt lat="47.26154000" lon="19.23305000">
        <ele>104.00000</ele>
        <time>2010-01-01T00:05:14Z</time>
      </trkpt>
      <trkpt lat="47.26138000" lon="19.23331000">
        <ele>104.00000</ele>
        <time>2010-01-01T00:05:23Z</time>
      </trkpt>
      <trkpt lat="47.26082000" lon="19.23468000">
        <ele>106.00000</ele>
        <time>2010-01-01T00:06:07Z</time>
      </trkpt>
      <trkpt lat="47.26059000" lon="19.23515000">
        <ele>107.00000</ele>
        <time>2010-01-01T00:06:22Z</time>
      </trkpt>
      <trkpt lat="47.26031000" lon="19.23565000">
        <ele>109.00000</ele>
        <time>2010-01-01T00:06:40Z</time>
      </trkpt>
      <trkpt lat="47.26021000" lon="19.23594000">
        <ele>109.00000</ele>
        <time>2010-01-01T00:06:49Z</time>
      </trkpt>
      <trkpt lat="47.26019000" lon="19.23615000">
        <ele>109.00000</ele>
        <time>2010-01-01T00:06:55Z</time>
      </trkpt>
      <trkpt lat="47.26024000" lon="19.23642000">
        <ele>111.00000</ele>
        <time>2010-01-01T00:07:02Z</time>
      </trkpt>
      <trkpt lat="47.26036000" lon="19.23685000">
        <ele>114.00000</ele>
        <time>2010-01-01T00:07:15Z</time>
      </trkpt>
      <trkpt lat="47.26036000" lon="19.23701000">
        <ele>114.00000</ele>
        <time>2010-01-01T00:07:19Z</time>
      </trkpt>
      <trkpt lat="47.26030000" lon="19.23715000">
        <ele>113.00000</ele>
        <time>2010-01-01T00:07:24Z</time>
      </trkpt>
      <trkpt lat="47.25925000" lon="19.23815000">
        <ele>107.00000</ele>
        <time>2010-01-01T00:08:14Z</time>
      </trkpt>
      <trkpt lat="47.25903000" lon="19.23849000">
        <ele>107.00000</ele>
        <time>2010-01-01T00:08:27Z</time>
      </trkpt>
      <trkpt lat="47.25864000" lon="19.23888000">
        <ele>108.00000</ele>
        <time>2010-01-01T00:08:45Z</time>
      </trkpt>
      <trkpt lat="47.25854000" lon="19.23896000">
        <ele>109.00000</ele>
        <time>2010-01-01T00:08:50Z</time>
      </trkpt>
      <trkpt lat="47.25844000" lon="19.23900000">
        <ele>109.00000</ele>
        <time>2010-01-01T00:08:54Z</time>
      </trkpt>
      <trkpt lat="47.25834000" lon="19.23895000">
        <ele>108.00000</ele>
        <time>2010-01-01T00:08:58Z</time>
      </trkpt>
      <trkpt lat="47.25818000" lon="19.23870000">
        <ele>106.00000</ele>
        <time>2010-01-01T00:09:08Z</time>
      </trkpt>
      <trkpt lat="47.25807000" lon="19.23861000">
        <ele>105.00000</ele>
        <time>2010-01-01T00:09:13Z</time>
      </trkpt>
      <trkpt lat="47.25796000" lon="19.23862000">
        <ele>106.00000</ele>
        <time>2010-01-01T00:09:17Z</time>
      </trkpt>
      <trkpt lat="47.25784000" lon="19.23868000">
        <ele>106.00000</ele>
        <time>2010-01-01T00:09:22Z</time>
      </trkpt>
      <trkpt lat="47.25769000" lon="19.23881000">
        <ele>106.00000</ele>
        <time>2010-01-01T00:09:29Z</time>
      </trkpt>
      <trkpt lat="47.25758000" lon="19.23899000">
        <ele>106.00000</ele>
        <time>2010-01-01T00:09:36Z</time>
      </trkpt>
      <trkpt lat="47.25744000" lon="19.23915000">
        <ele>106.00000</ele>
        <time>2010-01-01T00:09:43Z</time>
      </trkpt>
      <trkpt lat="47.25695000" lon="19.23983000">
        <ele>104.00000</ele>
        <time>2010-01-01T00:10:10Z</time>
      </trkpt>
      <trkpt lat="47.25682000" lon="19.24000000">
        <ele>103.00000</ele>
        <time>2010-01-01T00:10:17Z</time>
      </trkpt>
      <trkpt lat="47.25687000" lon="19.24020000">
        <ele>103.00000</ele>
        <time>2010-01-01T00:10:23Z</time>
      </trkpt>
      <trkpt lat="47.25704000" lon="19.24057000">
        <ele>105.00000</ele>
        <time>2010-01-01T00:10:35Z</time>
      </trkpt>
    </trkseg>
  </trk>
</gpx>

