<?xml version='1.0' encoding='UTF-8' standalone='yes' ?>
<gpx version="1.1" creator="Locus Map web planner" xsi:schemaLocation="http://www.topografix.com/GPX/1/1 http://www.topografix.com/GPX/1/1/gpx.xsd" xmlns="http://www.topografix.com/GPX/1/1" xmlns:xsi="http://www.w3.org/2001/XMLSchema-instance" xmlns:locus="http://www.locusmap.eu" xmlns:gpxx="http://www.garmin.com/xmlschemas/GpxExtensions/v3" xmlns:gpxtrkx="http://www.garmin.com/xmlschemas/TrackStatsExtension/v1" xmlns:gpxtpx="http://www.garmin.com/xmlschemas/TrackPointExtension/v2">
  <metadata>
    <desc>File with points/tracks from LocusWorld/</desc>
    <time>2024-12-17T13:03:02.418Z</time>
  </metadata>
  <wpt lat="47.5646530" lon="18.9795810">
    <ele>294.00</ele>
    <time>2024-12-17T13:03:02.417Z</time>
    <name>Kőkereszt</name>
  </wpt>
  <wpt lat="47.5584580" lon="18.9946530">
    <ele>462.50</ele>
    <time>2024-12-17T13:03:02.417Z</time>
    <name>Viewpoint</name>
  </wpt>
  <wpt lat="47.5554880" lon="18.9989070">
    <ele>486.00</ele>
    <time>2024-12-17T13:03:02.417Z</time>
    <name>Guckler Károly-kilátópont</name>
  </wpt>
  <wpt lat="47.5351920" lon="18.9997760">
    <ele>356.25</ele>
    <time>2024-12-17T13:03:02.417Z</time>
    <name>Árpád-kilátó</name>
  </wpt>
  <trk>
    <name>2024-12-17 13:03</name>
    <extensions>
      <locus:activity>no_activity</locus:activity>
    </extensions>
    <trkseg>
      <trkpt lat="47.5645770" lon="18.9599720">
        <ele>240.00</ele>
      </trkpt>
      <trkpt lat="47.5646100" lon="18.9598540">
        <ele>240.00</ele>
      </trkpt>
      <trkpt lat="47.5647230" lon="18.9594630">
        <ele>238.75</ele>
      </trkpt>
      <trkpt lat="47.5647460" lon="18.9593870">
        <ele>238.50</ele>
      </trkpt>
      <trkpt lat="47.5647990" lon="18.9594260">
        <ele>238.00</ele>
      </trkpt>
      <trkpt lat="47.5649160" lon="18.9595140">
        <ele>237.00</ele>
      </trkpt>
      <trkpt lat="47.5650420" lon="18.9596090">
        <ele>236.75</ele>
      </trkpt>
      <trkpt lat="47.5651890" lon="18.9597180">
        <ele>238.25</ele>
      </trkpt>
      <trkpt lat="47.5654510" lon="18.9599120">
        <ele>240.25</ele>
      </trkpt>
      <trkpt lat="47.5655030" lon="18.9599790">
        <ele>240.50</ele>
      </trkpt>
      <trkpt lat="47.5655210" lon="18.9600080">
        <ele>240.75</ele>
      </trkpt>
      <trkpt lat="47.5655650" lon="18.9600930">
        <ele>241.00</ele>
      </trkpt>
      <trkpt lat="47.5657940" lon="18.9604780">
        <ele>243.25</ele>
      </trkpt>
      <trkpt lat="47.5660660" lon="18.9609290">
        <ele>247.75</ele>
      </trkpt>
      <trkpt lat="47.5661160" lon="18.9610080">
        <ele>248.50</ele>
      </trkpt>
      <trkpt lat="47.5662800" lon="18.9612710">
        <ele>249.00</ele>
      </trkpt>
      <trkpt lat="47.5663990" lon="18.9614430">
        <ele>249.00</ele>
      </trkpt>
      <trkpt lat="47.5667650" lon="18.9609460">
        <ele>251.25</ele>
      </trkpt>
      <trkpt lat="47.5670550" lon="18.9606170">
        <ele>251.75</ele>
      </trkpt>
      <trkpt lat="47.5674520" lon="18.9598400">
        <ele>251.00</ele>
      </trkpt>
      <trkpt lat="47.5675190" lon="18.9599070">
        <ele>251.50</ele>
      </trkpt>
      <trkpt lat="47.5675410" lon="18.9599460">
        <ele>251.75</ele>
      </trkpt>
      <trkpt lat="47.5675680" lon="18.9600320">
        <ele>252.25</ele>
      </trkpt>
      <trkpt lat="47.5675810" lon="18.9600510">
        <ele>252.25</ele>
      </trkpt>
      <trkpt lat="47.5676260" lon="18.9600730">
        <ele>252.50</ele>
      </trkpt>
      <trkpt lat="47.5676430" lon="18.9601020">
        <ele>252.75</ele>
      </trkpt>
      <trkpt lat="47.5676820" lon="18.9602050">
        <ele>253.25</ele>
      </trkpt>
      <trkpt lat="47.5677030" lon="18.9602320">
        <ele>253.50</ele>
      </trkpt>
      <trkpt lat="47.5677490" lon="18.9602420">
        <ele>253.75</ele>
      </trkpt>
      <trkpt lat="47.5678340" lon="18.9603060">
        <ele>254.00</ele>
      </trkpt>
      <trkpt lat="47.5678680" lon="18.9603580">
        <ele>254.25</ele>
      </trkpt>
      <trkpt lat="47.5679170" lon="18.9604460">
        <ele>254.50</ele>
      </trkpt>
      <trkpt lat="47.5679390" lon="18.9604610">
        <ele>254.50</ele>
      </trkpt>
      <trkpt lat="47.5680760" lon="18.9604780">
        <ele>255.00</ele>
      </trkpt>
      <trkpt lat="47.5681080" lon="18.9605000">
        <ele>255.00</ele>
      </trkpt>
      <trkpt lat="47.5681380" lon="18.9605370">
        <ele>255.25</ele>
      </trkpt>
      <trkpt lat="47.5681530" lon="18.9605930">
        <ele>255.25</ele>
      </trkpt>
      <trkpt lat="47.5681660" lon="18.9607280">
        <ele>256.00</ele>
      </trkpt>
      <trkpt lat="47.5681730" lon="18.9607720">
        <ele>256.00</ele>
      </trkpt>
      <trkpt lat="47.5681870" lon="18.9608060">
        <ele>256.25</ele>
      </trkpt>
      <trkpt lat="47.5682100" lon="18.9608300">
        <ele>256.50</ele>
      </trkpt>
      <trkpt lat="47.5682930" lon="18.9608670">
        <ele>256.75</ele>
      </trkpt>
      <trkpt lat="47.5683260" lon="18.9608940">
        <ele>257.00</ele>
      </trkpt>
      <trkpt lat="47.5683400" lon="18.9609190">
        <ele>257.25</ele>
      </trkpt>
      <trkpt lat="47.5683790" lon="18.9610150">
        <ele>257.75</ele>
      </trkpt>
      <trkpt lat="47.5684060" lon="18.9610460">
        <ele>258.00</ele>
      </trkpt>
      <trkpt lat="47.5684410" lon="18.9610560">
        <ele>258.00</ele>
      </trkpt>
      <trkpt lat="47.5684690" lon="18.9610880">
        <ele>258.25</ele>
      </trkpt>
      <trkpt lat="47.5685010" lon="18.9611960">
        <ele>258.75</ele>
      </trkpt>
      <trkpt lat="47.5685810" lon="18.9612860">
        <ele>259.25</ele>
      </trkpt>
      <trkpt lat="47.5686470" lon="18.9613210">
        <ele>259.75</ele>
      </trkpt>
      <trkpt lat="47.5686640" lon="18.9613390">
        <ele>259.75</ele>
      </trkpt>
      <trkpt lat="47.5686750" lon="18.9613640">
        <ele>259.75</ele>
      </trkpt>
      <trkpt lat="47.5686990" lon="18.9614650">
        <ele>260.00</ele>
      </trkpt>
      <trkpt lat="47.5687170" lon="18.9614880">
        <ele>260.25</ele>
      </trkpt>
      <trkpt lat="47.5687370" lon="18.9615000">
        <ele>260.25</ele>
      </trkpt>
      <trkpt lat="47.5687950" lon="18.9615130">
        <ele>260.50</ele>
      </trkpt>
      <trkpt lat="47.5688370" lon="18.9615480">
        <ele>260.75</ele>
      </trkpt>
      <trkpt lat="47.5688750" lon="18.9616500">
        <ele>261.75</ele>
      </trkpt>
      <trkpt lat="47.5689150" lon="18.9618030">
        <ele>262.50</ele>
      </trkpt>
      <trkpt lat="47.5689780" lon="18.9619560">
        <ele>263.25</ele>
      </trkpt>
      <trkpt lat="47.5690560" lon="18.9620280">
        <ele>264.00</ele>
      </trkpt>
      <trkpt lat="47.5690900" lon="18.9621250">
        <ele>264.75</ele>
      </trkpt>
      <trkpt lat="47.5691320" lon="18.9621930">
        <ele>265.50</ele>
      </trkpt>
      <trkpt lat="47.5691690" lon="18.9622290">
        <ele>266.00</ele>
      </trkpt>
      <trkpt lat="47.5692450" lon="18.9622800">
        <ele>266.25</ele>
      </trkpt>
      <trkpt lat="47.5692870" lon="18.9623680">
        <ele>266.75</ele>
      </trkpt>
      <trkpt lat="47.5693110" lon="18.9624190">
        <ele>266.75</ele>
      </trkpt>
      <trkpt lat="47.5693950" lon="18.9625180">
        <ele>266.75</ele>
      </trkpt>
      <trkpt lat="47.5694810" lon="18.9625830">
        <ele>267.00</ele>
      </trkpt>
      <trkpt lat="47.5695080" lon="18.9626220">
        <ele>267.00</ele>
      </trkpt>
      <trkpt lat="47.5695180" lon="18.9626850">
        <ele>267.25</ele>
      </trkpt>
      <trkpt lat="47.5695380" lon="18.9627140">
        <ele>267.25</ele>
      </trkpt>
      <trkpt lat="47.5695580" lon="18.9627240">
        <ele>267.25</ele>
      </trkpt>
      <trkpt lat="47.5695800" lon="18.9627200">
        <ele>267.25</ele>
      </trkpt>
      <trkpt lat="47.5696020" lon="18.9627450">
        <ele>267.50</ele>
      </trkpt>
      <trkpt lat="47.5693110" lon="18.9633670">
        <ele>266.00</ele>
      </trkpt>
      <trkpt lat="47.5691750" lon="18.9636780">
        <ele>266.00</ele>
      </trkpt>
      <trkpt lat="47.5691030" lon="18.9638190">
        <ele>266.00</ele>
      </trkpt>
      <trkpt lat="47.5689450" lon="18.9640850">
        <ele>266.00</ele>
      </trkpt>
      <trkpt lat="47.5687910" lon="18.9643040">
        <ele>266.75</ele>
      </trkpt>
      <trkpt lat="47.5687740" lon="18.9643290">
        <ele>266.75</ele>
      </trkpt>
      <trkpt lat="47.5685640" lon="18.9646480">
        <ele>267.75</ele>
      </trkpt>
      <trkpt lat="47.5679040" lon="18.9656460">
        <ele>265.00</ele>
      </trkpt>
      <trkpt lat="47.5678180" lon="18.9657750">
        <ele>265.50</ele>
      </trkpt>
      <trkpt lat="47.5677260" lon="18.9659300">
        <ele>266.25</ele>
      </trkpt>
      <trkpt lat="47.5676170" lon="18.9661830">
        <ele>267.00</ele>
      </trkpt>
      <trkpt lat="47.5673180" lon="18.9670630">
        <ele>266.75</ele>
      </trkpt>
      <trkpt lat="47.5672820" lon="18.9671660">
        <ele>267.00</ele>
      </trkpt>
      <trkpt lat="47.5670820" lon="18.9677410">
        <ele>266.25</ele>
      </trkpt>
      <trkpt lat="47.5668880" lon="18.9676660">
        <ele>265.25</ele>
      </trkpt>
      <trkpt lat="47.5665060" lon="18.9675180">
        <ele>263.25</ele>
      </trkpt>
      <trkpt lat="47.5663670" lon="18.9674820">
        <ele>262.75</ele>
      </trkpt>
      <trkpt lat="47.5658790" lon="18.9673990">
        <ele>257.00</ele>
      </trkpt>
      <trkpt lat="47.5655710" lon="18.9673470">
        <ele>257.00</ele>
      </trkpt>
      <trkpt lat="47.5651540" lon="18.9672780">
        <ele>255.25</ele>
      </trkpt>
      <trkpt lat="47.5651510" lon="18.9674670">
        <ele>255.00</ele>
      </trkpt>
      <trkpt lat="47.5651500" lon="18.9675610">
        <ele>255.00</ele>
      </trkpt>
      <trkpt lat="47.5651820" lon="18.9676840">
        <ele>255.00</ele>
      </trkpt>
      <trkpt lat="47.5652230" lon="18.9677790">
        <ele>255.00</ele>
      </trkpt>
      <trkpt lat="47.5653860" lon="18.9680840">
        <ele>255.75</ele>
      </trkpt>
      <trkpt lat="47.5654410" lon="18.9682110">
        <ele>256.25</ele>
      </trkpt>
      <trkpt lat="47.5654810" lon="18.9683320">
        <ele>256.50</ele>
      </trkpt>
      <trkpt lat="47.5655270" lon="18.9685280">
        <ele>257.50</ele>
      </trkpt>
      <trkpt lat="47.5655840" lon="18.9689260">
        <ele>259.25</ele>
      </trkpt>
      <trkpt lat="47.5656500" lon="18.9694580">
        <ele>261.25</ele>
      </trkpt>
      <trkpt lat="47.5656790" lon="18.9698170">
        <ele>262.00</ele>
      </trkpt>
      <trkpt lat="47.5656970" lon="18.9701720">
        <ele>262.25</ele>
      </trkpt>
      <trkpt lat="47.5656920" lon="18.9706620">
        <ele>261.25</ele>
      </trkpt>
      <trkpt lat="47.5656680" lon="18.9710840">
        <ele>261.00</ele>
      </trkpt>
      <trkpt lat="47.5656370" lon="18.9713710">
        <ele>262.00</ele>
      </trkpt>
      <trkpt lat="47.5656290" lon="18.9714100">
        <ele>262.25</ele>
      </trkpt>
      <trkpt lat="47.5656110" lon="18.9714940">
        <ele>262.75</ele>
      </trkpt>
      <trkpt lat="47.5655480" lon="18.9718010">
        <ele>264.25</ele>
      </trkpt>
      <trkpt lat="47.5653420" lon="18.9724980">
        <ele>264.25</ele>
      </trkpt>
      <trkpt lat="47.5652700" lon="18.9728280">
        <ele>265.25</ele>
      </trkpt>
      <trkpt lat="47.5652050" lon="18.9729750">
        <ele>266.50</ele>
      </trkpt>
      <trkpt lat="47.5649360" lon="18.9732920">
        <ele>269.50</ele>
      </trkpt>
      <trkpt lat="47.5648510" lon="18.9733570">
        <ele>270.00</ele>
      </trkpt>
      <trkpt lat="47.5643490" lon="18.9737400">
        <ele>270.50</ele>
      </trkpt>
      <trkpt lat="47.5642340" lon="18.9738750">
        <ele>270.75</ele>
      </trkpt>
      <trkpt lat="47.5641550" lon="18.9741120">
        <ele>271.00</ele>
      </trkpt>
      <trkpt lat="47.5640670" lon="18.9744960">
        <ele>273.50</ele>
      </trkpt>
      <trkpt lat="47.5640330" lon="18.9746260">
        <ele>275.00</ele>
      </trkpt>
      <trkpt lat="47.5639390" lon="18.9749960">
        <ele>275.00</ele>
      </trkpt>
      <trkpt lat="47.5639150" lon="18.9751290">
        <ele>275.00</ele>
      </trkpt>
      <trkpt lat="47.5637920" lon="18.9753350">
        <ele>275.50</ele>
      </trkpt>
      <trkpt lat="47.5637170" lon="18.9755470">
        <ele>276.50</ele>
      </trkpt>
      <trkpt lat="47.5635940" lon="18.9758560">
        <ele>278.00</ele>
      </trkpt>
      <trkpt lat="47.5634680" lon="18.9761430">
        <ele>279.50</ele>
      </trkpt>
      <trkpt lat="47.5634050" lon="18.9764150">
        <ele>280.75</ele>
      </trkpt>
      <trkpt lat="47.5633250" lon="18.9765320">
        <ele>282.00</ele>
      </trkpt>
      <trkpt lat="47.5631830" lon="18.9768490">
        <ele>283.00</ele>
      </trkpt>
      <trkpt lat="47.5630730" lon="18.9768940">
        <ele>283.75</ele>
      </trkpt>
      <trkpt lat="47.5629650" lon="18.9768750">
        <ele>284.00</ele>
      </trkpt>
      <trkpt lat="47.5627230" lon="18.9771590">
        <ele>283.50</ele>
      </trkpt>
      <trkpt lat="47.5626180" lon="18.9774770">
        <ele>284.00</ele>
      </trkpt>
      <trkpt lat="47.5625760" lon="18.9776030">
        <ele>284.25</ele>
      </trkpt>
      <trkpt lat="47.5624180" lon="18.9780090">
        <ele>284.50</ele>
      </trkpt>
      <trkpt lat="47.5622460" lon="18.9783680">
        <ele>283.00</ele>
      </trkpt>
      <trkpt lat="47.5620760" lon="18.9786840">
        <ele>283.50</ele>
      </trkpt>
      <trkpt lat="47.5620710" lon="18.9786950">
        <ele>283.50</ele>
      </trkpt>
      <trkpt lat="47.5620500" lon="18.9788110">
        <ele>283.75</ele>
      </trkpt>
      <trkpt lat="47.5621040" lon="18.9788980">
        <ele>284.00</ele>
      </trkpt>
      <trkpt lat="47.5621360" lon="18.9789760">
        <ele>284.00</ele>
      </trkpt>
      <trkpt lat="47.5621890" lon="18.9791330">
        <ele>284.75</ele>
      </trkpt>
      <trkpt lat="47.5621960" lon="18.9791720">
        <ele>284.75</ele>
      </trkpt>
      <trkpt lat="47.5621890" lon="18.9791330">
        <ele>284.75</ele>
      </trkpt>
      <trkpt lat="47.5623360" lon="18.9792540">
        <ele>285.25</ele>
      </trkpt>
      <trkpt lat="47.5624450" lon="18.9794710">
        <ele>285.75</ele>
      </trkpt>
      <trkpt lat="47.5625860" lon="18.9796820">
        <ele>286.25</ele>
      </trkpt>
      <trkpt lat="47.5626140" lon="18.9797250">
        <ele>286.25</ele>
      </trkpt>
      <trkpt lat="47.5627230" lon="18.9798490">
        <ele>287.00</ele>
      </trkpt>
      <trkpt lat="47.5628450" lon="18.9800050">
        <ele>288.00</ele>
      </trkpt>
      <trkpt lat="47.5629610" lon="18.9800920">
        <ele>288.25</ele>
      </trkpt>
      <trkpt lat="47.5631160" lon="18.9802890">
        <ele>289.00</ele>
      </trkpt>
      <trkpt lat="47.5632890" lon="18.9805510">
        <ele>290.75</ele>
      </trkpt>
      <trkpt lat="47.5633860" lon="18.9806740">
        <ele>291.25</ele>
      </trkpt>
      <trkpt lat="47.5635420" lon="18.9808730">
        <ele>293.25</ele>
      </trkpt>
      <trkpt lat="47.5637520" lon="18.9811130">
        <ele>295.50</ele>
      </trkpt>
      <trkpt lat="47.5639240" lon="18.9813570">
        <ele>298.25</ele>
      </trkpt>
      <trkpt lat="47.5639550" lon="18.9814000">
        <ele>298.25</ele>
      </trkpt>
      <trkpt lat="47.5642920" lon="18.9819260">
        <ele>302.25</ele>
      </trkpt>
      <trkpt lat="47.5643850" lon="18.9820920">
        <ele>303.50</ele>
      </trkpt>
      <trkpt lat="47.5647950" lon="18.9815310">
        <ele>303.75</ele>
      </trkpt>
      <trkpt lat="47.5649640" lon="18.9810640">
        <ele>302.25</ele>
      </trkpt>
      <trkpt lat="47.5650930" lon="18.9807080">
        <ele>300.75</ele>
      </trkpt>
      <trkpt lat="47.5652590" lon="18.9802510">
        <ele>300.75</ele>
      </trkpt>
      <trkpt lat="47.5652280" lon="18.9800940">
        <ele>300.25</ele>
      </trkpt>
      <trkpt lat="47.5649070" lon="18.9800700">
        <ele>299.50</ele>
      </trkpt>
      <trkpt lat="47.5649040" lon="18.9799590">
        <ele>299.50</ele>
      </trkpt>
      <trkpt lat="47.5648450" lon="18.9799290">
        <ele>298.75</ele>
      </trkpt>
      <trkpt lat="47.5647560" lon="18.9797300">
        <ele>297.25</ele>
      </trkpt>
      <trkpt lat="47.5647090" lon="18.9796660">
        <ele>296.25</ele>
      </trkpt>
      <trkpt lat="47.5646630" lon="18.9796620">
        <ele>295.75</ele>
      </trkpt>
      <trkpt lat="47.5646630" lon="18.9795990">
        <ele>295.25</ele>
      </trkpt>
      <trkpt lat="47.5646530" lon="18.9795810">
        <ele>294.00</ele>
      </trkpt>
      <trkpt lat="47.5646630" lon="18.9795990">
        <ele>295.25</ele>
      </trkpt>
      <trkpt lat="47.5646630" lon="18.9796620">
        <ele>295.75</ele>
      </trkpt>
      <trkpt lat="47.5647090" lon="18.9796660">
        <ele>296.25</ele>
      </trkpt>
      <trkpt lat="47.5647560" lon="18.9797300">
        <ele>297.25</ele>
      </trkpt>
      <trkpt lat="47.5648450" lon="18.9799290">
        <ele>298.75</ele>
      </trkpt>
      <trkpt lat="47.5649040" lon="18.9799590">
        <ele>299.50</ele>
      </trkpt>
      <trkpt lat="47.5649070" lon="18.9800700">
        <ele>299.50</ele>
      </trkpt>
      <trkpt lat="47.5652280" lon="18.9800940">
        <ele>300.25</ele>
      </trkpt>
      <trkpt lat="47.5652590" lon="18.9802510">
        <ele>300.75</ele>
      </trkpt>
      <trkpt lat="47.5649640" lon="18.9810640">
        <ele>302.25</ele>
      </trkpt>
      <trkpt lat="47.5647950" lon="18.9815310">
        <ele>303.75</ele>
      </trkpt>
      <trkpt lat="47.5643850" lon="18.9820920">
        <ele>303.50</ele>
      </trkpt>
      <trkpt lat="47.5650410" lon="18.9828580">
        <ele>310.75</ele>
      </trkpt>
      <trkpt lat="47.5651100" lon="18.9829690">
        <ele>317.00</ele>
      </trkpt>
      <trkpt lat="47.5653350" lon="18.9833340">
        <ele>317.00</ele>
      </trkpt>
      <trkpt lat="47.5654710" lon="18.9835730">
        <ele>322.00</ele>
      </trkpt>
      <trkpt lat="47.5655380" lon="18.9836900">
        <ele>324.50</ele>
      </trkpt>
      <trkpt lat="47.5656200" lon="18.9838330">
        <ele>326.75</ele>
      </trkpt>
      <trkpt lat="47.5654440" lon="18.9842680">
        <ele>330.00</ele>
      </trkpt>
      <trkpt lat="47.5651660" lon="18.9847940">
        <ele>332.75</ele>
      </trkpt>
      <trkpt lat="47.5650920" lon="18.9849800">
        <ele>333.00</ele>
      </trkpt>
      <trkpt lat="47.5649970" lon="18.9856350">
        <ele>338.50</ele>
      </trkpt>
      <trkpt lat="47.5649650" lon="18.9857290">
        <ele>338.75</ele>
      </trkpt>
      <trkpt lat="47.5648880" lon="18.9859530">
        <ele>339.75</ele>
      </trkpt>
      <trkpt lat="47.5647760" lon="18.9861660">
        <ele>340.00</ele>
      </trkpt>
      <trkpt lat="47.5645310" lon="18.9864350">
        <ele>337.75</ele>
      </trkpt>
      <trkpt lat="47.5642780" lon="18.9867780">
        <ele>342.00</ele>
      </trkpt>
      <trkpt lat="47.5641620" lon="18.9869930">
        <ele>344.25</ele>
      </trkpt>
      <trkpt lat="47.5639980" lon="18.9873370">
        <ele>345.50</ele>
      </trkpt>
      <trkpt lat="47.5641980" lon="18.9878980">
        <ele>353.75</ele>
      </trkpt>
      <trkpt lat="47.5643770" lon="18.9882150">
        <ele>356.75</ele>
      </trkpt>
      <trkpt lat="47.5646110" lon="18.9885350">
        <ele>360.50</ele>
      </trkpt>
      <trkpt lat="47.5647170" lon="18.9887510">
        <ele>362.25</ele>
      </trkpt>
      <trkpt lat="47.5648330" lon="18.9888870">
        <ele>363.50</ele>
      </trkpt>
      <trkpt lat="47.5648620" lon="18.9889220">
        <ele>363.50</ele>
      </trkpt>
      <trkpt lat="47.5650120" lon="18.9891170">
        <ele>363.75</ele>
      </trkpt>
      <trkpt lat="47.5648920" lon="18.9891880">
        <ele>364.00</ele>
      </trkpt>
      <trkpt lat="47.5647810" lon="18.9893440">
        <ele>364.50</ele>
      </trkpt>
      <trkpt lat="47.5647330" lon="18.9894130">
        <ele>364.75</ele>
      </trkpt>
      <trkpt lat="47.5644410" lon="18.9900430">
        <ele>369.00</ele>
      </trkpt>
      <trkpt lat="47.5641840" lon="18.9905020">
        <ele>373.50</ele>
      </trkpt>
      <trkpt lat="47.5640050" lon="18.9906590">
        <ele>377.00</ele>
      </trkpt>
      <trkpt lat="47.5639180" lon="18.9907290">
        <ele>379.25</ele>
      </trkpt>
      <trkpt lat="47.5638320" lon="18.9909030">
        <ele>382.50</ele>
      </trkpt>
      <trkpt lat="47.5637620" lon="18.9911650">
        <ele>386.25</ele>
      </trkpt>
      <trkpt lat="47.5636080" lon="18.9914710">
        <ele>392.75</ele>
      </trkpt>
      <trkpt lat="47.5633540" lon="18.9918340">
        <ele>402.50</ele>
      </trkpt>
      <trkpt lat="47.5625030" lon="18.9927600">
        <ele>428.75</ele>
      </trkpt>
      <trkpt lat="47.5621580" lon="18.9929430">
        <ele>437.00</ele>
      </trkpt>
      <trkpt lat="47.5617620" lon="18.9933340">
        <ele>447.25</ele>
      </trkpt>
      <trkpt lat="47.5615020" lon="18.9936200">
        <ele>448.50</ele>
      </trkpt>
      <trkpt lat="47.5614430" lon="18.9936960">
        <ele>448.25</ele>
      </trkpt>
      <trkpt lat="47.5611040" lon="18.9941320">
        <ele>439.75</ele>
      </trkpt>
      <trkpt lat="47.5609020" lon="18.9943270">
        <ele>431.00</ele>
      </trkpt>
      <trkpt lat="47.5608290" lon="18.9943990">
        <ele>431.00</ele>
      </trkpt>
      <trkpt lat="47.5603890" lon="18.9948520">
        <ele>428.50</ele>
      </trkpt>
      <trkpt lat="47.5603160" lon="18.9949380">
        <ele>428.75</ele>
      </trkpt>
      <trkpt lat="47.5600800" lon="18.9951290">
        <ele>431.50</ele>
      </trkpt>
      <trkpt lat="47.5597970" lon="18.9954020">
        <ele>437.75</ele>
      </trkpt>
      <trkpt lat="47.5596190" lon="18.9955480">
        <ele>442.75</ele>
      </trkpt>
      <trkpt lat="47.5593520" lon="18.9954270">
        <ele>450.50</ele>
      </trkpt>
      <trkpt lat="47.5591060" lon="18.9953570">
        <ele>458.75</ele>
      </trkpt>
      <trkpt lat="47.5590410" lon="18.9953620">
        <ele>461.25</ele>
      </trkpt>
      <trkpt lat="47.5589900" lon="18.9953520">
        <ele>463.25</ele>
      </trkpt>
      <trkpt lat="47.5588850" lon="18.9952710">
        <ele>467.00</ele>
      </trkpt>
      <trkpt lat="47.5588020" lon="18.9953360">
        <ele>468.25</ele>
      </trkpt>
      <trkpt lat="47.5587590" lon="18.9954480">
        <ele>469.00</ele>
      </trkpt>
      <trkpt lat="47.5586940" lon="18.9955500">
        <ele>470.00</ele>
      </trkpt>
      <trkpt lat="47.5586230" lon="18.9955270">
        <ele>470.75</ele>
      </trkpt>
      <trkpt lat="47.5585500" lon="18.9953660">
        <ele>470.25</ele>
      </trkpt>
      <trkpt lat="47.5585360" lon="18.9953130">
        <ele>470.00</ele>
      </trkpt>
      <trkpt lat="47.5584910" lon="18.9952690">
        <ele>469.50</ele>
      </trkpt>
      <trkpt lat="47.5585340" lon="18.9950870">
        <ele>469.25</ele>
      </trkpt>
      <trkpt lat="47.5584740" lon="18.9947440">
        <ele>466.50</ele>
      </trkpt>
      <trkpt lat="47.5584580" lon="18.9946530">
        <ele>462.50</ele>
      </trkpt>
      <trkpt lat="47.5584740" lon="18.9947440">
        <ele>466.50</ele>
      </trkpt>
      <trkpt lat="47.5585340" lon="18.9950870">
        <ele>469.25</ele>
      </trkpt>
      <trkpt lat="47.5584910" lon="18.9952690">
        <ele>469.50</ele>
      </trkpt>
      <trkpt lat="47.5585360" lon="18.9953130">
        <ele>470.00</ele>
      </trkpt>
      <trkpt lat="47.5585500" lon="18.9953660">
        <ele>470.25</ele>
      </trkpt>
      <trkpt lat="47.5586230" lon="18.9955270">
        <ele>470.75</ele>
      </trkpt>
      <trkpt lat="47.5585650" lon="18.9956130">
        <ele>470.25</ele>
      </trkpt>
      <trkpt lat="47.5584750" lon="18.9957700">
        <ele>468.75</ele>
      </trkpt>
      <trkpt lat="47.5584530" lon="18.9957500">
        <ele>468.50</ele>
      </trkpt>
      <trkpt lat="47.5584090" lon="18.9957410">
        <ele>468.00</ele>
      </trkpt>
      <trkpt lat="47.5584180" lon="18.9957890">
        <ele>468.00</ele>
      </trkpt>
      <trkpt lat="47.5583940" lon="18.9958510">
        <ele>467.50</ele>
      </trkpt>
      <trkpt lat="47.5581660" lon="18.9961090">
        <ele>466.25</ele>
      </trkpt>
      <trkpt lat="47.5580390" lon="18.9963330">
        <ele>467.75</ele>
      </trkpt>
      <trkpt lat="47.5578160" lon="18.9965720">
        <ele>471.75</ele>
      </trkpt>
      <trkpt lat="47.5577300" lon="18.9966280">
        <ele>473.00</ele>
      </trkpt>
      <trkpt lat="47.5576480" lon="18.9966280">
        <ele>474.00</ele>
      </trkpt>
      <trkpt lat="47.5575670" lon="18.9965750">
        <ele>475.00</ele>
      </trkpt>
      <trkpt lat="47.5574970" lon="18.9965300">
        <ele>475.00</ele>
      </trkpt>
      <trkpt lat="47.5574380" lon="18.9965180">
        <ele>475.75</ele>
      </trkpt>
      <trkpt lat="47.5573740" lon="18.9965670">
        <ele>477.00</ele>
      </trkpt>
      <trkpt lat="47.5572710" lon="18.9966900">
        <ele>479.25</ele>
      </trkpt>
      <trkpt lat="47.5571790" lon="18.9968830">
        <ele>479.25</ele>
      </trkpt>
      <trkpt lat="47.5571680" lon="18.9970250">
        <ele>478.75</ele>
      </trkpt>
      <trkpt lat="47.5570120" lon="18.9970350">
        <ele>479.00</ele>
      </trkpt>
      <trkpt lat="47.5570850" lon="18.9976520">
        <ele>475.25</ele>
      </trkpt>
      <trkpt lat="47.5570900" lon="18.9977430">
        <ele>475.00</ele>
      </trkpt>
      <trkpt lat="47.5570570" lon="18.9978830">
        <ele>474.25</ele>
      </trkpt>
      <trkpt lat="47.5570160" lon="18.9978040">
        <ele>474.25</ele>
      </trkpt>
      <trkpt lat="47.5569160" lon="18.9977280">
        <ele>474.50</ele>
      </trkpt>
      <trkpt lat="47.5568220" lon="18.9977220">
        <ele>475.50</ele>
      </trkpt>
      <trkpt lat="47.5566300" lon="18.9977960">
        <ele>477.00</ele>
      </trkpt>
      <trkpt lat="47.5563420" lon="18.9980400">
        <ele>479.25</ele>
      </trkpt>
      <trkpt lat="47.5560650" lon="18.9983290">
        <ele>481.25</ele>
      </trkpt>
      <trkpt lat="47.5560010" lon="18.9986020">
        <ele>481.75</ele>
      </trkpt>
      <trkpt lat="47.5558670" lon="18.9988230">
        <ele>481.75</ele>
      </trkpt>
      <trkpt lat="47.5557600" lon="18.9990510">
        <ele>482.00</ele>
      </trkpt>
      <trkpt lat="47.5557150" lon="18.9991320">
        <ele>482.25</ele>
      </trkpt>
      <trkpt lat="47.5557100" lon="18.9991420">
        <ele>482.25</ele>
      </trkpt>
      <trkpt lat="47.5556120" lon="18.9992160">
        <ele>483.25</ele>
      </trkpt>
      <trkpt lat="47.5555170" lon="18.9992370">
        <ele>484.00</ele>
      </trkpt>
      <trkpt lat="47.5554740" lon="18.9992240">
        <ele>484.25</ele>
      </trkpt>
      <trkpt lat="47.5554440" lon="18.9991730">
        <ele>484.75</ele>
      </trkpt>
      <trkpt lat="47.5553790" lon="18.9989540">
        <ele>486.25</ele>
      </trkpt>
      <trkpt lat="47.5553880" lon="18.9987040">
        <ele>487.00</ele>
      </trkpt>
      <trkpt lat="47.5554300" lon="18.9987940">
        <ele>486.50</ele>
      </trkpt>
      <trkpt lat="47.5554560" lon="18.9988270">
        <ele>486.25</ele>
      </trkpt>
      <trkpt lat="47.5554790" lon="18.9988770">
        <ele>486.25</ele>
      </trkpt>
      <trkpt lat="47.5554880" lon="18.9989070">
        <ele>486.00</ele>
      </trkpt>
      <trkpt lat="47.5555000" lon="18.9989120">
        <ele>486.00</ele>
      </trkpt>
      <trkpt lat="47.5554880" lon="18.9989070">
        <ele>486.00</ele>
      </trkpt>
      <trkpt lat="47.5554790" lon="18.9988770">
        <ele>486.25</ele>
      </trkpt>
      <trkpt lat="47.5554560" lon="18.9988270">
        <ele>486.25</ele>
      </trkpt>
      <trkpt lat="47.5554300" lon="18.9987940">
        <ele>486.50</ele>
      </trkpt>
      <trkpt lat="47.5553880" lon="18.9987040">
        <ele>487.00</ele>
      </trkpt>
      <trkpt lat="47.5552950" lon="18.9985260">
        <ele>487.50</ele>
      </trkpt>
      <trkpt lat="47.5552140" lon="18.9984470">
        <ele>486.50</ele>
      </trkpt>
      <trkpt lat="47.5551320" lon="18.9983940">
        <ele>485.50</ele>
      </trkpt>
      <trkpt lat="47.5549370" lon="18.9985350">
        <ele>484.00</ele>
      </trkpt>
      <trkpt lat="47.5548560" lon="18.9985810">
        <ele>483.50</ele>
      </trkpt>
      <trkpt lat="47.5546710" lon="18.9986970">
        <ele>482.75</ele>
      </trkpt>
      <trkpt lat="47.5546020" lon="18.9987650">
        <ele>482.50</ele>
      </trkpt>
      <trkpt lat="47.5544390" lon="18.9989440">
        <ele>481.25</ele>
      </trkpt>
      <trkpt lat="47.5543330" lon="18.9990440">
        <ele>477.50</ele>
      </trkpt>
      <trkpt lat="47.5542510" lon="18.9991060">
        <ele>475.25</ele>
      </trkpt>
      <trkpt lat="47.5542080" lon="18.9992130">
        <ele>473.25</ele>
      </trkpt>
      <trkpt lat="47.5541820" lon="18.9992600">
        <ele>472.50</ele>
      </trkpt>
      <trkpt lat="47.5541250" lon="18.9992870">
        <ele>471.25</ele>
      </trkpt>
      <trkpt lat="47.5541020" lon="18.9993040">
        <ele>470.75</ele>
      </trkpt>
      <trkpt lat="47.5540890" lon="18.9993330">
        <ele>470.25</ele>
      </trkpt>
      <trkpt lat="47.5540800" lon="18.9993800">
        <ele>470.00</ele>
      </trkpt>
      <trkpt lat="47.5540780" lon="18.9997140">
        <ele>468.75</ele>
      </trkpt>
      <trkpt lat="47.5540960" lon="18.9998300">
        <ele>468.50</ele>
      </trkpt>
      <trkpt lat="47.5540950" lon="18.9999230">
        <ele>468.00</ele>
      </trkpt>
      <trkpt lat="47.5539530" lon="19.0000790">
        <ele>464.75</ele>
      </trkpt>
      <trkpt lat="47.5537640" lon="19.0003360">
        <ele>456.50</ele>
      </trkpt>
      <trkpt lat="47.5534330" lon="19.0006600">
        <ele>447.25</ele>
      </trkpt>
      <trkpt lat="47.5532640" lon="19.0009050">
        <ele>438.75</ele>
      </trkpt>
      <trkpt lat="47.5531050" lon="19.0011380">
        <ele>438.75</ele>
      </trkpt>
      <trkpt lat="47.5530880" lon="19.0011800">
        <ele>438.25</ele>
      </trkpt>
      <trkpt lat="47.5530470" lon="19.0014290">
        <ele>436.75</ele>
      </trkpt>
      <trkpt lat="47.5530120" lon="19.0015580">
        <ele>436.00</ele>
      </trkpt>
      <trkpt lat="47.5527400" lon="19.0018910">
        <ele>432.00</ele>
      </trkpt>
      <trkpt lat="47.5525000" lon="19.0022080">
        <ele>430.00</ele>
      </trkpt>
      <trkpt lat="47.5523930" lon="19.0023260">
        <ele>430.00</ele>
      </trkpt>
      <trkpt lat="47.5522210" lon="19.0025470">
        <ele>430.00</ele>
      </trkpt>
      <trkpt lat="47.5521180" lon="19.0026570">
        <ele>430.25</ele>
      </trkpt>
      <trkpt lat="47.5520060" lon="19.0027010">
        <ele>430.00</ele>
      </trkpt>
      <trkpt lat="47.5519410" lon="19.0026990">
        <ele>430.00</ele>
      </trkpt>
      <trkpt lat="47.5518970" lon="19.0027110">
        <ele>430.00</ele>
      </trkpt>
      <trkpt lat="47.5517770" lon="19.0027880">
        <ele>430.50</ele>
      </trkpt>
      <trkpt lat="47.5515550" lon="19.0031920">
        <ele>431.00</ele>
      </trkpt>
      <trkpt lat="47.5512810" lon="19.0035800">
        <ele>431.00</ele>
      </trkpt>
      <trkpt lat="47.5510570" lon="19.0039190">
        <ele>428.50</ele>
      </trkpt>
      <trkpt lat="47.5508300" lon="19.0041670">
        <ele>425.75</ele>
      </trkpt>
      <trkpt lat="47.5506460" lon="19.0043870">
        <ele>422.00</ele>
      </trkpt>
      <trkpt lat="47.5505550" lon="19.0044350">
        <ele>421.00</ele>
      </trkpt>
      <trkpt lat="47.5505070" lon="19.0044450">
        <ele>420.75</ele>
      </trkpt>
      <trkpt lat="47.5504020" lon="19.0044140">
        <ele>420.50</ele>
      </trkpt>
      <trkpt lat="47.5502500" lon="19.0042930">
        <ele>420.25</ele>
      </trkpt>
      <trkpt lat="47.5499890" lon="19.0041500">
        <ele>418.75</ele>
      </trkpt>
      <trkpt lat="47.5498550" lon="19.0041480">
        <ele>418.00</ele>
      </trkpt>
      <trkpt lat="47.5496490" lon="19.0040640">
        <ele>416.50</ele>
      </trkpt>
      <trkpt lat="47.5494250" lon="19.0039730">
        <ele>416.50</ele>
      </trkpt>
      <trkpt lat="47.5492450" lon="19.0038900">
        <ele>415.50</ele>
      </trkpt>
      <trkpt lat="47.5491730" lon="19.0038750">
        <ele>415.00</ele>
      </trkpt>
      <trkpt lat="47.5490520" lon="19.0039190">
        <ele>415.25</ele>
      </trkpt>
      <trkpt lat="47.5485460" lon="19.0042200">
        <ele>413.25</ele>
      </trkpt>
      <trkpt lat="47.5482550" lon="19.0044080">
        <ele>407.75</ele>
      </trkpt>
      <trkpt lat="47.5478980" lon="19.0046000">
        <ele>404.25</ele>
      </trkpt>
      <trkpt lat="47.5472740" lon="19.0049730">
        <ele>396.00</ele>
      </trkpt>
      <trkpt lat="47.5467770" lon="19.0052680">
        <ele>387.75</ele>
      </trkpt>
      <trkpt lat="47.5465370" lon="19.0054080">
        <ele>385.00</ele>
      </trkpt>
      <trkpt lat="47.5464570" lon="19.0054470">
        <ele>384.25</ele>
      </trkpt>
      <trkpt lat="47.5462660" lon="19.0054150">
        <ele>383.00</ele>
      </trkpt>
      <trkpt lat="47.5461190" lon="19.0054930">
        <ele>381.50</ele>
      </trkpt>
      <trkpt lat="47.5458090" lon="19.0057060">
        <ele>379.25</ele>
      </trkpt>
      <trkpt lat="47.5454620" lon="19.0060090">
        <ele>375.50</ele>
      </trkpt>
      <trkpt lat="47.5452850" lon="19.0062120">
        <ele>372.25</ele>
      </trkpt>
      <trkpt lat="47.5451980" lon="19.0063770">
        <ele>371.25</ele>
      </trkpt>
      <trkpt lat="47.5451370" lon="19.0064690">
        <ele>370.75</ele>
      </trkpt>
      <trkpt lat="47.5450220" lon="19.0066700">
        <ele>368.75</ele>
      </trkpt>
      <trkpt lat="47.5448140" lon="19.0070010">
        <ele>367.00</ele>
      </trkpt>
      <trkpt lat="47.5444540" lon="19.0076080">
        <ele>363.75</ele>
      </trkpt>
      <trkpt lat="47.5443750" lon="19.0077300">
        <ele>362.75</ele>
      </trkpt>
      <trkpt lat="47.5442300" lon="19.0079450">
        <ele>362.00</ele>
      </trkpt>
      <trkpt lat="47.5440640" lon="19.0081750">
        <ele>360.00</ele>
      </trkpt>
      <trkpt lat="47.5440290" lon="19.0082160">
        <ele>358.25</ele>
      </trkpt>
      <trkpt lat="47.5439420" lon="19.0083230">
        <ele>358.25</ele>
      </trkpt>
      <trkpt lat="47.5439200" lon="19.0083880">
        <ele>358.00</ele>
      </trkpt>
      <trkpt lat="47.5438640" lon="19.0084460">
        <ele>357.25</ele>
      </trkpt>
      <trkpt lat="47.5437850" lon="19.0083860">
        <ele>356.75</ele>
      </trkpt>
      <trkpt lat="47.5437380" lon="19.0083800">
        <ele>356.25</ele>
      </trkpt>
      <trkpt lat="47.5436620" lon="19.0084210">
        <ele>355.25</ele>
      </trkpt>
      <trkpt lat="47.5435910" lon="19.0086500">
        <ele>354.25</ele>
      </trkpt>
      <trkpt lat="47.5435480" lon="19.0088530">
        <ele>352.75</ele>
      </trkpt>
      <trkpt lat="47.5434910" lon="19.0091730">
        <ele>349.25</ele>
      </trkpt>
      <trkpt lat="47.5434670" lon="19.0093700">
        <ele>347.75</ele>
      </trkpt>
      <trkpt lat="47.5433850" lon="19.0095380">
        <ele>346.00</ele>
      </trkpt>
      <trkpt lat="47.5431120" lon="19.0098350">
        <ele>344.25</ele>
      </trkpt>
      <trkpt lat="47.5429340" lon="19.0100410">
        <ele>342.50</ele>
      </trkpt>
      <trkpt lat="47.5426500" lon="19.0104210">
        <ele>334.25</ele>
      </trkpt>
      <trkpt lat="47.5424910" lon="19.0107390">
        <ele>331.25</ele>
      </trkpt>
      <trkpt lat="47.5423160" lon="19.0109380">
        <ele>329.75</ele>
      </trkpt>
      <trkpt lat="47.5422100" lon="19.0110410">
        <ele>330.00</ele>
      </trkpt>
      <trkpt lat="47.5421550" lon="19.0110720">
        <ele>330.25</ele>
      </trkpt>
      <trkpt lat="47.5420110" lon="19.0110180">
        <ele>331.00</ele>
      </trkpt>
      <trkpt lat="47.5418740" lon="19.0110510">
        <ele>332.00</ele>
      </trkpt>
      <trkpt lat="47.5418310" lon="19.0110360">
        <ele>332.00</ele>
      </trkpt>
      <trkpt lat="47.5417730" lon="19.0109880">
        <ele>332.00</ele>
      </trkpt>
      <trkpt lat="47.5417360" lon="19.0109100">
        <ele>331.50</ele>
      </trkpt>
      <trkpt lat="47.5417170" lon="19.0108550">
        <ele>329.50</ele>
      </trkpt>
      <trkpt lat="47.5416780" lon="19.0107410">
        <ele>329.50</ele>
      </trkpt>
      <trkpt lat="47.5416350" lon="19.0104440">
        <ele>326.25</ele>
      </trkpt>
      <trkpt lat="47.5416140" lon="19.0102140">
        <ele>325.00</ele>
      </trkpt>
      <trkpt lat="47.5417050" lon="19.0095950">
        <ele>323.75</ele>
      </trkpt>
      <trkpt lat="47.5417500" lon="19.0090850">
        <ele>322.00</ele>
      </trkpt>
      <trkpt lat="47.5418270" lon="19.0086570">
        <ele>318.75</ele>
      </trkpt>
      <trkpt lat="47.5417640" lon="19.0084510">
        <ele>315.50</ele>
      </trkpt>
      <trkpt lat="47.5417170" lon="19.0083550">
        <ele>313.25</ele>
      </trkpt>
      <trkpt lat="47.5415830" lon="19.0081300">
        <ele>308.50</ele>
      </trkpt>
      <trkpt lat="47.5414950" lon="19.0080980">
        <ele>306.50</ele>
      </trkpt>
      <trkpt lat="47.5412290" lon="19.0077790">
        <ele>295.25</ele>
      </trkpt>
      <trkpt lat="47.5409970" lon="19.0075020">
        <ele>295.25</ele>
      </trkpt>
      <trkpt lat="47.5409480" lon="19.0074490">
        <ele>294.25</ele>
      </trkpt>
      <trkpt lat="47.5407590" lon="19.0072920">
        <ele>290.75</ele>
      </trkpt>
      <trkpt lat="47.5406540" lon="19.0071780">
        <ele>288.75</ele>
      </trkpt>
      <trkpt lat="47.5406150" lon="19.0071070">
        <ele>288.50</ele>
      </trkpt>
      <trkpt lat="47.5406060" lon="19.0069890">
        <ele>289.00</ele>
      </trkpt>
      <trkpt lat="47.5405980" lon="19.0067180">
        <ele>289.00</ele>
      </trkpt>
      <trkpt lat="47.5405570" lon="19.0065320">
        <ele>288.50</ele>
      </trkpt>
      <trkpt lat="47.5404960" lon="19.0065210">
        <ele>288.50</ele>
      </trkpt>
      <trkpt lat="47.5404530" lon="19.0065230">
        <ele>288.50</ele>
      </trkpt>
      <trkpt lat="47.5404070" lon="19.0065050">
        <ele>288.75</ele>
      </trkpt>
      <trkpt lat="47.5402050" lon="19.0063810">
        <ele>291.00</ele>
      </trkpt>
      <trkpt lat="47.5401390" lon="19.0063430">
        <ele>291.75</ele>
      </trkpt>
      <trkpt lat="47.5401050" lon="19.0064140">
        <ele>292.25</ele>
      </trkpt>
      <trkpt lat="47.5400520" lon="19.0064470">
        <ele>293.00</ele>
      </trkpt>
      <trkpt lat="47.5400280" lon="19.0066000">
        <ele>293.25</ele>
      </trkpt>
      <trkpt lat="47.5399480" lon="19.0066260">
        <ele>295.00</ele>
      </trkpt>
      <trkpt lat="47.5399170" lon="19.0065780">
        <ele>297.00</ele>
      </trkpt>
      <trkpt lat="47.5398250" lon="19.0064300">
        <ele>297.00</ele>
      </trkpt>
      <trkpt lat="47.5397590" lon="19.0061800">
        <ele>298.75</ele>
      </trkpt>
      <trkpt lat="47.5395730" lon="19.0056630">
        <ele>305.75</ele>
      </trkpt>
      <trkpt lat="47.5393390" lon="19.0049820">
        <ele>311.50</ele>
      </trkpt>
      <trkpt lat="47.5393170" lon="19.0046730">
        <ele>313.25</ele>
      </trkpt>
      <trkpt lat="47.5393280" lon="19.0043330">
        <ele>317.00</ele>
      </trkpt>
      <trkpt lat="47.5393020" lon="19.0041280">
        <ele>320.25</ele>
      </trkpt>
      <trkpt lat="47.5392650" lon="19.0039590">
        <ele>321.75</ele>
      </trkpt>
      <trkpt lat="47.5392420" lon="19.0039440">
        <ele>322.00</ele>
      </trkpt>
      <trkpt lat="47.5392180" lon="19.0039580">
        <ele>322.25</ele>
      </trkpt>
      <trkpt lat="47.5391860" lon="19.0040330">
        <ele>322.25</ele>
      </trkpt>
      <trkpt lat="47.5388230" lon="19.0054350">
        <ele>335.25</ele>
      </trkpt>
      <trkpt lat="47.5388180" lon="19.0054560">
        <ele>335.25</ele>
      </trkpt>
      <trkpt lat="47.5386930" lon="19.0060140">
        <ele>336.25</ele>
      </trkpt>
      <trkpt lat="47.5386200" lon="19.0064790">
        <ele>333.75</ele>
      </trkpt>
      <trkpt lat="47.5385920" lon="19.0066270">
        <ele>333.50</ele>
      </trkpt>
      <trkpt lat="47.5385500" lon="19.0067920">
        <ele>333.25</ele>
      </trkpt>
      <trkpt lat="47.5384990" lon="19.0069110">
        <ele>333.50</ele>
      </trkpt>
      <trkpt lat="47.5384050" lon="19.0070820">
        <ele>335.00</ele>
      </trkpt>
      <trkpt lat="47.5383260" lon="19.0071530">
        <ele>336.25</ele>
      </trkpt>
      <trkpt lat="47.5382540" lon="19.0072020">
        <ele>337.00</ele>
      </trkpt>
      <trkpt lat="47.5381770" lon="19.0072260">
        <ele>338.00</ele>
      </trkpt>
      <trkpt lat="47.5380960" lon="19.0072150">
        <ele>339.25</ele>
      </trkpt>
      <trkpt lat="47.5380350" lon="19.0071770">
        <ele>340.25</ele>
      </trkpt>
      <trkpt lat="47.5379990" lon="19.0071550">
        <ele>340.50</ele>
      </trkpt>
      <trkpt lat="47.5379200" lon="19.0070720">
        <ele>341.25</ele>
      </trkpt>
      <trkpt lat="47.5378400" lon="19.0069180">
        <ele>343.00</ele>
      </trkpt>
      <trkpt lat="47.5376830" lon="19.0064250">
        <ele>346.00</ele>
      </trkpt>
      <trkpt lat="47.5376250" lon="19.0061280">
        <ele>346.75</ele>
      </trkpt>
      <trkpt lat="47.5375990" lon="19.0058920">
        <ele>346.50</ele>
      </trkpt>
      <trkpt lat="47.5376150" lon="19.0056780">
        <ele>346.50</ele>
      </trkpt>
      <trkpt lat="47.5376840" lon="19.0053690">
        <ele>346.25</ele>
      </trkpt>
      <trkpt lat="47.5378230" lon="19.0049330">
        <ele>346.00</ele>
      </trkpt>
      <trkpt lat="47.5379100" lon="19.0047500">
        <ele>346.00</ele>
      </trkpt>
      <trkpt lat="47.5379080" lon="19.0046620">
        <ele>346.00</ele>
      </trkpt>
      <trkpt lat="47.5378930" lon="19.0046160">
        <ele>346.25</ele>
      </trkpt>
      <trkpt lat="47.5378640" lon="19.0045800">
        <ele>346.50</ele>
      </trkpt>
      <trkpt lat="47.5378360" lon="19.0045520">
        <ele>346.75</ele>
      </trkpt>
      <trkpt lat="47.5377950" lon="19.0045320">
        <ele>347.25</ele>
      </trkpt>
      <trkpt lat="47.5373480" lon="19.0044090">
        <ele>348.50</ele>
      </trkpt>
      <trkpt lat="47.5369890" lon="19.0042240">
        <ele>348.50</ele>
      </trkpt>
      <trkpt lat="47.5368830" lon="19.0040440">
        <ele>349.00</ele>
      </trkpt>
      <trkpt lat="47.5368180" lon="19.0039350">
        <ele>349.00</ele>
      </trkpt>
      <trkpt lat="47.5367820" lon="19.0037290">
        <ele>350.50</ele>
      </trkpt>
      <trkpt lat="47.5369160" lon="19.0028800">
        <ele>353.50</ele>
      </trkpt>
      <trkpt lat="47.5369180" lon="19.0026270">
        <ele>353.50</ele>
      </trkpt>
      <trkpt lat="47.5368160" lon="19.0021770">
        <ele>355.75</ele>
      </trkpt>
      <trkpt lat="47.5367510" lon="19.0019750">
        <ele>358.25</ele>
      </trkpt>
      <trkpt lat="47.5366130" lon="19.0016510">
        <ele>360.50</ele>
      </trkpt>
      <trkpt lat="47.5364450" lon="19.0013800">
        <ele>362.25</ele>
      </trkpt>
      <trkpt lat="47.5364130" lon="19.0012910">
        <ele>363.00</ele>
      </trkpt>
      <trkpt lat="47.5363790" lon="19.0011970">
        <ele>364.00</ele>
      </trkpt>
      <trkpt lat="47.5363470" lon="19.0010660">
        <ele>365.00</ele>
      </trkpt>
      <trkpt lat="47.5363250" lon="19.0008580">
        <ele>366.50</ele>
      </trkpt>
      <trkpt lat="47.5363600" lon="19.0006270">
        <ele>368.25</ele>
      </trkpt>
      <trkpt lat="47.5363610" lon="19.0004790">
        <ele>369.00</ele>
      </trkpt>
      <trkpt lat="47.5363290" lon="19.0004310">
        <ele>369.00</ele>
      </trkpt>
      <trkpt lat="47.5361270" lon="19.0003340">
        <ele>368.75</ele>
      </trkpt>
      <trkpt lat="47.5360220" lon="19.0003570">
        <ele>368.25</ele>
      </trkpt>
      <trkpt lat="47.5359210" lon="19.0003760">
        <ele>367.50</ele>
      </trkpt>
      <trkpt lat="47.5357410" lon="19.0003170">
        <ele>366.25</ele>
      </trkpt>
      <trkpt lat="47.5355740" lon="19.0001830">
        <ele>364.50</ele>
      </trkpt>
      <trkpt lat="47.5353950" lon="19.0002030">
        <ele>360.50</ele>
      </trkpt>
      <trkpt lat="47.5353540" lon="19.0001990">
        <ele>359.50</ele>
      </trkpt>
      <trkpt lat="47.5353230" lon="19.0001660">
        <ele>359.00</ele>
      </trkpt>
      <trkpt lat="47.5353000" lon="19.0001100">
        <ele>358.50</ele>
      </trkpt>
      <trkpt lat="47.5352560" lon="18.9998490">
        <ele>357.75</ele>
      </trkpt>
      <trkpt lat="47.5352430" lon="18.9997940">
        <ele>357.75</ele>
      </trkpt>
      <trkpt lat="47.5351920" lon="18.9997760">
        <ele>356.25</ele>
      </trkpt>
      <trkpt lat="47.5352430" lon="18.9997940">
        <ele>357.75</ele>
      </trkpt>
      <trkpt lat="47.5352250" lon="18.9997200">
        <ele>357.25</ele>
      </trkpt>
      <trkpt lat="47.5352650" lon="18.9996310">
        <ele>358.50</ele>
      </trkpt>
      <trkpt lat="47.5353250" lon="18.9995390">
        <ele>360.00</ele>
      </trkpt>
      <trkpt lat="47.5353290" lon="18.9994530">
        <ele>360.25</ele>
      </trkpt>
      <trkpt lat="47.5354040" lon="18.9993810">
        <ele>363.00</ele>
      </trkpt>
      <trkpt lat="47.5354440" lon="18.9993850">
        <ele>364.00</ele>
      </trkpt>
      <trkpt lat="47.5354480" lon="18.9993890">
        <ele>364.00</ele>
      </trkpt>
      <trkpt lat="47.5355460" lon="18.9994690">
        <ele>366.50</ele>
      </trkpt>
      <trkpt lat="47.5356440" lon="18.9996590">
        <ele>366.50</ele>
      </trkpt>
      <trkpt lat="47.5358130" lon="18.9999940">
        <ele>367.75</ele>
      </trkpt>
      <trkpt lat="47.5360160" lon="19.0001830">
        <ele>368.75</ele>
      </trkpt>
      <trkpt lat="47.5362480" lon="19.0002100">
        <ele>369.50</ele>
      </trkpt>
      <trkpt lat="47.5364010" lon="19.0001830">
        <ele>370.00</ele>
      </trkpt>
      <trkpt lat="47.5365300" lon="19.0001570">
        <ele>370.00</ele>
      </trkpt>
      <trkpt lat="47.5365980" lon="19.0000890">
        <ele>370.00</ele>
      </trkpt>
      <trkpt lat="47.5366800" lon="18.9999920">
        <ele>370.00</ele>
      </trkpt>
      <trkpt lat="47.5367550" lon="18.9998790">
        <ele>370.25</ele>
      </trkpt>
      <trkpt lat="47.5367820" lon="18.9998310">
        <ele>370.25</ele>
      </trkpt>
      <trkpt lat="47.5368440" lon="18.9997240">
        <ele>370.25</ele>
      </trkpt>
      <trkpt lat="47.5368910" lon="18.9996090">
        <ele>370.50</ele>
      </trkpt>
      <trkpt lat="47.5370560" lon="18.9992640">
        <ele>369.75</ele>
      </trkpt>
      <trkpt lat="47.5371570" lon="18.9990350">
        <ele>368.25</ele>
      </trkpt>
      <trkpt lat="47.5372510" lon="18.9988860">
        <ele>366.75</ele>
      </trkpt>
      <trkpt lat="47.5373410" lon="18.9988070">
        <ele>366.00</ele>
      </trkpt>
      <trkpt lat="47.5376100" lon="18.9986750">
        <ele>362.75</ele>
      </trkpt>
      <trkpt lat="47.5377240" lon="18.9986460">
        <ele>361.50</ele>
      </trkpt>
      <trkpt lat="47.5378450" lon="18.9986400">
        <ele>359.75</ele>
      </trkpt>
      <trkpt lat="47.5379220" lon="18.9986480">
        <ele>358.25</ele>
      </trkpt>
      <trkpt lat="47.5380210" lon="18.9986830">
        <ele>356.25</ele>
      </trkpt>
      <trkpt lat="47.5380820" lon="18.9986070">
        <ele>355.50</ele>
      </trkpt>
      <trkpt lat="47.5381090" lon="18.9985190">
        <ele>355.00</ele>
      </trkpt>
      <trkpt lat="47.5381520" lon="18.9983170">
        <ele>354.00</ele>
      </trkpt>
      <trkpt lat="47.5381910" lon="18.9981420">
        <ele>353.50</ele>
      </trkpt>
      <trkpt lat="47.5382150" lon="18.9979440">
        <ele>353.00</ele>
      </trkpt>
      <trkpt lat="47.5382590" lon="18.9977290">
        <ele>352.00</ele>
      </trkpt>
      <trkpt lat="47.5382830" lon="18.9975130">
        <ele>351.50</ele>
      </trkpt>
      <trkpt lat="47.5383340" lon="18.9972580">
        <ele>349.00</ele>
      </trkpt>
      <trkpt lat="47.5384140" lon="18.9969490">
        <ele>344.75</ele>
      </trkpt>
      <trkpt lat="47.5384590" lon="18.9968200">
        <ele>343.00</ele>
      </trkpt>
      <trkpt lat="47.5385710" lon="18.9966400">
        <ele>339.50</ele>
      </trkpt>
      <trkpt lat="47.5388260" lon="18.9962410">
        <ele>335.75</ele>
      </trkpt>
      <trkpt lat="47.5390140" lon="18.9956160">
        <ele>334.50</ele>
      </trkpt>
      <trkpt lat="47.5392050" lon="18.9951160">
        <ele>335.25</ele>
      </trkpt>
      <trkpt lat="47.5392170" lon="18.9949510">
        <ele>335.00</ele>
      </trkpt>
      <trkpt lat="47.5391860" lon="18.9947610">
        <ele>334.25</ele>
      </trkpt>
      <trkpt lat="47.5391070" lon="18.9945210">
        <ele>331.50</ele>
      </trkpt>
      <trkpt lat="47.5390610" lon="18.9942390">
        <ele>328.00</ele>
      </trkpt>
      <trkpt lat="47.5390710" lon="18.9939350">
        <ele>325.75</ele>
      </trkpt>
      <trkpt lat="47.5391250" lon="18.9935180">
        <ele>323.50</ele>
      </trkpt>
      <trkpt lat="47.5391350" lon="18.9934680">
        <ele>323.50</ele>
      </trkpt>
      <trkpt lat="47.5392200" lon="18.9930440">
        <ele>322.25</ele>
      </trkpt>
      <trkpt lat="47.5393690" lon="18.9926970">
        <ele>320.25</ele>
      </trkpt>
      <trkpt lat="47.5396580" lon="18.9922070">
        <ele>315.00</ele>
      </trkpt>
      <trkpt lat="47.5399230" lon="18.9918760">
        <ele>311.75</ele>
      </trkpt>
      <trkpt lat="47.5406010" lon="18.9911900">
        <ele>307.50</ele>
      </trkpt>
      <trkpt lat="47.5406130" lon="18.9911760">
        <ele>307.50</ele>
      </trkpt>
      <trkpt lat="47.5408740" lon="18.9908620">
        <ele>313.75</ele>
      </trkpt>
      <trkpt lat="47.5412620" lon="18.9903970">
        <ele>313.75</ele>
      </trkpt>
      <trkpt lat="47.5415560" lon="18.9900550">
        <ele>311.50</ele>
      </trkpt>
      <trkpt lat="47.5419490" lon="18.9896890">
        <ele>310.00</ele>
      </trkpt>
      <trkpt lat="47.5423780" lon="18.9893920">
        <ele>310.50</ele>
      </trkpt>
      <trkpt lat="47.5428750" lon="18.9891350">
        <ele>311.75</ele>
      </trkpt>
      <trkpt lat="47.5434950" lon="18.9888230">
        <ele>311.75</ele>
      </trkpt>
      <trkpt lat="47.5435860" lon="18.9887630">
        <ele>311.50</ele>
      </trkpt>
      <trkpt lat="47.5438850" lon="18.9885240">
        <ele>309.50</ele>
      </trkpt>
      <trkpt lat="47.5440840" lon="18.9882870">
        <ele>309.25</ele>
      </trkpt>
      <trkpt lat="47.5442650" lon="18.9879890">
        <ele>310.25</ele>
      </trkpt>
      <trkpt lat="47.5446560" lon="18.9873850">
        <ele>308.75</ele>
      </trkpt>
      <trkpt lat="47.5448130" lon="18.9871330">
        <ele>308.75</ele>
      </trkpt>
      <trkpt lat="47.5450400" lon="18.9868630">
        <ele>311.25</ele>
      </trkpt>
      <trkpt lat="47.5451780" lon="18.9867130">
        <ele>312.75</ele>
      </trkpt>
      <trkpt lat="47.5454420" lon="18.9864660">
        <ele>313.75</ele>
      </trkpt>
      <trkpt lat="47.5456580" lon="18.9863070">
        <ele>314.25</ele>
      </trkpt>
      <trkpt lat="47.5456890" lon="18.9862880">
        <ele>316.25</ele>
      </trkpt>
      <trkpt lat="47.5460260" lon="18.9860880">
        <ele>316.25</ele>
      </trkpt>
      <trkpt lat="47.5461330" lon="18.9860170">
        <ele>317.00</ele>
      </trkpt>
      <trkpt lat="47.5463290" lon="18.9858680">
        <ele>318.50</ele>
      </trkpt>
      <trkpt lat="47.5463480" lon="18.9858160">
        <ele>318.75</ele>
      </trkpt>
      <trkpt lat="47.5463570" lon="18.9857560">
        <ele>319.25</ele>
      </trkpt>
      <trkpt lat="47.5463350" lon="18.9854920">
        <ele>320.25</ele>
      </trkpt>
      <trkpt lat="47.5462920" lon="18.9852260">
        <ele>320.00</ele>
      </trkpt>
      <trkpt lat="47.5461720" lon="18.9850020">
        <ele>320.25</ele>
      </trkpt>
      <trkpt lat="47.5459290" lon="18.9847340">
        <ele>321.75</ele>
      </trkpt>
      <trkpt lat="47.5457750" lon="18.9845800">
        <ele>323.50</ele>
      </trkpt>
      <trkpt lat="47.5456440" lon="18.9843760">
        <ele>325.75</ele>
      </trkpt>
      <trkpt lat="47.5456100" lon="18.9842710">
        <ele>326.75</ele>
      </trkpt>
      <trkpt lat="47.5456040" lon="18.9842300">
        <ele>327.25</ele>
      </trkpt>
      <trkpt lat="47.5456800" lon="18.9841660">
        <ele>328.00</ele>
      </trkpt>
      <trkpt lat="47.5459000" lon="18.9840290">
        <ele>329.00</ele>
      </trkpt>
      <trkpt lat="47.5459880" lon="18.9838980">
        <ele>330.25</ele>
      </trkpt>
      <trkpt lat="47.5459940" lon="18.9838900">
        <ele>330.25</ele>
      </trkpt>
      <trkpt lat="47.5462040" lon="18.9836230">
        <ele>334.50</ele>
      </trkpt>
      <trkpt lat="47.5462670" lon="18.9834270">
        <ele>335.00</ele>
      </trkpt>
      <trkpt lat="47.5463200" lon="18.9833980">
        <ele>335.50</ele>
      </trkpt>
      <trkpt lat="47.5464030" lon="18.9834310">
        <ele>335.75</ele>
      </trkpt>
      <trkpt lat="47.5466640" lon="18.9833880">
        <ele>335.50</ele>
      </trkpt>
      <trkpt lat="47.5467720" lon="18.9833340">
        <ele>334.00</ele>
      </trkpt>
      <trkpt lat="47.5468900" lon="18.9832480">
        <ele>331.75</ele>
      </trkpt>
      <trkpt lat="47.5469180" lon="18.9831880">
        <ele>327.25</ele>
      </trkpt>
      <trkpt lat="47.5468900" lon="18.9832480">
        <ele>331.75</ele>
      </trkpt>
      <trkpt lat="47.5467720" lon="18.9833340">
        <ele>334.00</ele>
      </trkpt>
      <trkpt lat="47.5466640" lon="18.9833880">
        <ele>335.50</ele>
      </trkpt>
      <trkpt lat="47.5464030" lon="18.9834310">
        <ele>335.75</ele>
      </trkpt>
      <trkpt lat="47.5463200" lon="18.9833980">
        <ele>335.50</ele>
      </trkpt>
      <trkpt lat="47.5462580" lon="18.9833110">
        <ele>334.75</ele>
      </trkpt>
      <trkpt lat="47.5461570" lon="18.9830390">
        <ele>333.00</ele>
      </trkpt>
      <trkpt lat="47.5461150" lon="18.9829430">
        <ele>332.00</ele>
      </trkpt>
      <trkpt lat="47.5460660" lon="18.9828740">
        <ele>331.50</ele>
      </trkpt>
      <trkpt lat="47.5459900" lon="18.9828230">
        <ele>331.00</ele>
      </trkpt>
      <trkpt lat="47.5460120" lon="18.9827340">
        <ele>331.00</ele>
      </trkpt>
      <trkpt lat="47.5460450" lon="18.9826520">
        <ele>331.25</ele>
      </trkpt>
      <trkpt lat="47.5462420" lon="18.9823820">
        <ele>325.25</ele>
      </trkpt>
      <trkpt lat="47.5465910" lon="18.9819050">
        <ele>325.25</ele>
      </trkpt>
      <trkpt lat="47.5468100" lon="18.9815750">
        <ele>322.75</ele>
      </trkpt>
      <trkpt lat="47.5470160" lon="18.9812670">
        <ele>321.50</ele>
      </trkpt>
      <trkpt lat="47.5475200" lon="18.9805690">
        <ele>315.50</ele>
      </trkpt>
      <trkpt lat="47.5475290" lon="18.9805550">
        <ele>316.25</ele>
      </trkpt>
      <trkpt lat="47.5480420" lon="18.9798250">
        <ele>316.25</ele>
      </trkpt>
      <trkpt lat="47.5483430" lon="18.9794260">
        <ele>314.75</ele>
      </trkpt>
      <trkpt lat="47.5485830" lon="18.9790270">
        <ele>312.00</ele>
      </trkpt>
      <trkpt lat="47.5489850" lon="18.9783560">
        <ele>314.50</ele>
      </trkpt>
      <trkpt lat="47.5493560" lon="18.9778770">
        <ele>315.50</ele>
      </trkpt>
      <trkpt lat="47.5499920" lon="18.9769670">
        <ele>310.00</ele>
      </trkpt>
      <trkpt lat="47.5505810" lon="18.9760440">
        <ele>298.25</ele>
      </trkpt>
      <trkpt lat="47.5506100" lon="18.9759240">
        <ele>297.75</ele>
      </trkpt>
      <trkpt lat="47.5506100" lon="18.9758000">
        <ele>298.50</ele>
      </trkpt>
      <trkpt lat="47.5505720" lon="18.9754560">
        <ele>301.25</ele>
      </trkpt>
      <trkpt lat="47.5505000" lon="18.9752370">
        <ele>302.00</ele>
      </trkpt>
      <trkpt lat="47.5502960" lon="18.9750140">
        <ele>302.75</ele>
      </trkpt>
      <trkpt lat="47.5501000" lon="18.9749380">
        <ele>302.50</ele>
      </trkpt>
      <trkpt lat="47.5498690" lon="18.9748380">
        <ele>302.75</ele>
      </trkpt>
      <trkpt lat="47.5498250" lon="18.9747670">
        <ele>302.50</ele>
      </trkpt>
      <trkpt lat="47.5497920" lon="18.9746730">
        <ele>301.75</ele>
      </trkpt>
      <trkpt lat="47.5497710" lon="18.9745340">
        <ele>300.00</ele>
      </trkpt>
      <trkpt lat="47.5497510" lon="18.9743080">
        <ele>297.25</ele>
      </trkpt>
      <trkpt lat="47.5497010" lon="18.9742310">
        <ele>296.50</ele>
      </trkpt>
      <trkpt lat="47.5492350" lon="18.9737950">
        <ele>291.25</ele>
      </trkpt>
      <trkpt lat="47.5491630" lon="18.9736490">
        <ele>289.50</ele>
      </trkpt>
      <trkpt lat="47.5491500" lon="18.9735730">
        <ele>286.00</ele>
      </trkpt>
      <trkpt lat="47.5491250" lon="18.9734280">
        <ele>286.00</ele>
      </trkpt>
      <trkpt lat="47.5490980" lon="18.9733270">
        <ele>284.50</ele>
      </trkpt>
      <trkpt lat="47.5490120" lon="18.9731240">
        <ele>282.00</ele>
      </trkpt>
      <trkpt lat="47.5484320" lon="18.9724250">
        <ele>272.25</ele>
      </trkpt>
      <trkpt lat="47.5483320" lon="18.9722880">
        <ele>270.75</ele>
      </trkpt>
      <trkpt lat="47.5481220" lon="18.9715550">
        <ele>263.00</ele>
      </trkpt>
      <trkpt lat="47.5478360" lon="18.9708000">
        <ele>257.00</ele>
      </trkpt>
      <trkpt lat="47.5477620" lon="18.9707620">
        <ele>256.75</ele>
      </trkpt>
      <trkpt lat="47.5476720" lon="18.9707340">
        <ele>256.75</ele>
      </trkpt>
      <trkpt lat="47.5475860" lon="18.9706540">
        <ele>256.50</ele>
      </trkpt>
      <trkpt lat="47.5474500" lon="18.9705920">
        <ele>256.25</ele>
      </trkpt>
      <trkpt lat="47.5473670" lon="18.9705470">
        <ele>255.75</ele>
      </trkpt>
      <trkpt lat="47.5470130" lon="18.9702680">
        <ele>252.00</ele>
      </trkpt>
      <trkpt lat="47.5468280" lon="18.9700720">
        <ele>249.75</ele>
      </trkpt>
      <trkpt lat="47.5463440" lon="18.9693370">
        <ele>246.00</ele>
      </trkpt>
      <trkpt lat="47.5462330" lon="18.9690400">
        <ele>245.25</ele>
      </trkpt>
      <trkpt lat="47.5462080" lon="18.9686820">
        <ele>242.50</ele>
      </trkpt>
      <trkpt lat="47.5461640" lon="18.9685290">
        <ele>241.25</ele>
      </trkpt>
      <trkpt lat="47.5460980" lon="18.9682960">
        <ele>239.75</ele>
      </trkpt>
      <trkpt lat="47.5460680" lon="18.9681040">
        <ele>238.50</ele>
      </trkpt>
      <trkpt lat="47.5460220" lon="18.9679650">
        <ele>237.50</ele>
      </trkpt>
      <trkpt lat="47.5458240" lon="18.9677050">
        <ele>233.00</ele>
      </trkpt>
      <trkpt lat="47.5455010" lon="18.9672790">
        <ele>233.00</ele>
      </trkpt>
      <trkpt lat="47.5450450" lon="18.9669340">
        <ele>227.75</ele>
      </trkpt>
      <trkpt lat="47.5447240" lon="18.9667020">
        <ele>225.50</ele>
      </trkpt>
      <trkpt lat="47.5445300" lon="18.9665190">
        <ele>223.50</ele>
      </trkpt>
      <trkpt lat="47.5443990" lon="18.9663950">
        <ele>222.25</ele>
      </trkpt>
      <trkpt lat="47.5442650" lon="18.9663180">
        <ele>221.75</ele>
      </trkpt>
      <trkpt lat="47.5441160" lon="18.9662620">
        <ele>220.75</ele>
      </trkpt>
      <trkpt lat="47.5439070" lon="18.9662300">
        <ele>220.75</ele>
      </trkpt>
      <trkpt lat="47.5437120" lon="18.9663210">
        <ele>222.00</ele>
      </trkpt>
      <trkpt lat="47.5434660" lon="18.9663190">
        <ele>220.50</ele>
      </trkpt>
      <trkpt lat="47.5433080" lon="18.9662840">
        <ele>219.50</ele>
      </trkpt>
      <trkpt lat="47.5431990" lon="18.9662850">
        <ele>220.50</ele>
      </trkpt>
      <trkpt lat="47.5431420" lon="18.9662870">
        <ele>220.50</ele>
      </trkpt>
      <trkpt lat="47.5428840" lon="18.9663490">
        <ele>222.75</ele>
      </trkpt>
      <trkpt lat="47.5426750" lon="18.9663660">
        <ele>222.50</ele>
      </trkpt>
      <trkpt lat="47.5426400" lon="18.9663280">
        <ele>221.50</ele>
      </trkpt>
      <trkpt lat="47.5425070" lon="18.9662700">
        <ele>219.75</ele>
      </trkpt>
      <trkpt lat="47.5424950" lon="18.9661940">
        <ele>218.75</ele>
      </trkpt>
      <trkpt lat="47.5424700" lon="18.9661400">
        <ele>217.75</ele>
      </trkpt>
      <trkpt lat="47.5424250" lon="18.9660900">
        <ele>216.25</ele>
      </trkpt>
      <trkpt lat="47.5423160" lon="18.9660160">
        <ele>214.00</ele>
      </trkpt>
      <trkpt lat="47.5423030" lon="18.9659350">
        <ele>213.00</ele>
      </trkpt>
      <trkpt lat="47.5423430" lon="18.9658600">
        <ele>213.25</ele>
      </trkpt>
      <trkpt lat="47.5423730" lon="18.9658310">
        <ele>213.50</ele>
      </trkpt>
      <trkpt lat="47.5422730" lon="18.9652680">
        <ele>210.25</ele>
      </trkpt>
      <trkpt lat="47.5422640" lon="18.9652230">
        <ele>210.25</ele>
      </trkpt>
      <trkpt lat="47.5422480" lon="18.9651520">
        <ele>210.50</ele>
      </trkpt>
      <trkpt lat="47.5421910" lon="18.9651640">
        <ele>210.25</ele>
      </trkpt>
      <trkpt lat="47.5421860" lon="18.9651070">
        <ele>210.25</ele>
      </trkpt>
      <trkpt lat="47.5421720" lon="18.9649520">
        <ele>211.00</ele>
      </trkpt>
      <trkpt lat="47.5422630" lon="18.9649310">
        <ele>211.00</ele>
      </trkpt>
      <trkpt lat="47.5423010" lon="18.9649220">
        <ele>210.75</ele>
      </trkpt>
      <trkpt lat="47.5424460" lon="18.9648900">
        <ele>210.25</ele>
      </trkpt>
      <trkpt lat="47.5424980" lon="18.9648480">
        <ele>210.00</ele>
      </trkpt>
      <trkpt lat="47.5425640" lon="18.9648040">
        <ele>210.00</ele>
      </trkpt>
    </trkseg>
  </trk>
</gpx>