<?xml version="1.0" encoding="utf-8"?>
<gpx xmlns="http://www.topografix.com/GPX/1/1" version="1.1" creator="https://mapy.com/">
	<trk>
		<name>Route from 48.965845N, 20.385772E to 48.965838N, 20.385911E</name>
		<trkseg>
			<trkpt lat="48.965827" lon="20.385784">
				<ele>550.000000</ele>
			</trkpt>
			<trkpt lat="48.965822" lon="20.385747">
				<ele>550.000000</ele>
			</trkpt>
			<trkpt lat="48.965751" lon="20.385765">
				<ele>550.000000</ele>
			</trkpt>
			<trkpt lat="48.965562" lon="20.385810">
				<ele>550.000000</ele>
			</trkpt>
			<trkpt lat="48.965444" lon="20.385837">
				<ele>550.000000</ele>
			</trkpt>
			<trkpt lat="48.965338" lon="20.385864">
				<ele>550.000000</ele>
			</trkpt>
			<trkpt lat="48.965196" lon="20.385900">
				<ele>550.000000</ele>
			</trkpt>
			<trkpt lat="48.965096" lon="20.385927">
				<ele>550.000000</ele>
			</trkpt>
			<trkpt lat="48.965014" lon="20.385873">
				<ele>550.000000</ele>
			</trkpt>
			<trkpt lat="48.964961" lon="20.385828">
				<ele>550.000000</ele>
			</trkpt>
			<trkpt lat="48.964913" lon="20.385765">
				<ele>550.000000</ele>
			</trkpt>
			<trkpt lat="48.964860" lon="20.385684">
				<ele>550.000000</ele>
			</trkpt>
			<trkpt lat="48.964778" lon="20.385514">
				<ele>550.000000</ele>
			</trkpt>
			<trkpt lat="48.964660" lon="20.385145">
				<ele>550.000000</ele>
			</trkpt>
			<trkpt lat="48.964524" lon="20.384759">
				<ele>550.000000</ele>
			</trkpt>
			<trkpt lat="48.964436" lon="20.384552">
				<ele>550.000000</ele>
			</trkpt>
			<trkpt lat="48.964365" lon="20.384426">
				<ele>550.000000</ele>
			</trkpt>
			<trkpt lat="48.964288" lon="20.384329">
				<ele>550.000000</ele>
			</trkpt>
			<trkpt lat="48.964217" lon="20.384220">
				<ele>550.000000</ele>
			</trkpt>
			<trkpt lat="48.964029" lon="20.383987">
				<ele>550.000000</ele>
			</trkpt>
			<trkpt lat="48.963775" lon="20.383700">
				<ele>551.000000</ele>
			</trkpt>
			<trkpt lat="48.963645" lon="20.383528">
				<ele>551.000000</ele>
			</trkpt>
			<trkpt lat="48.963569" lon="20.383421">
				<ele>551.000000</ele>
			</trkpt>
			<trkpt lat="48.963404" lon="20.383107">
				<ele>552.000000</ele>
			</trkpt>
			<trkpt lat="48.963333" lon="20.382918">
				<ele>552.000000</ele>
			</trkpt>
			<trkpt lat="48.963215" lon="20.382621">
				<ele>552.000000</ele>
			</trkpt>
			<trkpt lat="48.963079" lon="20.382155">
				<ele>552.000000</ele>
			</trkpt>
			<trkpt lat="48.963026" lon="20.381965">
				<ele>553.000000</ele>
			</trkpt>
			<trkpt lat="48.962973" lon="20.381768">
				<ele>553.000000</ele>
			</trkpt>
			<trkpt lat="48.962944" lon="20.381589">
				<ele>553.000000</ele>
			</trkpt>
			<trkpt lat="48.962914" lon="20.381390">
				<ele>553.000000</ele>
			</trkpt>
			<trkpt lat="48.962896" lon="20.381184">
				<ele>553.000000</ele>
			</trkpt>
			<trkpt lat="48.962885" lon="20.381040">
				<ele>553.000000</ele>
			</trkpt>
			<trkpt lat="48.962885" lon="20.380887">
				<ele>554.000000</ele>
			</trkpt>
			<trkpt lat="48.962896" lon="20.380726">
				<ele>554.000000</ele>
			</trkpt>
			<trkpt lat="48.962914" lon="20.380573">
				<ele>554.000000</ele>
			</trkpt>
			<trkpt lat="48.962961" lon="20.380375">
				<ele>554.000000</ele>
			</trkpt>
			<trkpt lat="48.963020" lon="20.380168">
				<ele>554.000000</ele>
			</trkpt>
			<trkpt lat="48.963221" lon="20.379476">
				<ele>555.000000</ele>
			</trkpt>
			<trkpt lat="48.963321" lon="20.379145">
				<ele>555.000000</ele>
			</trkpt>
			<trkpt lat="48.963309" lon="20.379010">
				<ele>555.000000</ele>
			</trkpt>
			<trkpt lat="48.963061" lon="20.378497">
				<ele>556.000000</ele>
			</trkpt>
			<trkpt lat="48.962985" lon="20.378327">
				<ele>556.000000</ele>
			</trkpt>
			<trkpt lat="48.962790" lon="20.377717">
				<ele>556.000000</ele>
			</trkpt>
			<trkpt lat="48.962708" lon="20.377392">
				<ele>557.000000</ele>
			</trkpt>
			<trkpt lat="48.962655" lon="20.377178">
				<ele>557.000000</ele>
			</trkpt>
			<trkpt lat="48.962613" lon="20.377096">
				<ele>557.000000</ele>
			</trkpt>
			<trkpt lat="48.962389" lon="20.376899">
				<ele>557.000000</ele>
			</trkpt>
			<trkpt lat="48.962159" lon="20.376737">
				<ele>558.000000</ele>
			</trkpt>
			<trkpt lat="48.962082" lon="20.376656">
				<ele>558.000000</ele>
			</trkpt>
			<trkpt lat="48.961964" lon="20.376486">
				<ele>558.000000</ele>
			</trkpt>
			<trkpt lat="48.961770" lon="20.376144">
				<ele>558.000000</ele>
			</trkpt>
			<trkpt lat="48.961658" lon="20.375929">
				<ele>559.000000</ele>
			</trkpt>
			<trkpt lat="48.961499" lon="20.375605">
				<ele>559.000000</ele>
			</trkpt>
			<trkpt lat="48.961239" lon="20.375102">
				<ele>559.000000</ele>
			</trkpt>
			<trkpt lat="48.961044" lon="20.374761">
				<ele>560.000000</ele>
			</trkpt>
			<trkpt lat="48.960938" lon="20.374528">
				<ele>560.000000</ele>
			</trkpt>
			<trkpt lat="48.960732" lon="20.373853">
				<ele>560.000000</ele>
			</trkpt>
			<trkpt lat="48.960496" lon="20.373216">
				<ele>560.000000</ele>
			</trkpt>
			<trkpt lat="48.960325" lon="20.372830">
				<ele>560.000000</ele>
			</trkpt>
			<trkpt lat="48.960248" lon="20.372631">
				<ele>560.000000</ele>
			</trkpt>
			<trkpt lat="48.960189" lon="20.372425">
				<ele>560.000000</ele>
			</trkpt>
			<trkpt lat="48.959965" lon="20.371805">
				<ele>560.000000</ele>
			</trkpt>
			<trkpt lat="48.959588" lon="20.370997">
				<ele>560.000000</ele>
			</trkpt>
			<trkpt lat="48.959363" lon="20.370727">
				<ele>560.000000</ele>
			</trkpt>
			<trkpt lat="48.959204" lon="20.370620">
				<ele>560.000000</ele>
			</trkpt>
			<trkpt lat="48.959015" lon="20.370539">
				<ele>560.000000</ele>
			</trkpt>
			<trkpt lat="48.958873" lon="20.370494">
				<ele>560.000000</ele>
			</trkpt>
			<trkpt lat="48.958702" lon="20.370503">
				<ele>560.000000</ele>
			</trkpt>
			<trkpt lat="48.958561" lon="20.370467">
				<ele>562.000000</ele>
			</trkpt>
			<trkpt lat="48.958384" lon="20.370368">
				<ele>565.000000</ele>
			</trkpt>
			<trkpt lat="48.958065" lon="20.370081">
				<ele>570.000000</ele>
			</trkpt>
			<trkpt lat="48.958172" lon="20.369937">
				<ele>567.000000</ele>
			</trkpt>
			<trkpt lat="48.958202" lon="20.369802">
				<ele>566.000000</ele>
			</trkpt>
			<trkpt lat="48.958113" lon="20.369668">
				<ele>563.000000</ele>
			</trkpt>
			<trkpt lat="48.957989" lon="20.369434">
				<ele>560.000000</ele>
			</trkpt>
			<trkpt lat="48.957953" lon="20.369201">
				<ele>560.000000</ele>
			</trkpt>
			<trkpt lat="48.957983" lon="20.368958">
				<ele>560.000000</ele>
			</trkpt>
			<trkpt lat="48.957947" lon="20.368805">
				<ele>561.000000</ele>
			</trkpt>
			<trkpt lat="48.957888" lon="20.368689">
				<ele>561.000000</ele>
			</trkpt>
			<trkpt lat="48.957706" lon="20.368490">
				<ele>561.000000</ele>
			</trkpt>
			<trkpt lat="48.957393" lon="20.368077">
				<ele>562.000000</ele>
			</trkpt>
			<trkpt lat="48.957181" lon="20.367807">
				<ele>562.000000</ele>
			</trkpt>
			<trkpt lat="48.957045" lon="20.367610">
				<ele>562.000000</ele>
			</trkpt>
			<trkpt lat="48.956850" lon="20.367260">
				<ele>563.000000</ele>
			</trkpt>
			<trkpt lat="48.956756" lon="20.367161">
				<ele>563.000000</ele>
			</trkpt>
			<trkpt lat="48.956603" lon="20.367098">
				<ele>563.000000</ele>
			</trkpt>
			<trkpt lat="48.956467" lon="20.366999">
				<ele>564.000000</ele>
			</trkpt>
			<trkpt lat="48.956296" lon="20.366855">
				<ele>564.000000</ele>
			</trkpt>
			<trkpt lat="48.956190" lon="20.366731">
				<ele>564.000000</ele>
			</trkpt>
			<trkpt lat="48.956160" lon="20.366604">
				<ele>564.000000</ele>
			</trkpt>
			<trkpt lat="48.956160" lon="20.366433">
				<ele>564.000000</ele>
			</trkpt>
			<trkpt lat="48.956237" lon="20.366262">
				<ele>564.000000</ele>
			</trkpt>
			<trkpt lat="48.956290" lon="20.366173">
				<ele>565.000000</ele>
			</trkpt>
			<trkpt lat="48.956325" lon="20.366047">
				<ele>565.000000</ele>
			</trkpt>
			<trkpt lat="48.956337" lon="20.365823">
				<ele>565.000000</ele>
			</trkpt>
			<trkpt lat="48.956361" lon="20.365562">
				<ele>565.000000</ele>
			</trkpt>
			<trkpt lat="48.956426" lon="20.365320">
				<ele>565.000000</ele>
			</trkpt>
			<trkpt lat="48.956597" lon="20.364844">
				<ele>566.000000</ele>
			</trkpt>
			<trkpt lat="48.956703" lon="20.364475">
				<ele>566.000000</ele>
			</trkpt>
			<trkpt lat="48.956715" lon="20.364115">
				<ele>567.000000</ele>
			</trkpt>
			<trkpt lat="48.956662" lon="20.363685">
				<ele>567.000000</ele>
			</trkpt>
			<trkpt lat="48.956597" lon="20.363163">
				<ele>568.000000</ele>
			</trkpt>
			<trkpt lat="48.956526" lon="20.362723">
				<ele>568.000000</ele>
			</trkpt>
			<trkpt lat="48.956491" lon="20.362589">
				<ele>568.000000</ele>
			</trkpt>
			<trkpt lat="48.956426" lon="20.362490">
				<ele>568.000000</ele>
			</trkpt>
			<trkpt lat="48.956355" lon="20.362355">
				<ele>569.000000</ele>
			</trkpt>
			<trkpt lat="48.956302" lon="20.362194">
				<ele>569.000000</ele>
			</trkpt>
			<trkpt lat="48.956249" lon="20.362058">
				<ele>569.000000</ele>
			</trkpt>
			<trkpt lat="48.956266" lon="20.361951">
				<ele>569.000000</ele>
			</trkpt>
			<trkpt lat="48.956243" lon="20.361781">
				<ele>569.000000</ele>
			</trkpt>
			<trkpt lat="48.956172" lon="20.361574">
				<ele>569.000000</ele>
			</trkpt>
			<trkpt lat="48.956137" lon="20.361331">
				<ele>570.000000</ele>
			</trkpt>
			<trkpt lat="48.956131" lon="20.360865">
				<ele>570.000000</ele>
			</trkpt>
			<trkpt lat="48.956119" lon="20.360675">
				<ele>571.000000</ele>
			</trkpt>
			<trkpt lat="48.956072" lon="20.360469">
				<ele>571.000000</ele>
			</trkpt>
			<trkpt lat="48.955948" lon="20.360173">
				<ele>572.000000</ele>
			</trkpt>
			<trkpt lat="48.955800" lon="20.359867">
				<ele>572.000000</ele>
			</trkpt>
			<trkpt lat="48.955718" lon="20.359678">
				<ele>573.000000</ele>
			</trkpt>
			<trkpt lat="48.955677" lon="20.359517">
				<ele>573.000000</ele>
			</trkpt>
			<trkpt lat="48.955641" lon="20.359274">
				<ele>573.000000</ele>
			</trkpt>
			<trkpt lat="48.955618" lon="20.359202">
				<ele>574.000000</ele>
			</trkpt>
			<trkpt lat="48.955565" lon="20.359131">
				<ele>574.000000</ele>
			</trkpt>
			<trkpt lat="48.955323" lon="20.358735">
				<ele>575.000000</ele>
			</trkpt>
			<trkpt lat="48.955122" lon="20.358393">
				<ele>575.000000</ele>
			</trkpt>
			<trkpt lat="48.954868" lon="20.357989">
				<ele>576.000000</ele>
			</trkpt>
			<trkpt lat="48.954721" lon="20.357612">
				<ele>577.000000</ele>
			</trkpt>
			<trkpt lat="48.954597" lon="20.357324">
				<ele>578.000000</ele>
			</trkpt>
			<trkpt lat="48.954408" lon="20.356947">
				<ele>579.000000</ele>
			</trkpt>
			<trkpt lat="48.954167" lon="20.356660">
				<ele>580.000000</ele>
			</trkpt>
			<trkpt lat="48.954060" lon="20.356489">
				<ele>580.000000</ele>
			</trkpt>
			<trkpt lat="48.954031" lon="20.356309">
				<ele>590.000000</ele>
			</trkpt>
			<trkpt lat="48.953954" lon="20.356228">
				<ele>590.000000</ele>
			</trkpt>
			<trkpt lat="48.953577" lon="20.355806">
				<ele>590.000000</ele>
			</trkpt>
			<trkpt lat="48.953382" lon="20.355582">
				<ele>590.000000</ele>
			</trkpt>
			<trkpt lat="48.953069" lon="20.355096">
				<ele>590.000000</ele>
			</trkpt>
			<trkpt lat="48.952810" lon="20.354710">
				<ele>590.000000</ele>
			</trkpt>
			<trkpt lat="48.952480" lon="20.354270">
				<ele>590.000000</ele>
			</trkpt>
			<trkpt lat="48.952285" lon="20.353947">
				<ele>590.000000</ele>
			</trkpt>
			<trkpt lat="48.952126" lon="20.353722">
				<ele>590.000000</ele>
			</trkpt>
			<trkpt lat="48.951896" lon="20.353399">
				<ele>590.000000</ele>
			</trkpt>
			<trkpt lat="48.951660" lon="20.353093">
				<ele>590.000000</ele>
			</trkpt>
			<trkpt lat="48.951624" lon="20.353049">
				<ele>590.000000</ele>
			</trkpt>
			<trkpt lat="48.951288" lon="20.352672">
				<ele>590.000000</ele>
			</trkpt>
			<trkpt lat="48.950916" lon="20.352177">
				<ele>590.000000</ele>
			</trkpt>
			<trkpt lat="48.950627" lon="20.351854">
				<ele>590.000000</ele>
			</trkpt>
			<trkpt lat="48.950197" lon="20.351414">
				<ele>590.000000</ele>
			</trkpt>
			<trkpt lat="48.949802" lon="20.351018">
				<ele>590.000000</ele>
			</trkpt>
			<trkpt lat="48.949648" lon="20.350911">
				<ele>590.000000</ele>
			</trkpt>
			<trkpt lat="48.949459" lon="20.350812">
				<ele>590.000000</ele>
			</trkpt>
			<trkpt lat="48.949317" lon="20.350722">
				<ele>590.000000</ele>
			</trkpt>
			<trkpt lat="48.949052" lon="20.350506">
				<ele>590.000000</ele>
			</trkpt>
			<trkpt lat="48.948881" lon="20.350318">
				<ele>590.000000</ele>
			</trkpt>
			<trkpt lat="48.948657" lon="20.350039">
				<ele>590.000000</ele>
			</trkpt>
			<trkpt lat="48.948362" lon="20.349653">
				<ele>590.000000</ele>
			</trkpt>
			<trkpt lat="48.948108" lon="20.349320">
				<ele>590.000000</ele>
			</trkpt>
			<trkpt lat="48.947872" lon="20.348988">
				<ele>590.000000</ele>
			</trkpt>
			<trkpt lat="48.947760" lon="20.348745">
				<ele>590.000000</ele>
			</trkpt>
			<trkpt lat="48.947630" lon="20.348494">
				<ele>590.000000</ele>
			</trkpt>
			<trkpt lat="48.947477" lon="20.348269">
				<ele>590.000000</ele>
			</trkpt>
			<trkpt lat="48.947282" lon="20.348045">
				<ele>590.000000</ele>
			</trkpt>
			<trkpt lat="48.946946" lon="20.347676">
				<ele>590.000000</ele>
			</trkpt>
			<trkpt lat="48.946728" lon="20.347470">
				<ele>590.000000</ele>
			</trkpt>
			<trkpt lat="48.946515" lon="20.347299">
				<ele>590.000000</ele>
			</trkpt>
			<trkpt lat="48.946385" lon="20.347137">
				<ele>590.000000</ele>
			</trkpt>
			<trkpt lat="48.946096" lon="20.346680">
				<ele>590.000000</ele>
			</trkpt>
			<trkpt lat="48.946055" lon="20.346617">
				<ele>590.000000</ele>
			</trkpt>
			<trkpt lat="48.945984" lon="20.346680">
				<ele>590.000000</ele>
			</trkpt>
			<trkpt lat="48.945925" lon="20.346724">
				<ele>590.000000</ele>
			</trkpt>
			<trkpt lat="48.945908" lon="20.346733">
				<ele>590.000000</ele>
			</trkpt>
			<trkpt lat="48.945790" lon="20.346823">
				<ele>590.000000</ele>
			</trkpt>
			<trkpt lat="48.945642" lon="20.346994">
				<ele>590.000000</ele>
			</trkpt>
			<trkpt lat="48.945495" lon="20.347093">
				<ele>590.000000</ele>
			</trkpt>
			<trkpt lat="48.945436" lon="20.347129">
				<ele>590.000000</ele>
			</trkpt>
			<trkpt lat="48.945305" lon="20.347227">
				<ele>590.000000</ele>
			</trkpt>
			<trkpt lat="48.945246" lon="20.347219">
				<ele>590.000000</ele>
			</trkpt>
			<trkpt lat="48.945128" lon="20.347200">
				<ele>590.000000</ele>
			</trkpt>
			<trkpt lat="48.945064" lon="20.347183">
				<ele>590.000000</ele>
			</trkpt>
			<trkpt lat="48.944917" lon="20.347173">
				<ele>590.000000</ele>
			</trkpt>
			<trkpt lat="48.944456" lon="20.347156">
				<ele>590.000000</ele>
			</trkpt>
			<trkpt lat="48.944326" lon="20.347137">
				<ele>590.000000</ele>
			</trkpt>
			<trkpt lat="48.944184" lon="20.347110">
				<ele>590.000000</ele>
			</trkpt>
			<trkpt lat="48.944084" lon="20.347083">
				<ele>590.000000</ele>
			</trkpt>
			<trkpt lat="48.943990" lon="20.347039">
				<ele>591.000000</ele>
			</trkpt>
			<trkpt lat="48.943854" lon="20.346949">
				<ele>591.000000</ele>
			</trkpt>
			<trkpt lat="48.943370" lon="20.346554">
				<ele>591.000000</ele>
			</trkpt>
			<trkpt lat="48.943364" lon="20.346544">
				<ele>591.000000</ele>
			</trkpt>
			<trkpt lat="48.943364" lon="20.346544">
				<ele>591.000000</ele>
			</trkpt>
			<trkpt lat="48.943370" lon="20.346554">
				<ele>591.000000</ele>
			</trkpt>
			<trkpt lat="48.943111" lon="20.347282">
				<ele>593.000000</ele>
			</trkpt>
			<trkpt lat="48.943058" lon="20.347380">
				<ele>594.000000</ele>
			</trkpt>
			<trkpt lat="48.942987" lon="20.347479">
				<ele>594.000000</ele>
			</trkpt>
			<trkpt lat="48.942881" lon="20.347551">
				<ele>594.000000</ele>
			</trkpt>
			<trkpt lat="48.942804" lon="20.347632">
				<ele>595.000000</ele>
			</trkpt>
			<trkpt lat="48.942757" lon="20.347676">
				<ele>595.000000</ele>
			</trkpt>
			<trkpt lat="48.942698" lon="20.347703">
				<ele>595.000000</ele>
			</trkpt>
			<trkpt lat="48.942657" lon="20.347749">
				<ele>595.000000</ele>
			</trkpt>
			<trkpt lat="48.942592" lon="20.347812">
				<ele>596.000000</ele>
			</trkpt>
			<trkpt lat="48.942651" lon="20.347883">
				<ele>596.000000</ele>
			</trkpt>
			<trkpt lat="48.942592" lon="20.348215">
				<ele>597.000000</ele>
			</trkpt>
			<trkpt lat="48.942556" lon="20.348422">
				<ele>597.000000</ele>
			</trkpt>
			<trkpt lat="48.942556" lon="20.348808">
				<ele>598.000000</ele>
			</trkpt>
			<trkpt lat="48.942503" lon="20.349051">
				<ele>599.000000</ele>
			</trkpt>
			<trkpt lat="48.942367" lon="20.349366">
				<ele>600.000000</ele>
			</trkpt>
			<trkpt lat="48.942267" lon="20.349662">
				<ele>600.000000</ele>
			</trkpt>
			<trkpt lat="48.942249" lon="20.349779">
				<ele>600.000000</ele>
			</trkpt>
			<trkpt lat="48.942261" lon="20.350093">
				<ele>600.000000</ele>
			</trkpt>
			<trkpt lat="48.942285" lon="20.350236">
				<ele>601.000000</ele>
			</trkpt>
			<trkpt lat="48.942326" lon="20.350372">
				<ele>601.000000</ele>
			</trkpt>
			<trkpt lat="48.942397" lon="20.350488">
				<ele>601.000000</ele>
			</trkpt>
			<trkpt lat="48.942438" lon="20.350632">
				<ele>602.000000</ele>
			</trkpt>
			<trkpt lat="48.942432" lon="20.350739">
				<ele>602.000000</ele>
			</trkpt>
			<trkpt lat="48.942409" lon="20.350821">
				<ele>602.000000</ele>
			</trkpt>
			<trkpt lat="48.942344" lon="20.350865">
				<ele>602.000000</ele>
			</trkpt>
			<trkpt lat="48.942285" lon="20.350901">
				<ele>602.000000</ele>
			</trkpt>
			<trkpt lat="48.942273" lon="20.350938">
				<ele>603.000000</ele>
			</trkpt>
			<trkpt lat="48.942297" lon="20.351054">
				<ele>603.000000</ele>
			</trkpt>
			<trkpt lat="48.942226" lon="20.351144">
				<ele>603.000000</ele>
			</trkpt>
			<trkpt lat="48.942167" lon="20.351270">
				<ele>603.000000</ele>
			</trkpt>
			<trkpt lat="48.942126" lon="20.351404">
				<ele>604.000000</ele>
			</trkpt>
			<trkpt lat="48.942108" lon="20.351504">
				<ele>604.000000</ele>
			</trkpt>
			<trkpt lat="48.942108" lon="20.351854">
				<ele>605.000000</ele>
			</trkpt>
			<trkpt lat="48.942078" lon="20.351980">
				<ele>605.000000</ele>
			</trkpt>
			<trkpt lat="48.942031" lon="20.352106">
				<ele>605.000000</ele>
			</trkpt>
			<trkpt lat="48.941978" lon="20.352249">
				<ele>605.000000</ele>
			</trkpt>
			<trkpt lat="48.941937" lon="20.352357">
				<ele>606.000000</ele>
			</trkpt>
			<trkpt lat="48.941890" lon="20.352429">
				<ele>606.000000</ele>
			</trkpt>
			<trkpt lat="48.941836" lon="20.352500">
				<ele>606.000000</ele>
			</trkpt>
			<trkpt lat="48.941736" lon="20.352699">
				<ele>607.000000</ele>
			</trkpt>
			<trkpt lat="48.941683" lon="20.352878">
				<ele>607.000000</ele>
			</trkpt>
			<trkpt lat="48.941630" lon="20.353012">
				<ele>607.000000</ele>
			</trkpt>
			<trkpt lat="48.941571" lon="20.353093">
				<ele>608.000000</ele>
			</trkpt>
			<trkpt lat="48.941530" lon="20.353093">
				<ele>608.000000</ele>
			</trkpt>
			<trkpt lat="48.941406" lon="20.353085">
				<ele>608.000000</ele>
			</trkpt>
			<trkpt lat="48.941264" lon="20.353129">
				<ele>608.000000</ele>
			</trkpt>
			<trkpt lat="48.941129" lon="20.353255">
				<ele>609.000000</ele>
			</trkpt>
			<trkpt lat="48.941028" lon="20.353336">
				<ele>609.000000</ele>
			</trkpt>
			<trkpt lat="48.940893" lon="20.353354">
				<ele>610.000000</ele>
			</trkpt>
			<trkpt lat="48.940822" lon="20.353362">
				<ele>610.000000</ele>
			</trkpt>
			<trkpt lat="48.940763" lon="20.353354">
				<ele>610.000000</ele>
			</trkpt>
			<trkpt lat="48.940733" lon="20.353318">
				<ele>610.000000</ele>
			</trkpt>
			<trkpt lat="48.940716" lon="20.353246">
				<ele>610.000000</ele>
			</trkpt>
			<trkpt lat="48.940674" lon="20.353211">
				<ele>610.000000</ele>
			</trkpt>
			<trkpt lat="48.940621" lon="20.353201">
				<ele>610.000000</ele>
			</trkpt>
			<trkpt lat="48.940562" lon="20.353192">
				<ele>610.000000</ele>
			</trkpt>
			<trkpt lat="48.940503" lon="20.353228">
				<ele>610.000000</ele>
			</trkpt>
			<trkpt lat="48.940432" lon="20.353301">
				<ele>610.000000</ele>
			</trkpt>
			<trkpt lat="48.940349" lon="20.353362">
				<ele>610.000000</ele>
			</trkpt>
			<trkpt lat="48.940267" lon="20.353444">
				<ele>610.000000</ele>
			</trkpt>
			<trkpt lat="48.940214" lon="20.353507">
				<ele>610.000000</ele>
			</trkpt>
			<trkpt lat="48.940096" lon="20.353605">
				<ele>611.000000</ele>
			</trkpt>
			<trkpt lat="48.940031" lon="20.353659">
				<ele>611.000000</ele>
			</trkpt>
			<trkpt lat="48.939983" lon="20.353794">
				<ele>611.000000</ele>
			</trkpt>
			<trkpt lat="48.939972" lon="20.353920">
				<ele>611.000000</ele>
			</trkpt>
			<trkpt lat="48.939978" lon="20.354010">
				<ele>611.000000</ele>
			</trkpt>
			<trkpt lat="48.940007" lon="20.354073">
				<ele>612.000000</ele>
			</trkpt>
			<trkpt lat="48.940019" lon="20.354154">
				<ele>612.000000</ele>
			</trkpt>
			<trkpt lat="48.940001" lon="20.354234">
				<ele>612.000000</ele>
			</trkpt>
			<trkpt lat="48.939972" lon="20.354280">
				<ele>612.000000</ele>
			</trkpt>
			<trkpt lat="48.939901" lon="20.354370">
				<ele>612.000000</ele>
			</trkpt>
			<trkpt lat="48.939806" lon="20.354423">
				<ele>613.000000</ele>
			</trkpt>
			<trkpt lat="48.939724" lon="20.354467">
				<ele>613.000000</ele>
			</trkpt>
			<trkpt lat="48.939647" lon="20.354531">
				<ele>613.000000</ele>
			</trkpt>
			<trkpt lat="48.939553" lon="20.354584">
				<ele>613.000000</ele>
			</trkpt>
			<trkpt lat="48.939452" lon="20.354611">
				<ele>614.000000</ele>
			</trkpt>
			<trkpt lat="48.939358" lon="20.354647">
				<ele>614.000000</ele>
			</trkpt>
			<trkpt lat="48.939270" lon="20.354639">
				<ele>614.000000</ele>
			</trkpt>
			<trkpt lat="48.939228" lon="20.354666">
				<ele>614.000000</ele>
			</trkpt>
			<trkpt lat="48.939169" lon="20.354773">
				<ele>615.000000</ele>
			</trkpt>
			<trkpt lat="48.939134" lon="20.354827">
				<ele>615.000000</ele>
			</trkpt>
			<trkpt lat="48.939087" lon="20.354881">
				<ele>615.000000</ele>
			</trkpt>
			<trkpt lat="48.939040" lon="20.354917">
				<ele>615.000000</ele>
			</trkpt>
			<trkpt lat="48.938975" lon="20.355025">
				<ele>615.000000</ele>
			</trkpt>
			<trkpt lat="48.938927" lon="20.355213">
				<ele>616.000000</ele>
			</trkpt>
			<trkpt lat="48.938880" lon="20.355393">
				<ele>616.000000</ele>
			</trkpt>
			<trkpt lat="48.938892" lon="20.355483">
				<ele>616.000000</ele>
			</trkpt>
			<trkpt lat="48.938904" lon="20.355573">
				<ele>616.000000</ele>
			</trkpt>
			<trkpt lat="48.938892" lon="20.355653">
				<ele>617.000000</ele>
			</trkpt>
			<trkpt lat="48.938857" lon="20.355743">
				<ele>617.000000</ele>
			</trkpt>
			<trkpt lat="48.938839" lon="20.355798">
				<ele>617.000000</ele>
			</trkpt>
			<trkpt lat="48.938804" lon="20.355915">
				<ele>617.000000</ele>
			</trkpt>
			<trkpt lat="48.938768" lon="20.355995">
				<ele>617.000000</ele>
			</trkpt>
			<trkpt lat="48.938715" lon="20.356058">
				<ele>617.000000</ele>
			</trkpt>
			<trkpt lat="48.938627" lon="20.356102">
				<ele>618.000000</ele>
			</trkpt>
			<trkpt lat="48.938514" lon="20.356165">
				<ele>618.000000</ele>
			</trkpt>
			<trkpt lat="48.938485" lon="20.356175">
				<ele>618.000000</ele>
			</trkpt>
			<trkpt lat="48.938455" lon="20.356184">
				<ele>618.000000</ele>
			</trkpt>
			<trkpt lat="48.938225" lon="20.356291">
				<ele>619.000000</ele>
			</trkpt>
			<trkpt lat="48.938090" lon="20.356427">
				<ele>619.000000</ele>
			</trkpt>
			<trkpt lat="48.937960" lon="20.356552">
				<ele>620.000000</ele>
			</trkpt>
			<trkpt lat="48.937812" lon="20.356615">
				<ele>620.000000</ele>
			</trkpt>
			<trkpt lat="48.937541" lon="20.356714">
				<ele>621.000000</ele>
			</trkpt>
			<trkpt lat="48.937435" lon="20.356758">
				<ele>622.000000</ele>
			</trkpt>
			<trkpt lat="48.937382" lon="20.356813">
				<ele>622.000000</ele>
			</trkpt>
			<trkpt lat="48.937363" lon="20.356848">
				<ele>622.000000</ele>
			</trkpt>
			<trkpt lat="48.937334" lon="20.356884">
				<ele>622.000000</ele>
			</trkpt>
			<trkpt lat="48.937311" lon="20.356983">
				<ele>622.000000</ele>
			</trkpt>
			<trkpt lat="48.937323" lon="20.357091">
				<ele>622.000000</ele>
			</trkpt>
			<trkpt lat="48.937346" lon="20.357199">
				<ele>623.000000</ele>
			</trkpt>
			<trkpt lat="48.937382" lon="20.357297">
				<ele>623.000000</ele>
			</trkpt>
			<trkpt lat="48.937422" lon="20.357396">
				<ele>623.000000</ele>
			</trkpt>
			<trkpt lat="48.937464" lon="20.357450">
				<ele>623.000000</ele>
			</trkpt>
			<trkpt lat="48.937476" lon="20.357531">
				<ele>623.000000</ele>
			</trkpt>
			<trkpt lat="48.937464" lon="20.357603">
				<ele>624.000000</ele>
			</trkpt>
			<trkpt lat="48.937452" lon="20.357729">
				<ele>624.000000</ele>
			</trkpt>
			<trkpt lat="48.937470" lon="20.357846">
				<ele>624.000000</ele>
			</trkpt>
			<trkpt lat="48.937481" lon="20.357945">
				<ele>624.000000</ele>
			</trkpt>
			<trkpt lat="48.937481" lon="20.358052">
				<ele>625.000000</ele>
			</trkpt>
			<trkpt lat="48.937488" lon="20.358125">
				<ele>625.000000</ele>
			</trkpt>
			<trkpt lat="48.937511" lon="20.358186">
				<ele>625.000000</ele>
			</trkpt>
			<trkpt lat="48.937541" lon="20.358232">
				<ele>625.000000</ele>
			</trkpt>
			<trkpt lat="48.937559" lon="20.358295">
				<ele>625.000000</ele>
			</trkpt>
			<trkpt lat="48.937588" lon="20.358366">
				<ele>625.000000</ele>
			</trkpt>
			<trkpt lat="48.937629" lon="20.358438">
				<ele>626.000000</ele>
			</trkpt>
			<trkpt lat="48.937677" lon="20.358502">
				<ele>626.000000</ele>
			</trkpt>
			<trkpt lat="48.937706" lon="20.358565">
				<ele>626.000000</ele>
			</trkpt>
			<trkpt lat="48.937753" lon="20.358672">
				<ele>626.000000</ele>
			</trkpt>
			<trkpt lat="48.937842" lon="20.358842">
				<ele>627.000000</ele>
			</trkpt>
			<trkpt lat="48.937883" lon="20.358968">
				<ele>627.000000</ele>
			</trkpt>
			<trkpt lat="48.937913" lon="20.359031">
				<ele>627.000000</ele>
			</trkpt>
			<trkpt lat="48.937942" lon="20.359139">
				<ele>627.000000</ele>
			</trkpt>
			<trkpt lat="48.937995" lon="20.359247">
				<ele>628.000000</ele>
			</trkpt>
			<trkpt lat="48.938031" lon="20.359291">
				<ele>628.000000</ele>
			</trkpt>
			<trkpt lat="48.938037" lon="20.359337">
				<ele>628.000000</ele>
			</trkpt>
			<trkpt lat="48.938078" lon="20.359435">
				<ele>628.000000</ele>
			</trkpt>
			<trkpt lat="48.938107" lon="20.359471">
				<ele>628.000000</ele>
			</trkpt>
			<trkpt lat="48.938160" lon="20.359534">
				<ele>629.000000</ele>
			</trkpt>
			<trkpt lat="48.938208" lon="20.359651">
				<ele>629.000000</ele>
			</trkpt>
			<trkpt lat="48.938231" lon="20.359696">
				<ele>629.000000</ele>
			</trkpt>
			<trkpt lat="48.938261" lon="20.359741">
				<ele>629.000000</ele>
			</trkpt>
			<trkpt lat="48.938284" lon="20.359876">
				<ele>629.000000</ele>
			</trkpt>
			<trkpt lat="48.938296" lon="20.359966">
				<ele>630.000000</ele>
			</trkpt>
			<trkpt lat="48.938290" lon="20.360046">
				<ele>630.000000</ele>
			</trkpt>
			<trkpt lat="48.938278" lon="20.360091">
				<ele>630.000000</ele>
			</trkpt>
			<trkpt lat="48.938231" lon="20.360199">
				<ele>630.000000</ele>
			</trkpt>
			<trkpt lat="48.938202" lon="20.360352">
				<ele>631.000000</ele>
			</trkpt>
			<trkpt lat="48.938184" lon="20.360433">
				<ele>632.000000</ele>
			</trkpt>
			<trkpt lat="48.938125" lon="20.360505">
				<ele>632.000000</ele>
			</trkpt>
			<trkpt lat="48.938078" lon="20.360595">
				<ele>633.000000</ele>
			</trkpt>
			<trkpt lat="48.938031" lon="20.360702">
				<ele>633.000000</ele>
			</trkpt>
			<trkpt lat="48.937989" lon="20.360810">
				<ele>634.000000</ele>
			</trkpt>
			<trkpt lat="48.937936" lon="20.360909">
				<ele>635.000000</ele>
			</trkpt>
			<trkpt lat="48.937877" lon="20.360962">
				<ele>635.000000</ele>
			</trkpt>
			<trkpt lat="48.937848" lon="20.360989">
				<ele>636.000000</ele>
			</trkpt>
			<trkpt lat="48.937824" lon="20.361052">
				<ele>636.000000</ele>
			</trkpt>
			<trkpt lat="48.937824" lon="20.361098">
				<ele>636.000000</ele>
			</trkpt>
			<trkpt lat="48.937818" lon="20.361215">
				<ele>637.000000</ele>
			</trkpt>
			<trkpt lat="48.937830" lon="20.361312">
				<ele>637.000000</ele>
			</trkpt>
			<trkpt lat="48.937842" lon="20.361421">
				<ele>638.000000</ele>
			</trkpt>
			<trkpt lat="48.937865" lon="20.361555">
				<ele>639.000000</ele>
			</trkpt>
			<trkpt lat="48.937877" lon="20.361645">
				<ele>639.000000</ele>
			</trkpt>
			<trkpt lat="48.937795" lon="20.361844">
				<ele>640.000000</ele>
			</trkpt>
			<trkpt lat="48.937718" lon="20.362004">
				<ele>642.000000</ele>
			</trkpt>
			<trkpt lat="48.937635" lon="20.362194">
				<ele>643.000000</ele>
			</trkpt>
			<trkpt lat="48.937553" lon="20.362283">
				<ele>644.000000</ele>
			</trkpt>
			<trkpt lat="48.937441" lon="20.362391">
				<ele>645.000000</ele>
			</trkpt>
			<trkpt lat="48.937393" lon="20.362473">
				<ele>645.000000</ele>
			</trkpt>
			<trkpt lat="48.937323" lon="20.362544">
				<ele>646.000000</ele>
			</trkpt>
			<trkpt lat="48.937264" lon="20.362561">
				<ele>646.000000</ele>
			</trkpt>
			<trkpt lat="48.937222" lon="20.362580">
				<ele>647.000000</ele>
			</trkpt>
			<trkpt lat="48.937152" lon="20.362624">
				<ele>647.000000</ele>
			</trkpt>
			<trkpt lat="48.937140" lon="20.362633">
				<ele>647.000000</ele>
			</trkpt>
			<trkpt lat="48.937098" lon="20.362714">
				<ele>648.000000</ele>
			</trkpt>
			<trkpt lat="48.937051" lon="20.362840">
				<ele>649.000000</ele>
			</trkpt>
			<trkpt lat="48.937021" lon="20.362957">
				<ele>649.000000</ele>
			</trkpt>
			<trkpt lat="48.937009" lon="20.362993">
				<ele>650.000000</ele>
			</trkpt>
			<trkpt lat="48.937004" lon="20.363010">
				<ele>650.000000</ele>
			</trkpt>
			<trkpt lat="48.936986" lon="20.363073">
				<ele>650.000000</ele>
			</trkpt>
			<trkpt lat="48.936980" lon="20.363136">
				<ele>651.000000</ele>
			</trkpt>
			<trkpt lat="48.936975" lon="20.363182">
				<ele>652.000000</ele>
			</trkpt>
			<trkpt lat="48.936980" lon="20.363226">
				<ele>653.000000</ele>
			</trkpt>
			<trkpt lat="48.936980" lon="20.363253">
				<ele>653.000000</ele>
			</trkpt>
			<trkpt lat="48.936980" lon="20.363478">
				<ele>657.000000</ele>
			</trkpt>
			<trkpt lat="48.936975" lon="20.363595">
				<ele>659.000000</ele>
			</trkpt>
			<trkpt lat="48.936992" lon="20.363693">
				<ele>661.000000</ele>
			</trkpt>
			<trkpt lat="48.937057" lon="20.363783">
				<ele>663.000000</ele>
			</trkpt>
			<trkpt lat="48.937110" lon="20.363882">
				<ele>665.000000</ele>
			</trkpt>
			<trkpt lat="48.937127" lon="20.363945">
				<ele>666.000000</ele>
			</trkpt>
			<trkpt lat="48.937116" lon="20.364026">
				<ele>668.000000</ele>
			</trkpt>
			<trkpt lat="48.937098" lon="20.364071">
				<ele>669.000000</ele>
			</trkpt>
			<trkpt lat="48.937093" lon="20.364178">
				<ele>671.000000</ele>
			</trkpt>
			<trkpt lat="48.937146" lon="20.364205">
				<ele>672.000000</ele>
			</trkpt>
			<trkpt lat="48.937152" lon="20.364287">
				<ele>673.000000</ele>
			</trkpt>
			<trkpt lat="48.937169" lon="20.364349">
				<ele>675.000000</ele>
			</trkpt>
			<trkpt lat="48.937222" lon="20.364448">
				<ele>677.000000</ele>
			</trkpt>
			<trkpt lat="48.937264" lon="20.364502">
				<ele>678.000000</ele>
			</trkpt>
			<trkpt lat="48.937317" lon="20.364538">
				<ele>680.000000</ele>
			</trkpt>
			<trkpt lat="48.937370" lon="20.364591">
				<ele>681.000000</ele>
			</trkpt>
			<trkpt lat="48.937405" lon="20.364637">
				<ele>682.000000</ele>
			</trkpt>
			<trkpt lat="48.937417" lon="20.364664">
				<ele>683.000000</ele>
			</trkpt>
			<trkpt lat="48.937411" lon="20.364700">
				<ele>684.000000</ele>
			</trkpt>
			<trkpt lat="48.937393" lon="20.364735">
				<ele>684.000000</ele>
			</trkpt>
			<trkpt lat="48.937376" lon="20.364790">
				<ele>685.000000</ele>
			</trkpt>
			<trkpt lat="48.937370" lon="20.364834">
				<ele>686.000000</ele>
			</trkpt>
			<trkpt lat="48.937363" lon="20.364907">
				<ele>687.000000</ele>
			</trkpt>
			<trkpt lat="48.937363" lon="20.364951">
				<ele>688.000000</ele>
			</trkpt>
			<trkpt lat="48.937376" lon="20.364996">
				<ele>689.000000</ele>
			</trkpt>
			<trkpt lat="48.937417" lon="20.365050">
				<ele>690.000000</ele>
			</trkpt>
			<trkpt lat="48.937393" lon="20.365060">
				<ele>690.000000</ele>
			</trkpt>
			<trkpt lat="48.937340" lon="20.365068">
				<ele>691.000000</ele>
			</trkpt>
			<trkpt lat="48.937287" lon="20.365077">
				<ele>691.000000</ele>
			</trkpt>
			<trkpt lat="48.937228" lon="20.365086">
				<ele>692.000000</ele>
			</trkpt>
			<trkpt lat="48.937205" lon="20.365104">
				<ele>692.000000</ele>
			</trkpt>
			<trkpt lat="48.937163" lon="20.365149">
				<ele>692.000000</ele>
			</trkpt>
			<trkpt lat="48.937127" lon="20.365176">
				<ele>692.000000</ele>
			</trkpt>
			<trkpt lat="48.937087" lon="20.365176">
				<ele>693.000000</ele>
			</trkpt>
			<trkpt lat="48.937051" lon="20.365184">
				<ele>693.000000</ele>
			</trkpt>
			<trkpt lat="48.937009" lon="20.365211">
				<ele>693.000000</ele>
			</trkpt>
			<trkpt lat="48.936980" lon="20.365257">
				<ele>694.000000</ele>
			</trkpt>
			<trkpt lat="48.936916" lon="20.365347">
				<ele>694.000000</ele>
			</trkpt>
			<trkpt lat="48.936886" lon="20.365427">
				<ele>695.000000</ele>
			</trkpt>
			<trkpt lat="48.936844" lon="20.365481">
				<ele>695.000000</ele>
			</trkpt>
			<trkpt lat="48.936815" lon="20.365544">
				<ele>696.000000</ele>
			</trkpt>
			<trkpt lat="48.936779" lon="20.365570">
				<ele>696.000000</ele>
			</trkpt>
			<trkpt lat="48.936732" lon="20.365589">
				<ele>696.000000</ele>
			</trkpt>
			<trkpt lat="48.936680" lon="20.365599">
				<ele>697.000000</ele>
			</trkpt>
			<trkpt lat="48.936626" lon="20.365634">
				<ele>697.000000</ele>
			</trkpt>
			<trkpt lat="48.936561" lon="20.365625">
				<ele>698.000000</ele>
			</trkpt>
			<trkpt lat="48.936490" lon="20.365660">
				<ele>698.000000</ele>
			</trkpt>
			<trkpt lat="48.936431" lon="20.365697">
				<ele>699.000000</ele>
			</trkpt>
			<trkpt lat="48.936384" lon="20.365715">
				<ele>699.000000</ele>
			</trkpt>
			<trkpt lat="48.936366" lon="20.365733">
				<ele>699.000000</ele>
			</trkpt>
			<trkpt lat="48.936349" lon="20.365769">
				<ele>700.000000</ele>
			</trkpt>
			<trkpt lat="48.936331" lon="20.365823">
				<ele>700.000000</ele>
			</trkpt>
			<trkpt lat="48.936313" lon="20.365849">
				<ele>700.000000</ele>
			</trkpt>
			<trkpt lat="48.936254" lon="20.365859">
				<ele>701.000000</ele>
			</trkpt>
			<trkpt lat="48.936242" lon="20.365840">
				<ele>701.000000</ele>
			</trkpt>
			<trkpt lat="48.936231" lon="20.365832">
				<ele>701.000000</ele>
			</trkpt>
			<trkpt lat="48.936195" lon="20.365832">
				<ele>701.000000</ele>
			</trkpt>
			<trkpt lat="48.936166" lon="20.365813">
				<ele>701.000000</ele>
			</trkpt>
			<trkpt lat="48.936136" lon="20.365786">
				<ele>702.000000</ele>
			</trkpt>
			<trkpt lat="48.936119" lon="20.365786">
				<ele>702.000000</ele>
			</trkpt>
			<trkpt lat="48.936095" lon="20.365805">
				<ele>702.000000</ele>
			</trkpt>
			<trkpt lat="48.936083" lon="20.365832">
				<ele>702.000000</ele>
			</trkpt>
			<trkpt lat="48.936065" lon="20.365840">
				<ele>702.000000</ele>
			</trkpt>
			<trkpt lat="48.936042" lon="20.365840">
				<ele>703.000000</ele>
			</trkpt>
			<trkpt lat="48.935989" lon="20.365922">
				<ele>703.000000</ele>
			</trkpt>
			<trkpt lat="48.935965" lon="20.366012">
				<ele>704.000000</ele>
			</trkpt>
			<trkpt lat="48.935947" lon="20.366092">
				<ele>704.000000</ele>
			</trkpt>
			<trkpt lat="48.935918" lon="20.366165">
				<ele>705.000000</ele>
			</trkpt>
			<trkpt lat="48.935888" lon="20.366209">
				<ele>705.000000</ele>
			</trkpt>
			<trkpt lat="48.935853" lon="20.366254">
				<ele>705.000000</ele>
			</trkpt>
			<trkpt lat="48.935829" lon="20.366326">
				<ele>706.000000</ele>
			</trkpt>
			<trkpt lat="48.935800" lon="20.366371">
				<ele>706.000000</ele>
			</trkpt>
			<trkpt lat="48.935711" lon="20.366532">
				<ele>707.000000</ele>
			</trkpt>
			<trkpt lat="48.935688" lon="20.366622">
				<ele>708.000000</ele>
			</trkpt>
			<trkpt lat="48.935605" lon="20.366847">
				<ele>709.000000</ele>
			</trkpt>
			<trkpt lat="48.935570" lon="20.367035">
				<ele>710.000000</ele>
			</trkpt>
			<trkpt lat="48.935552" lon="20.367125">
				<ele>711.000000</ele>
			</trkpt>
			<trkpt lat="48.935523" lon="20.367197">
				<ele>711.000000</ele>
			</trkpt>
			<trkpt lat="48.935517" lon="20.367323">
				<ele>712.000000</ele>
			</trkpt>
			<trkpt lat="48.935505" lon="20.367404">
				<ele>713.000000</ele>
			</trkpt>
			<trkpt lat="48.935523" lon="20.367503">
				<ele>713.000000</ele>
			</trkpt>
			<trkpt lat="48.935517" lon="20.367565">
				<ele>714.000000</ele>
			</trkpt>
			<trkpt lat="48.935493" lon="20.367664">
				<ele>714.000000</ele>
			</trkpt>
			<trkpt lat="48.935469" lon="20.367744">
				<ele>715.000000</ele>
			</trkpt>
			<trkpt lat="48.935446" lon="20.367817">
				<ele>716.000000</ele>
			</trkpt>
			<trkpt lat="48.935440" lon="20.367870">
				<ele>716.000000</ele>
			</trkpt>
			<trkpt lat="48.935422" lon="20.367951">
				<ele>717.000000</ele>
			</trkpt>
			<trkpt lat="48.935416" lon="20.368023">
				<ele>717.000000</ele>
			</trkpt>
			<trkpt lat="48.935375" lon="20.368104">
				<ele>718.000000</ele>
			</trkpt>
			<trkpt lat="48.935346" lon="20.368149">
				<ele>718.000000</ele>
			</trkpt>
			<trkpt lat="48.935310" lon="20.368176">
				<ele>719.000000</ele>
			</trkpt>
			<trkpt lat="48.935257" lon="20.368230">
				<ele>719.000000</ele>
			</trkpt>
			<trkpt lat="48.935228" lon="20.368275">
				<ele>720.000000</ele>
			</trkpt>
			<trkpt lat="48.935186" lon="20.368383">
				<ele>721.000000</ele>
			</trkpt>
			<trkpt lat="48.935151" lon="20.368436">
				<ele>721.000000</ele>
			</trkpt>
			<trkpt lat="48.935115" lon="20.368499">
				<ele>722.000000</ele>
			</trkpt>
			<trkpt lat="48.935098" lon="20.368553">
				<ele>722.000000</ele>
			</trkpt>
			<trkpt lat="48.935074" lon="20.368679">
				<ele>723.000000</ele>
			</trkpt>
			<trkpt lat="48.935062" lon="20.368805">
				<ele>724.000000</ele>
			</trkpt>
			<trkpt lat="48.935051" lon="20.368895">
				<ele>725.000000</ele>
			</trkpt>
			<trkpt lat="48.935039" lon="20.368958">
				<ele>725.000000</ele>
			</trkpt>
			<trkpt lat="48.934986" lon="20.369083">
				<ele>726.000000</ele>
			</trkpt>
			<trkpt lat="48.934944" lon="20.369146">
				<ele>727.000000</ele>
			</trkpt>
			<trkpt lat="48.934891" lon="20.369272">
				<ele>728.000000</ele>
			</trkpt>
			<trkpt lat="48.934879" lon="20.369299">
				<ele>728.000000</ele>
			</trkpt>
			<trkpt lat="48.934862" lon="20.369318">
				<ele>728.000000</ele>
			</trkpt>
			<trkpt lat="48.934832" lon="20.369407">
				<ele>729.000000</ele>
			</trkpt>
			<trkpt lat="48.934815" lon="20.369470">
				<ele>730.000000</ele>
			</trkpt>
			<trkpt lat="48.934779" lon="20.369532">
				<ele>730.000000</ele>
			</trkpt>
			<trkpt lat="48.934756" lon="20.369622">
				<ele>732.000000</ele>
			</trkpt>
			<trkpt lat="48.934738" lon="20.369631">
				<ele>732.000000</ele>
			</trkpt>
			<trkpt lat="48.934714" lon="20.369631">
				<ele>733.000000</ele>
			</trkpt>
			<trkpt lat="48.934697" lon="20.369605">
				<ele>733.000000</ele>
			</trkpt>
			<trkpt lat="48.934673" lon="20.369578">
				<ele>734.000000</ele>
			</trkpt>
			<trkpt lat="48.934638" lon="20.369578">
				<ele>735.000000</ele>
			</trkpt>
			<trkpt lat="48.934620" lon="20.369578">
				<ele>735.000000</ele>
			</trkpt>
			<trkpt lat="48.934579" lon="20.369595">
				<ele>736.000000</ele>
			</trkpt>
			<trkpt lat="48.934555" lon="20.369614">
				<ele>737.000000</ele>
			</trkpt>
			<trkpt lat="48.934531" lon="20.369622">
				<ele>737.000000</ele>
			</trkpt>
			<trkpt lat="48.934520" lon="20.369622">
				<ele>738.000000</ele>
			</trkpt>
			<trkpt lat="48.934472" lon="20.369622">
				<ele>739.000000</ele>
			</trkpt>
			<trkpt lat="48.934466" lon="20.369631">
				<ele>739.000000</ele>
			</trkpt>
			<trkpt lat="48.934449" lon="20.369649">
				<ele>739.000000</ele>
			</trkpt>
			<trkpt lat="48.934437" lon="20.369658">
				<ele>740.000000</ele>
			</trkpt>
			<trkpt lat="48.934419" lon="20.369658">
				<ele>740.000000</ele>
			</trkpt>
			<trkpt lat="48.934402" lon="20.369649">
				<ele>740.000000</ele>
			</trkpt>
			<trkpt lat="48.934384" lon="20.369658">
				<ele>741.000000</ele>
			</trkpt>
			<trkpt lat="48.934372" lon="20.369668">
				<ele>741.000000</ele>
			</trkpt>
			<trkpt lat="48.934360" lon="20.369668">
				<ele>741.000000</ele>
			</trkpt>
			<trkpt lat="48.934331" lon="20.369668">
				<ele>742.000000</ele>
			</trkpt>
			<trkpt lat="48.934307" lon="20.369685">
				<ele>743.000000</ele>
			</trkpt>
			<trkpt lat="48.934301" lon="20.369694">
				<ele>743.000000</ele>
			</trkpt>
			<trkpt lat="48.934272" lon="20.369712">
				<ele>744.000000</ele>
			</trkpt>
			<trkpt lat="48.934254" lon="20.369731">
				<ele>744.000000</ele>
			</trkpt>
			<trkpt lat="48.934236" lon="20.369748">
				<ele>744.000000</ele>
			</trkpt>
			<trkpt lat="48.934219" lon="20.369784">
				<ele>745.000000</ele>
			</trkpt>
			<trkpt lat="48.934171" lon="20.369865">
				<ele>747.000000</ele>
			</trkpt>
			<trkpt lat="48.934130" lon="20.369947">
				<ele>748.000000</ele>
			</trkpt>
			<trkpt lat="48.934107" lon="20.369991">
				<ele>749.000000</ele>
			</trkpt>
			<trkpt lat="48.934095" lon="20.370054">
				<ele>750.000000</ele>
			</trkpt>
			<trkpt lat="48.934077" lon="20.370098">
				<ele>751.000000</ele>
			</trkpt>
			<trkpt lat="48.934065" lon="20.370153">
				<ele>752.000000</ele>
			</trkpt>
			<trkpt lat="48.934065" lon="20.370207">
				<ele>753.000000</ele>
			</trkpt>
			<trkpt lat="48.934059" lon="20.370243">
				<ele>753.000000</ele>
			</trkpt>
			<trkpt lat="48.934042" lon="20.370260">
				<ele>754.000000</ele>
			</trkpt>
			<trkpt lat="48.934012" lon="20.370287">
				<ele>754.000000</ele>
			</trkpt>
			<trkpt lat="48.933983" lon="20.370314">
				<ele>755.000000</ele>
			</trkpt>
			<trkpt lat="48.933941" lon="20.370350">
				<ele>756.000000</ele>
			</trkpt>
			<trkpt lat="48.933894" lon="20.370377">
				<ele>757.000000</ele>
			</trkpt>
			<trkpt lat="48.933871" lon="20.370394">
				<ele>758.000000</ele>
			</trkpt>
			<trkpt lat="48.933806" lon="20.370457">
				<ele>760.000000</ele>
			</trkpt>
			<trkpt lat="48.933734" lon="20.370521">
				<ele>761.000000</ele>
			</trkpt>
			<trkpt lat="48.933675" lon="20.370593">
				<ele>762.000000</ele>
			</trkpt>
			<trkpt lat="48.933605" lon="20.370700">
				<ele>764.000000</ele>
			</trkpt>
			<trkpt lat="48.933563" lon="20.370836">
				<ele>765.000000</ele>
			</trkpt>
			<trkpt lat="48.933528" lon="20.370934">
				<ele>766.000000</ele>
			</trkpt>
			<trkpt lat="48.933534" lon="20.371033">
				<ele>767.000000</ele>
			</trkpt>
			<trkpt lat="48.933522" lon="20.371105">
				<ele>768.000000</ele>
			</trkpt>
			<trkpt lat="48.933492" lon="20.371176">
				<ele>769.000000</ele>
			</trkpt>
			<trkpt lat="48.933486" lon="20.371276">
				<ele>770.000000</ele>
			</trkpt>
			<trkpt lat="48.933481" lon="20.371365">
				<ele>771.000000</ele>
			</trkpt>
			<trkpt lat="48.933475" lon="20.371419">
				<ele>771.000000</ele>
			</trkpt>
			<trkpt lat="48.933445" lon="20.371465">
				<ele>772.000000</ele>
			</trkpt>
			<trkpt lat="48.933416" lon="20.371518">
				<ele>773.000000</ele>
			</trkpt>
			<trkpt lat="48.933374" lon="20.371599">
				<ele>774.000000</ele>
			</trkpt>
			<trkpt lat="48.933315" lon="20.371698">
				<ele>776.000000</ele>
			</trkpt>
			<trkpt lat="48.933245" lon="20.371778">
				<ele>777.000000</ele>
			</trkpt>
			<trkpt lat="48.933197" lon="20.371841">
				<ele>778.000000</ele>
			</trkpt>
			<trkpt lat="48.933186" lon="20.371895">
				<ele>779.000000</ele>
			</trkpt>
			<trkpt lat="48.933144" lon="20.371968">
				<ele>780.000000</ele>
			</trkpt>
			<trkpt lat="48.933121" lon="20.372031">
				<ele>781.000000</ele>
			</trkpt>
			<trkpt lat="48.933085" lon="20.372092">
				<ele>782.000000</ele>
			</trkpt>
			<trkpt lat="48.933062" lon="20.372102">
				<ele>782.000000</ele>
			</trkpt>
			<trkpt lat="48.933050" lon="20.372111">
				<ele>783.000000</ele>
			</trkpt>
			<trkpt lat="48.933038" lon="20.372128">
				<ele>783.000000</ele>
			</trkpt>
			<trkpt lat="48.933032" lon="20.372165">
				<ele>783.000000</ele>
			</trkpt>
			<trkpt lat="48.933020" lon="20.372192">
				<ele>784.000000</ele>
			</trkpt>
			<trkpt lat="48.932985" lon="20.372218">
				<ele>784.000000</ele>
			</trkpt>
			<trkpt lat="48.932944" lon="20.372237">
				<ele>785.000000</ele>
			</trkpt>
			<trkpt lat="48.932902" lon="20.372237">
				<ele>786.000000</ele>
			</trkpt>
			<trkpt lat="48.932861" lon="20.372264">
				<ele>787.000000</ele>
			</trkpt>
			<trkpt lat="48.932826" lon="20.372308">
				<ele>787.000000</ele>
			</trkpt>
			<trkpt lat="48.932796" lon="20.372362">
				<ele>788.000000</ele>
			</trkpt>
			<trkpt lat="48.932767" lon="20.372434">
				<ele>789.000000</ele>
			</trkpt>
			<trkpt lat="48.932743" lon="20.372507">
				<ele>790.000000</ele>
			</trkpt>
			<trkpt lat="48.932708" lon="20.372560">
				<ele>791.000000</ele>
			</trkpt>
			<trkpt lat="48.932690" lon="20.372578">
				<ele>792.000000</ele>
			</trkpt>
			<trkpt lat="48.932643" lon="20.372650">
				<ele>793.000000</ele>
			</trkpt>
			<trkpt lat="48.932631" lon="20.372731">
				<ele>794.000000</ele>
			</trkpt>
			<trkpt lat="48.932666" lon="20.372820">
				<ele>795.000000</ele>
			</trkpt>
			<trkpt lat="48.932678" lon="20.372893">
				<ele>796.000000</ele>
			</trkpt>
			<trkpt lat="48.932690" lon="20.373010">
				<ele>797.000000</ele>
			</trkpt>
			<trkpt lat="48.932672" lon="20.373099">
				<ele>798.000000</ele>
			</trkpt>
			<trkpt lat="48.932643" lon="20.373144">
				<ele>799.000000</ele>
			</trkpt>
			<trkpt lat="48.932637" lon="20.373171">
				<ele>799.000000</ele>
			</trkpt>
			<trkpt lat="48.932625" lon="20.373224">
				<ele>800.000000</ele>
			</trkpt>
			<trkpt lat="48.932607" lon="20.373279">
				<ele>801.000000</ele>
			</trkpt>
			<trkpt lat="48.932607" lon="20.373306">
				<ele>801.000000</ele>
			</trkpt>
			<trkpt lat="48.932607" lon="20.373369">
				<ele>802.000000</ele>
			</trkpt>
			<trkpt lat="48.932619" lon="20.373467">
				<ele>803.000000</ele>
			</trkpt>
			<trkpt lat="48.932637" lon="20.373503">
				<ele>803.000000</ele>
			</trkpt>
			<trkpt lat="48.932643" lon="20.373566">
				<ele>804.000000</ele>
			</trkpt>
			<trkpt lat="48.932643" lon="20.373639">
				<ele>805.000000</ele>
			</trkpt>
			<trkpt lat="48.932625" lon="20.373728">
				<ele>806.000000</ele>
			</trkpt>
			<trkpt lat="48.932584" lon="20.373826">
				<ele>808.000000</ele>
			</trkpt>
			<trkpt lat="48.932542" lon="20.373907">
				<ele>809.000000</ele>
			</trkpt>
			<trkpt lat="48.932507" lon="20.373979">
				<ele>810.000000</ele>
			</trkpt>
			<trkpt lat="48.932501" lon="20.374033">
				<ele>810.000000</ele>
			</trkpt>
			<trkpt lat="48.932466" lon="20.374078">
				<ele>811.000000</ele>
			</trkpt>
			<trkpt lat="48.932442" lon="20.374141">
				<ele>812.000000</ele>
			</trkpt>
			<trkpt lat="48.932395" lon="20.374168">
				<ele>813.000000</ele>
			</trkpt>
			<trkpt lat="48.932371" lon="20.374231">
				<ele>814.000000</ele>
			</trkpt>
			<trkpt lat="48.932312" lon="20.374365">
				<ele>816.000000</ele>
			</trkpt>
			<trkpt lat="48.932271" lon="20.374419">
				<ele>817.000000</ele>
			</trkpt>
			<trkpt lat="48.932259" lon="20.374446">
				<ele>817.000000</ele>
			</trkpt>
			<trkpt lat="48.932242" lon="20.374455">
				<ele>818.000000</ele>
			</trkpt>
			<trkpt lat="48.932212" lon="20.374545">
				<ele>819.000000</ele>
			</trkpt>
			<trkpt lat="48.932177" lon="20.374608">
				<ele>820.000000</ele>
			</trkpt>
			<trkpt lat="48.932082" lon="20.374779">
				<ele>821.000000</ele>
			</trkpt>
			<trkpt lat="48.931923" lon="20.374977">
				<ele>823.000000</ele>
			</trkpt>
			<trkpt lat="48.931846" lon="20.375084">
				<ele>824.000000</ele>
			</trkpt>
			<trkpt lat="48.931775" lon="20.375157">
				<ele>824.000000</ele>
			</trkpt>
			<trkpt lat="48.931681" lon="20.375255">
				<ele>825.000000</ele>
			</trkpt>
			<trkpt lat="48.931592" lon="20.375336">
				<ele>826.000000</ele>
			</trkpt>
			<trkpt lat="48.931551" lon="20.375407">
				<ele>826.000000</ele>
			</trkpt>
			<trkpt lat="48.931480" lon="20.375570">
				<ele>827.000000</ele>
			</trkpt>
			<trkpt lat="48.931427" lon="20.375633">
				<ele>828.000000</ele>
			</trkpt>
			<trkpt lat="48.931421" lon="20.375694">
				<ele>828.000000</ele>
			</trkpt>
			<trkpt lat="48.931415" lon="20.375803">
				<ele>829.000000</ele>
			</trkpt>
			<trkpt lat="48.931433" lon="20.375910">
				<ele>829.000000</ele>
			</trkpt>
			<trkpt lat="48.931410" lon="20.376010">
				<ele>830.000000</ele>
			</trkpt>
			<trkpt lat="48.931404" lon="20.376073">
				<ele>831.000000</ele>
			</trkpt>
			<trkpt lat="48.931392" lon="20.376144">
				<ele>831.000000</ele>
			</trkpt>
			<trkpt lat="48.931356" lon="20.376270">
				<ele>832.000000</ele>
			</trkpt>
			<trkpt lat="48.931339" lon="20.376315">
				<ele>832.000000</ele>
			</trkpt>
			<trkpt lat="48.931333" lon="20.376423">
				<ele>833.000000</ele>
			</trkpt>
			<trkpt lat="48.931351" lon="20.376503">
				<ele>834.000000</ele>
			</trkpt>
			<trkpt lat="48.931351" lon="20.376629">
				<ele>835.000000</ele>
			</trkpt>
			<trkpt lat="48.931326" lon="20.376782">
				<ele>836.000000</ele>
			</trkpt>
			<trkpt lat="48.931315" lon="20.376979">
				<ele>837.000000</ele>
			</trkpt>
			<trkpt lat="48.931309" lon="20.377052">
				<ele>838.000000</ele>
			</trkpt>
			<trkpt lat="48.931292" lon="20.377231">
				<ele>839.000000</ele>
			</trkpt>
			<trkpt lat="48.931250" lon="20.377384">
				<ele>841.000000</ele>
			</trkpt>
			<trkpt lat="48.931162" lon="20.377635">
				<ele>843.000000</ele>
			</trkpt>
			<trkpt lat="48.931138" lon="20.377788">
				<ele>844.000000</ele>
			</trkpt>
			<trkpt lat="48.931132" lon="20.377994">
				<ele>845.000000</ele>
			</trkpt>
			<trkpt lat="48.931156" lon="20.378138">
				<ele>846.000000</ele>
			</trkpt>
			<trkpt lat="48.931162" lon="20.378228">
				<ele>847.000000</ele>
			</trkpt>
			<trkpt lat="48.931156" lon="20.378327">
				<ele>848.000000</ele>
			</trkpt>
			<trkpt lat="48.931103" lon="20.378507">
				<ele>849.000000</ele>
			</trkpt>
			<trkpt lat="48.931044" lon="20.378650">
				<ele>851.000000</ele>
			</trkpt>
			<trkpt lat="48.930996" lon="20.378767">
				<ele>852.000000</ele>
			</trkpt>
			<trkpt lat="48.930937" lon="20.378902">
				<ele>854.000000</ele>
			</trkpt>
			<trkpt lat="48.930913" lon="20.379010">
				<ele>855.000000</ele>
			</trkpt>
			<trkpt lat="48.930896" lon="20.379279">
				<ele>858.000000</ele>
			</trkpt>
			<trkpt lat="48.930860" lon="20.379423">
				<ele>859.000000</ele>
			</trkpt>
			<trkpt lat="48.930814" lon="20.379639">
				<ele>862.000000</ele>
			</trkpt>
			<trkpt lat="48.930801" lon="20.379863">
				<ele>864.000000</ele>
			</trkpt>
			<trkpt lat="48.930778" lon="20.380042">
				<ele>867.000000</ele>
			</trkpt>
			<trkpt lat="48.930748" lon="20.380205">
				<ele>869.000000</ele>
			</trkpt>
			<trkpt lat="48.930666" lon="20.380358">
				<ele>871.000000</ele>
			</trkpt>
			<trkpt lat="48.930607" lon="20.380465">
				<ele>873.000000</ele>
			</trkpt>
			<trkpt lat="48.930553" lon="20.380573">
				<ele>875.000000</ele>
			</trkpt>
			<trkpt lat="48.930483" lon="20.380671">
				<ele>878.000000</ele>
			</trkpt>
			<trkpt lat="48.930365" lon="20.380843">
				<ele>881.000000</ele>
			</trkpt>
			<trkpt lat="48.930317" lon="20.380950">
				<ele>883.000000</ele>
			</trkpt>
			<trkpt lat="48.930276" lon="20.381121">
				<ele>886.000000</ele>
			</trkpt>
			<trkpt lat="48.930264" lon="20.381237">
				<ele>888.000000</ele>
			</trkpt>
			<trkpt lat="48.930258" lon="20.381373">
				<ele>890.000000</ele>
			</trkpt>
			<trkpt lat="48.930241" lon="20.381463">
				<ele>891.000000</ele>
			</trkpt>
			<trkpt lat="48.930217" lon="20.381507">
				<ele>893.000000</ele>
			</trkpt>
			<trkpt lat="48.930176" lon="20.381543">
				<ele>894.000000</ele>
			</trkpt>
			<trkpt lat="48.930123" lon="20.381560">
				<ele>896.000000</ele>
			</trkpt>
			<trkpt lat="48.930075" lon="20.381624">
				<ele>898.000000</ele>
			</trkpt>
			<trkpt lat="48.930040" lon="20.381696">
				<ele>899.000000</ele>
			</trkpt>
			<trkpt lat="48.929999" lon="20.381740">
				<ele>901.000000</ele>
			</trkpt>
			<trkpt lat="48.929940" lon="20.381813">
				<ele>903.000000</ele>
			</trkpt>
			<trkpt lat="48.929922" lon="20.381885">
				<ele>904.000000</ele>
			</trkpt>
			<trkpt lat="48.929916" lon="20.381965">
				<ele>906.000000</ele>
			</trkpt>
			<trkpt lat="48.929940" lon="20.382055">
				<ele>908.000000</ele>
			</trkpt>
			<trkpt lat="48.930011" lon="20.382244">
				<ele>912.000000</ele>
			</trkpt>
			<trkpt lat="48.930075" lon="20.382316">
				<ele>915.000000</ele>
			</trkpt>
			<trkpt lat="48.930064" lon="20.382451">
				<ele>917.000000</ele>
			</trkpt>
			<trkpt lat="48.930064" lon="20.382513">
				<ele>919.000000</ele>
			</trkpt>
			<trkpt lat="48.930028" lon="20.382549">
				<ele>920.000000</ele>
			</trkpt>
			<trkpt lat="48.929999" lon="20.382558">
				<ele>920.000000</ele>
			</trkpt>
			<trkpt lat="48.929969" lon="20.382576">
				<ele>920.000000</ele>
			</trkpt>
			<trkpt lat="48.929952" lon="20.382621">
				<ele>920.000000</ele>
			</trkpt>
			<trkpt lat="48.929969" lon="20.382648">
				<ele>920.000000</ele>
			</trkpt>
			<trkpt lat="48.929993" lon="20.382675">
				<ele>921.000000</ele>
			</trkpt>
			<trkpt lat="48.930016" lon="20.382684">
				<ele>921.000000</ele>
			</trkpt>
			<trkpt lat="48.930040" lon="20.382692">
				<ele>921.000000</ele>
			</trkpt>
			<trkpt lat="48.930064" lon="20.382692">
				<ele>921.000000</ele>
			</trkpt>
			<trkpt lat="48.930058" lon="20.382747">
				<ele>923.000000</ele>
			</trkpt>
			<trkpt lat="48.930058" lon="20.382747">
				<ele>923.000000</ele>
			</trkpt>
			<trkpt lat="48.930064" lon="20.382692">
				<ele>921.000000</ele>
			</trkpt>
			<trkpt lat="48.930105" lon="20.382675">
				<ele>921.000000</ele>
			</trkpt>
			<trkpt lat="48.930129" lon="20.382657">
				<ele>921.000000</ele>
			</trkpt>
			<trkpt lat="48.930152" lon="20.382621">
				<ele>921.000000</ele>
			</trkpt>
			<trkpt lat="48.930294" lon="20.382432">
				<ele>922.000000</ele>
			</trkpt>
			<trkpt lat="48.930435" lon="20.382226">
				<ele>923.000000</ele>
			</trkpt>
			<trkpt lat="48.930624" lon="20.381992">
				<ele>924.000000</ele>
			</trkpt>
			<trkpt lat="48.930784" lon="20.381803">
				<ele>924.000000</ele>
			</trkpt>
			<trkpt lat="48.930884" lon="20.381696">
				<ele>925.000000</ele>
			</trkpt>
			<trkpt lat="48.930985" lon="20.381597">
				<ele>925.000000</ele>
			</trkpt>
			<trkpt lat="48.931044" lon="20.381543">
				<ele>925.000000</ele>
			</trkpt>
			<trkpt lat="48.931079" lon="20.381489">
				<ele>926.000000</ele>
			</trkpt>
			<trkpt lat="48.931120" lon="20.381381">
				<ele>926.000000</ele>
			</trkpt>
			<trkpt lat="48.931144" lon="20.381300">
				<ele>926.000000</ele>
			</trkpt>
			<trkpt lat="48.931185" lon="20.381220">
				<ele>926.000000</ele>
			</trkpt>
			<trkpt lat="48.931238" lon="20.381139">
				<ele>927.000000</ele>
			</trkpt>
			<trkpt lat="48.931303" lon="20.381031">
				<ele>927.000000</ele>
			</trkpt>
			<trkpt lat="48.931404" lon="20.380914">
				<ele>927.000000</ele>
			</trkpt>
			<trkpt lat="48.931522" lon="20.380807">
				<ele>928.000000</ele>
			</trkpt>
			<trkpt lat="48.931581" lon="20.380734">
				<ele>928.000000</ele>
			</trkpt>
			<trkpt lat="48.931622" lon="20.380663">
				<ele>928.000000</ele>
			</trkpt>
			<trkpt lat="48.931657" lon="20.380581">
				<ele>929.000000</ele>
			</trkpt>
			<trkpt lat="48.931710" lon="20.380384">
				<ele>929.000000</ele>
			</trkpt>
			<trkpt lat="48.931823" lon="20.379935">
				<ele>930.000000</ele>
			</trkpt>
			<trkpt lat="48.931864" lon="20.379801">
				<ele>930.000000</ele>
			</trkpt>
			<trkpt lat="48.931917" lon="20.379665">
				<ele>930.000000</ele>
			</trkpt>
			<trkpt lat="48.931970" lon="20.379558">
				<ele>931.000000</ele>
			</trkpt>
			<trkpt lat="48.932194" lon="20.379090">
				<ele>931.000000</ele>
			</trkpt>
			<trkpt lat="48.932253" lon="20.378956">
				<ele>931.000000</ele>
			</trkpt>
			<trkpt lat="48.932377" lon="20.378633">
				<ele>932.000000</ele>
			</trkpt>
			<trkpt lat="48.932460" lon="20.378417">
				<ele>932.000000</ele>
			</trkpt>
			<trkpt lat="48.932531" lon="20.378184">
				<ele>932.000000</ele>
			</trkpt>
			<trkpt lat="48.932625" lon="20.377914">
				<ele>933.000000</ele>
			</trkpt>
			<trkpt lat="48.932731" lon="20.377635">
				<ele>933.000000</ele>
			</trkpt>
			<trkpt lat="48.932778" lon="20.377537">
				<ele>933.000000</ele>
			</trkpt>
			<trkpt lat="48.932832" lon="20.377465">
				<ele>933.000000</ele>
			</trkpt>
			<trkpt lat="48.932891" lon="20.377392">
				<ele>933.000000</ele>
			</trkpt>
			<trkpt lat="48.932955" lon="20.377339">
				<ele>933.000000</ele>
			</trkpt>
			<trkpt lat="48.933032" lon="20.377302">
				<ele>934.000000</ele>
			</trkpt>
			<trkpt lat="48.933103" lon="20.377276">
				<ele>934.000000</ele>
			</trkpt>
			<trkpt lat="48.933180" lon="20.377268">
				<ele>934.000000</ele>
			</trkpt>
			<trkpt lat="48.933268" lon="20.377285">
				<ele>934.000000</ele>
			</trkpt>
			<trkpt lat="48.933333" lon="20.377302">
				<ele>934.000000</ele>
			</trkpt>
			<trkpt lat="48.933392" lon="20.377357">
				<ele>934.000000</ele>
			</trkpt>
			<trkpt lat="48.933427" lon="20.377411">
				<ele>934.000000</ele>
			</trkpt>
			<trkpt lat="48.933457" lon="20.377474">
				<ele>934.000000</ele>
			</trkpt>
			<trkpt lat="48.933481" lon="20.377564">
				<ele>934.000000</ele>
			</trkpt>
			<trkpt lat="48.933486" lon="20.377644">
				<ele>935.000000</ele>
			</trkpt>
			<trkpt lat="48.933481" lon="20.377734">
				<ele>935.000000</ele>
			</trkpt>
			<trkpt lat="48.933451" lon="20.377824">
				<ele>935.000000</ele>
			</trkpt>
			<trkpt lat="48.933410" lon="20.377923">
				<ele>935.000000</ele>
			</trkpt>
			<trkpt lat="48.933357" lon="20.378040">
				<ele>935.000000</ele>
			</trkpt>
			<trkpt lat="48.933321" lon="20.378165">
				<ele>935.000000</ele>
			</trkpt>
			<trkpt lat="48.933298" lon="20.378273">
				<ele>935.000000</ele>
			</trkpt>
			<trkpt lat="48.933286" lon="20.378417">
				<ele>935.000000</ele>
			</trkpt>
			<trkpt lat="48.933292" lon="20.378560">
				<ele>936.000000</ele>
			</trkpt>
			<trkpt lat="48.933309" lon="20.378704">
				<ele>936.000000</ele>
			</trkpt>
			<trkpt lat="48.933339" lon="20.378893">
				<ele>936.000000</ele>
			</trkpt>
			<trkpt lat="48.933374" lon="20.379037">
				<ele>936.000000</ele>
			</trkpt>
			<trkpt lat="48.933457" lon="20.379243">
				<ele>936.000000</ele>
			</trkpt>
			<trkpt lat="48.933569" lon="20.379468">
				<ele>937.000000</ele>
			</trkpt>
			<trkpt lat="48.933675" lon="20.379665">
				<ele>937.000000</ele>
			</trkpt>
			<trkpt lat="48.933705" lon="20.379702">
				<ele>937.000000</ele>
			</trkpt>
			<trkpt lat="48.933835" lon="20.379881">
				<ele>937.000000</ele>
			</trkpt>
			<trkpt lat="48.933941" lon="20.380016">
				<ele>938.000000</ele>
			</trkpt>
			<trkpt lat="48.934118" lon="20.380205">
				<ele>938.000000</ele>
			</trkpt>
			<trkpt lat="48.934242" lon="20.380331">
				<ele>938.000000</ele>
			</trkpt>
			<trkpt lat="48.934360" lon="20.380429">
				<ele>938.000000</ele>
			</trkpt>
			<trkpt lat="48.934443" lon="20.380528">
				<ele>938.000000</ele>
			</trkpt>
			<trkpt lat="48.934531" lon="20.380627">
				<ele>939.000000</ele>
			</trkpt>
			<trkpt lat="48.934614" lon="20.380726">
				<ele>939.000000</ele>
			</trkpt>
			<trkpt lat="48.934643" lon="20.380851">
				<ele>939.000000</ele>
			</trkpt>
			<trkpt lat="48.934679" lon="20.380968">
				<ele>939.000000</ele>
			</trkpt>
			<trkpt lat="48.934732" lon="20.381067">
				<ele>939.000000</ele>
			</trkpt>
			<trkpt lat="48.934490" lon="20.381264">
				<ele>940.000000</ele>
			</trkpt>
			<trkpt lat="48.934378" lon="20.381390">
				<ele>940.000000</ele>
			</trkpt>
			<trkpt lat="48.934318" lon="20.381507">
				<ele>940.000000</ele>
			</trkpt>
			<trkpt lat="48.934259" lon="20.381696">
				<ele>941.000000</ele>
			</trkpt>
			<trkpt lat="48.934195" lon="20.382163">
				<ele>944.000000</ele>
			</trkpt>
			<trkpt lat="48.934130" lon="20.382631">
				<ele>947.000000</ele>
			</trkpt>
			<trkpt lat="48.934071" lon="20.382954">
				<ele>949.000000</ele>
			</trkpt>
			<trkpt lat="48.934012" lon="20.383250">
				<ele>954.000000</ele>
			</trkpt>
			<trkpt lat="48.934307" lon="20.383457">
				<ele>953.000000</ele>
			</trkpt>
			<trkpt lat="48.934455" lon="20.383547">
				<ele>953.000000</ele>
			</trkpt>
			<trkpt lat="48.934549" lon="20.383637">
				<ele>952.000000</ele>
			</trkpt>
			<trkpt lat="48.934608" lon="20.383726">
				<ele>952.000000</ele>
			</trkpt>
			<trkpt lat="48.934679" lon="20.383897">
				<ele>951.000000</ele>
			</trkpt>
			<trkpt lat="48.934732" lon="20.384059">
				<ele>951.000000</ele>
			</trkpt>
			<trkpt lat="48.934921" lon="20.384589">
				<ele>950.000000</ele>
			</trkpt>
			<trkpt lat="48.935245" lon="20.385289">
				<ele>949.000000</ele>
			</trkpt>
			<trkpt lat="48.935475" lon="20.385801">
				<ele>948.000000</ele>
			</trkpt>
			<trkpt lat="48.935776" lon="20.386439">
				<ele>947.000000</ele>
			</trkpt>
			<trkpt lat="48.936065" lon="20.386834">
				<ele>946.000000</ele>
			</trkpt>
			<trkpt lat="48.936148" lon="20.386969">
				<ele>946.000000</ele>
			</trkpt>
			<trkpt lat="48.936225" lon="20.387103">
				<ele>946.000000</ele>
			</trkpt>
			<trkpt lat="48.936284" lon="20.387247">
				<ele>945.000000</ele>
			</trkpt>
			<trkpt lat="48.936325" lon="20.387463">
				<ele>945.000000</ele>
			</trkpt>
			<trkpt lat="48.936402" lon="20.387813">
				<ele>945.000000</ele>
			</trkpt>
			<trkpt lat="48.936443" lon="20.388110">
				<ele>944.000000</ele>
			</trkpt>
			<trkpt lat="48.936496" lon="20.388334">
				<ele>944.000000</ele>
			</trkpt>
			<trkpt lat="48.936602" lon="20.388604">
				<ele>943.000000</ele>
			</trkpt>
			<trkpt lat="48.936726" lon="20.388973">
				<ele>943.000000</ele>
			</trkpt>
			<trkpt lat="48.936933" lon="20.389359">
				<ele>942.000000</ele>
			</trkpt>
			<trkpt lat="48.937293" lon="20.389960">
				<ele>941.000000</ele>
			</trkpt>
			<trkpt lat="48.937382" lon="20.390221">
				<ele>941.000000</ele>
			</trkpt>
			<trkpt lat="48.937565" lon="20.390455">
				<ele>940.000000</ele>
			</trkpt>
			<trkpt lat="48.937883" lon="20.390625">
				<ele>939.000000</ele>
			</trkpt>
			<trkpt lat="48.938143" lon="20.390679">
				<ele>937.000000</ele>
			</trkpt>
			<trkpt lat="48.938503" lon="20.390850">
				<ele>935.000000</ele>
			</trkpt>
			<trkpt lat="48.938691" lon="20.391038">
				<ele>933.000000</ele>
			</trkpt>
			<trkpt lat="48.938927" lon="20.391227">
				<ele>931.000000</ele>
			</trkpt>
			<trkpt lat="48.939134" lon="20.391524">
				<ele>930.000000</ele>
			</trkpt>
			<trkpt lat="48.939275" lon="20.391713">
				<ele>930.000000</ele>
			</trkpt>
			<trkpt lat="48.939523" lon="20.391990">
				<ele>930.000000</ele>
			</trkpt>
			<trkpt lat="48.939865" lon="20.392413">
				<ele>930.000000</ele>
			</trkpt>
			<trkpt lat="48.939942" lon="20.392476">
				<ele>930.000000</ele>
			</trkpt>
			<trkpt lat="48.940037" lon="20.392529">
				<ele>930.000000</ele>
			</trkpt>
			<trkpt lat="48.940096" lon="20.392566">
				<ele>930.000000</ele>
			</trkpt>
			<trkpt lat="48.940160" lon="20.392566">
				<ele>930.000000</ele>
			</trkpt>
			<trkpt lat="48.940219" lon="20.392556">
				<ele>930.000000</ele>
			</trkpt>
			<trkpt lat="48.940349" lon="20.392512">
				<ele>930.000000</ele>
			</trkpt>
			<trkpt lat="48.940455" lon="20.392430">
				<ele>930.000000</ele>
			</trkpt>
			<trkpt lat="48.940680" lon="20.392197">
				<ele>930.000000</ele>
			</trkpt>
			<trkpt lat="48.940940" lon="20.392053">
				<ele>930.000000</ele>
			</trkpt>
			<trkpt lat="48.941011" lon="20.392036">
				<ele>930.000000</ele>
			</trkpt>
			<trkpt lat="48.941264" lon="20.392017">
				<ele>930.000000</ele>
			</trkpt>
			<trkpt lat="48.941335" lon="20.392017">
				<ele>930.000000</ele>
			</trkpt>
			<trkpt lat="48.941500" lon="20.392063">
				<ele>930.000000</ele>
			</trkpt>
			<trkpt lat="48.941565" lon="20.392080">
				<ele>930.000000</ele>
			</trkpt>
			<trkpt lat="48.941701" lon="20.392161">
				<ele>930.000000</ele>
			</trkpt>
			<trkpt lat="48.941777" lon="20.392224">
				<ele>930.000000</ele>
			</trkpt>
			<trkpt lat="48.941878" lon="20.392350">
				<ele>930.000000</ele>
			</trkpt>
			<trkpt lat="48.942126" lon="20.392665">
				<ele>930.000000</ele>
			</trkpt>
			<trkpt lat="48.942232" lon="20.392808">
				<ele>930.000000</ele>
			</trkpt>
			<trkpt lat="48.942326" lon="20.392906">
				<ele>930.000000</ele>
			</trkpt>
			<trkpt lat="48.942403" lon="20.392979">
				<ele>930.000000</ele>
			</trkpt>
			<trkpt lat="48.942497" lon="20.393032">
				<ele>930.000000</ele>
			</trkpt>
			<trkpt lat="48.942674" lon="20.393113">
				<ele>930.000000</ele>
			</trkpt>
			<trkpt lat="48.942769" lon="20.393149">
				<ele>930.000000</ele>
			</trkpt>
			<trkpt lat="48.942834" lon="20.393195">
				<ele>930.000000</ele>
			</trkpt>
			<trkpt lat="48.942922" lon="20.393302">
				<ele>930.000000</ele>
			</trkpt>
			<trkpt lat="48.942993" lon="20.393401">
				<ele>930.000000</ele>
			</trkpt>
			<trkpt lat="48.943117" lon="20.393590">
				<ele>930.000000</ele>
			</trkpt>
			<trkpt lat="48.943176" lon="20.393671">
				<ele>930.000000</ele>
			</trkpt>
			<trkpt lat="48.943229" lon="20.393778">
				<ele>930.000000</ele>
			</trkpt>
			<trkpt lat="48.943270" lon="20.393895">
				<ele>929.000000</ele>
			</trkpt>
			<trkpt lat="48.943317" lon="20.394074">
				<ele>928.000000</ele>
			</trkpt>
			<trkpt lat="48.943388" lon="20.394254">
				<ele>927.000000</ele>
			</trkpt>
			<trkpt lat="48.943494" lon="20.394479">
				<ele>926.000000</ele>
			</trkpt>
			<trkpt lat="48.943577" lon="20.394659">
				<ele>925.000000</ele>
			</trkpt>
			<trkpt lat="48.943624" lon="20.394740">
				<ele>924.000000</ele>
			</trkpt>
			<trkpt lat="48.943671" lon="20.394811">
				<ele>923.000000</ele>
			</trkpt>
			<trkpt lat="48.943713" lon="20.394847">
				<ele>923.000000</ele>
			</trkpt>
			<trkpt lat="48.943789" lon="20.394900">
				<ele>922.000000</ele>
			</trkpt>
			<trkpt lat="48.943872" lon="20.394955">
				<ele>922.000000</ele>
			</trkpt>
			<trkpt lat="48.943949" lon="20.394982">
				<ele>921.000000</ele>
			</trkpt>
			<trkpt lat="48.944025" lon="20.395009">
				<ele>920.000000</ele>
			</trkpt>
			<trkpt lat="48.944314" lon="20.395080">
				<ele>918.000000</ele>
			</trkpt>
			<trkpt lat="48.944397" lon="20.395090">
				<ele>917.000000</ele>
			</trkpt>
			<trkpt lat="48.944474" lon="20.395080">
				<ele>916.000000</ele>
			</trkpt>
			<trkpt lat="48.944533" lon="20.395090">
				<ele>916.000000</ele>
			</trkpt>
			<trkpt lat="48.944574" lon="20.395080">
				<ele>915.000000</ele>
			</trkpt>
			<trkpt lat="48.944574" lon="20.395080">
				<ele>915.000000</ele>
			</trkpt>
			<trkpt lat="48.944574" lon="20.395080">
				<ele>915.000000</ele>
			</trkpt>
			<trkpt lat="48.944574" lon="20.395080">
				<ele>915.000000</ele>
			</trkpt>
			<trkpt lat="48.944627" lon="20.395053">
				<ele>915.000000</ele>
			</trkpt>
			<trkpt lat="48.944710" lon="20.395000">
				<ele>914.000000</ele>
			</trkpt>
			<trkpt lat="48.944774" lon="20.394955">
				<ele>913.000000</ele>
			</trkpt>
			<trkpt lat="48.944833" lon="20.394929">
				<ele>913.000000</ele>
			</trkpt>
			<trkpt lat="48.944898" lon="20.394919">
				<ele>912.000000</ele>
			</trkpt>
			<trkpt lat="48.944946" lon="20.394919">
				<ele>912.000000</ele>
			</trkpt>
			<trkpt lat="48.945005" lon="20.394929">
				<ele>911.000000</ele>
			</trkpt>
			<trkpt lat="48.945088" lon="20.394946">
				<ele>911.000000</ele>
			</trkpt>
			<trkpt lat="48.945246" lon="20.394990">
				<ele>909.000000</ele>
			</trkpt>
			<trkpt lat="48.945312" lon="20.395018">
				<ele>909.000000</ele>
			</trkpt>
			<trkpt lat="48.945400" lon="20.395063">
				<ele>908.000000</ele>
			</trkpt>
			<trkpt lat="48.945483" lon="20.395116">
				<ele>908.000000</ele>
			</trkpt>
			<trkpt lat="48.945577" lon="20.395189">
				<ele>907.000000</ele>
			</trkpt>
			<trkpt lat="48.945819" lon="20.395287">
				<ele>905.000000</ele>
			</trkpt>
			<trkpt lat="48.945937" lon="20.395332">
				<ele>904.000000</ele>
			</trkpt>
			<trkpt lat="48.946049" lon="20.395350">
				<ele>903.000000</ele>
			</trkpt>
			<trkpt lat="48.946067" lon="20.395350">
				<ele>903.000000</ele>
			</trkpt>
			<trkpt lat="48.946149" lon="20.395350">
				<ele>903.000000</ele>
			</trkpt>
			<trkpt lat="48.946250" lon="20.395342">
				<ele>902.000000</ele>
			</trkpt>
			<trkpt lat="48.946315" lon="20.395323">
				<ele>901.000000</ele>
			</trkpt>
			<trkpt lat="48.946397" lon="20.395287">
				<ele>901.000000</ele>
			</trkpt>
			<trkpt lat="48.946474" lon="20.395242">
				<ele>900.000000</ele>
			</trkpt>
			<trkpt lat="48.946527" lon="20.395198">
				<ele>900.000000</ele>
			</trkpt>
			<trkpt lat="48.946574" lon="20.395135">
				<ele>901.000000</ele>
			</trkpt>
			<trkpt lat="48.946627" lon="20.395063">
				<ele>901.000000</ele>
			</trkpt>
			<trkpt lat="48.946686" lon="20.394955">
				<ele>902.000000</ele>
			</trkpt>
			<trkpt lat="48.946728" lon="20.394847">
				<ele>903.000000</ele>
			</trkpt>
			<trkpt lat="48.946757" lon="20.394757">
				<ele>903.000000</ele>
			</trkpt>
			<trkpt lat="48.946775" lon="20.394676">
				<ele>904.000000</ele>
			</trkpt>
			<trkpt lat="48.946775" lon="20.394560">
				<ele>904.000000</ele>
			</trkpt>
			<trkpt lat="48.946763" lon="20.394416">
				<ele>905.000000</ele>
			</trkpt>
			<trkpt lat="48.946763" lon="20.394300">
				<ele>906.000000</ele>
			</trkpt>
			<trkpt lat="48.946792" lon="20.394101">
				<ele>907.000000</ele>
			</trkpt>
			<trkpt lat="48.946840" lon="20.393797">
				<ele>909.000000</ele>
			</trkpt>
			<trkpt lat="48.946851" lon="20.393697">
				<ele>909.000000</ele>
			</trkpt>
			<trkpt lat="48.946881" lon="20.393590">
				<ele>910.000000</ele>
			</trkpt>
			<trkpt lat="48.946928" lon="20.393491">
				<ele>910.000000</ele>
			</trkpt>
			<trkpt lat="48.947017" lon="20.393329">
				<ele>909.000000</ele>
			</trkpt>
			<trkpt lat="48.947164" lon="20.393051">
				<ele>909.000000</ele>
			</trkpt>
			<trkpt lat="48.947247" lon="20.392853">
				<ele>908.000000</ele>
			</trkpt>
			<trkpt lat="48.947282" lon="20.392727">
				<ele>908.000000</ele>
			</trkpt>
			<trkpt lat="48.947329" lon="20.392547">
				<ele>907.000000</ele>
			</trkpt>
			<trkpt lat="48.947388" lon="20.392260">
				<ele>907.000000</ele>
			</trkpt>
			<trkpt lat="48.947406" lon="20.392116">
				<ele>906.000000</ele>
			</trkpt>
			<trkpt lat="48.947424" lon="20.391954">
				<ele>906.000000</ele>
			</trkpt>
			<trkpt lat="48.947424" lon="20.391774">
				<ele>905.000000</ele>
			</trkpt>
			<trkpt lat="48.947424" lon="20.391650">
				<ele>905.000000</ele>
			</trkpt>
			<trkpt lat="48.947441" lon="20.391550">
				<ele>905.000000</ele>
			</trkpt>
			<trkpt lat="48.947524" lon="20.391237">
				<ele>904.000000</ele>
			</trkpt>
			<trkpt lat="48.947660" lon="20.390715">
				<ele>903.000000</ele>
			</trkpt>
			<trkpt lat="48.947695" lon="20.390608">
				<ele>903.000000</ele>
			</trkpt>
			<trkpt lat="48.947742" lon="20.390499">
				<ele>902.000000</ele>
			</trkpt>
			<trkpt lat="48.947819" lon="20.390401">
				<ele>902.000000</ele>
			</trkpt>
			<trkpt lat="48.947896" lon="20.390302">
				<ele>902.000000</ele>
			</trkpt>
			<trkpt lat="48.947949" lon="20.390248">
				<ele>901.000000</ele>
			</trkpt>
			<trkpt lat="48.948067" lon="20.390149">
				<ele>901.000000</ele>
			</trkpt>
			<trkpt lat="48.948143" lon="20.390105">
				<ele>901.000000</ele>
			</trkpt>
			<trkpt lat="48.948226" lon="20.390059">
				<ele>900.000000</ele>
			</trkpt>
			<trkpt lat="48.948314" lon="20.390023">
				<ele>900.000000</ele>
			</trkpt>
			<trkpt lat="48.948391" lon="20.390005">
				<ele>899.000000</ele>
			</trkpt>
			<trkpt lat="48.948450" lon="20.390005">
				<ele>899.000000</ele>
			</trkpt>
			<trkpt lat="48.948527" lon="20.390015">
				<ele>898.000000</ele>
			</trkpt>
			<trkpt lat="48.948586" lon="20.390050">
				<ele>898.000000</ele>
			</trkpt>
			<trkpt lat="48.948639" lon="20.390086">
				<ele>897.000000</ele>
			</trkpt>
			<trkpt lat="48.948674" lon="20.390140">
				<ele>897.000000</ele>
			</trkpt>
			<trkpt lat="48.948692" lon="20.390212">
				<ele>896.000000</ele>
			</trkpt>
			<trkpt lat="48.948698" lon="20.390292">
				<ele>896.000000</ele>
			</trkpt>
			<trkpt lat="48.948704" lon="20.390418">
				<ele>895.000000</ele>
			</trkpt>
			<trkpt lat="48.948692" lon="20.390545">
				<ele>894.000000</ele>
			</trkpt>
			<trkpt lat="48.948674" lon="20.390751">
				<ele>893.000000</ele>
			</trkpt>
			<trkpt lat="48.948651" lon="20.391029">
				<ele>892.000000</ele>
			</trkpt>
			<trkpt lat="48.948645" lon="20.391271">
				<ele>890.000000</ele>
			</trkpt>
			<trkpt lat="48.948657" lon="20.391443">
				<ele>889.000000</ele>
			</trkpt>
			<trkpt lat="48.948704" lon="20.391739">
				<ele>887.000000</ele>
			</trkpt>
			<trkpt lat="48.948757" lon="20.392009">
				<ele>886.000000</ele>
			</trkpt>
			<trkpt lat="48.948804" lon="20.392179">
				<ele>885.000000</ele>
			</trkpt>
			<trkpt lat="48.948893" lon="20.392368">
				<ele>883.000000</ele>
			</trkpt>
			<trkpt lat="48.948975" lon="20.392512">
				<ele>882.000000</ele>
			</trkpt>
			<trkpt lat="48.949193" lon="20.392772">
				<ele>880.000000</ele>
			</trkpt>
			<trkpt lat="48.949441" lon="20.393051">
				<ele>878.000000</ele>
			</trkpt>
			<trkpt lat="48.949571" lon="20.393158">
				<ele>876.000000</ele>
			</trkpt>
			<trkpt lat="48.949654" lon="20.393212">
				<ele>876.000000</ele>
			</trkpt>
			<trkpt lat="48.949754" lon="20.393258">
				<ele>875.000000</ele>
			</trkpt>
			<trkpt lat="48.949831" lon="20.393275">
				<ele>874.000000</ele>
			</trkpt>
			<trkpt lat="48.950114" lon="20.393051">
				<ele>872.000000</ele>
			</trkpt>
			<trkpt lat="48.950197" lon="20.392996">
				<ele>871.000000</ele>
			</trkpt>
			<trkpt lat="48.950279" lon="20.392979">
				<ele>871.000000</ele>
			</trkpt>
			<trkpt lat="48.950338" lon="20.392969">
				<ele>870.000000</ele>
			</trkpt>
			<trkpt lat="48.950385" lon="20.392988">
				<ele>870.000000</ele>
			</trkpt>
			<trkpt lat="48.950427" lon="20.393015">
				<ele>869.000000</ele>
			</trkpt>
			<trkpt lat="48.950456" lon="20.393068">
				<ele>869.000000</ele>
			</trkpt>
			<trkpt lat="48.950473" lon="20.393132">
				<ele>869.000000</ele>
			</trkpt>
			<trkpt lat="48.950486" lon="20.393195">
				<ele>868.000000</ele>
			</trkpt>
			<trkpt lat="48.950486" lon="20.393292">
				<ele>868.000000</ele>
			</trkpt>
			<trkpt lat="48.950468" lon="20.393410">
				<ele>867.000000</ele>
			</trkpt>
			<trkpt lat="48.950444" lon="20.393491">
				<ele>867.000000</ele>
			</trkpt>
			<trkpt lat="48.950409" lon="20.393617">
				<ele>866.000000</ele>
			</trkpt>
			<trkpt lat="48.950574" lon="20.393877">
				<ele>861.000000</ele>
			</trkpt>
			<trkpt lat="48.950745" lon="20.394273">
				<ele>853.000000</ele>
			</trkpt>
			<trkpt lat="48.950975" lon="20.394497">
				<ele>846.000000</ele>
			</trkpt>
			<trkpt lat="48.951082" lon="20.394721">
				<ele>841.000000</ele>
			</trkpt>
			<trkpt lat="48.951264" lon="20.394650">
				<ele>839.000000</ele>
			</trkpt>
			<trkpt lat="48.951447" lon="20.394542">
				<ele>838.000000</ele>
			</trkpt>
			<trkpt lat="48.951654" lon="20.394398">
				<ele>835.000000</ele>
			</trkpt>
			<trkpt lat="48.951990" lon="20.394174">
				<ele>832.000000</ele>
			</trkpt>
			<trkpt lat="48.952120" lon="20.394057">
				<ele>830.000000</ele>
			</trkpt>
			<trkpt lat="48.952261" lon="20.393921">
				<ele>828.000000</ele>
			</trkpt>
			<trkpt lat="48.952391" lon="20.393832">
				<ele>827.000000</ele>
			</trkpt>
			<trkpt lat="48.952527" lon="20.393761">
				<ele>826.000000</ele>
			</trkpt>
			<trkpt lat="48.952627" lon="20.393707">
				<ele>825.000000</ele>
			</trkpt>
			<trkpt lat="48.952757" lon="20.393652">
				<ele>823.000000</ele>
			</trkpt>
			<trkpt lat="48.952875" lon="20.393608">
				<ele>822.000000</ele>
			</trkpt>
			<trkpt lat="48.952975" lon="20.393554">
				<ele>821.000000</ele>
			</trkpt>
			<trkpt lat="48.953058" lon="20.393472">
				<ele>820.000000</ele>
			</trkpt>
			<trkpt lat="48.953140" lon="20.393382">
				<ele>819.000000</ele>
			</trkpt>
			<trkpt lat="48.953258" lon="20.393248">
				<ele>818.000000</ele>
			</trkpt>
			<trkpt lat="48.953347" lon="20.393132">
				<ele>816.000000</ele>
			</trkpt>
			<trkpt lat="48.953388" lon="20.393059">
				<ele>816.000000</ele>
			</trkpt>
			<trkpt lat="48.953423" lon="20.392988">
				<ele>815.000000</ele>
			</trkpt>
			<trkpt lat="48.953447" lon="20.392898">
				<ele>815.000000</ele>
			</trkpt>
			<trkpt lat="48.953488" lon="20.392763">
				<ele>814.000000</ele>
			</trkpt>
			<trkpt lat="48.953500" lon="20.392673">
				<ele>813.000000</ele>
			</trkpt>
			<trkpt lat="48.953500" lon="20.392503">
				<ele>812.000000</ele>
			</trkpt>
			<trkpt lat="48.953471" lon="20.392305">
				<ele>811.000000</ele>
			</trkpt>
			<trkpt lat="48.953429" lon="20.392116">
				<ele>809.000000</ele>
			</trkpt>
			<trkpt lat="48.953323" lon="20.391820">
				<ele>808.000000</ele>
			</trkpt>
			<trkpt lat="48.953240" lon="20.391623">
				<ele>806.000000</ele>
			</trkpt>
			<trkpt lat="48.953187" lon="20.391533">
				<ele>806.000000</ele>
			</trkpt>
			<trkpt lat="48.953117" lon="20.391470">
				<ele>805.000000</ele>
			</trkpt>
			<trkpt lat="48.952981" lon="20.391424">
				<ele>804.000000</ele>
			</trkpt>
			<trkpt lat="48.952822" lon="20.391397">
				<ele>802.000000</ele>
			</trkpt>
			<trkpt lat="48.952657" lon="20.391380">
				<ele>801.000000</ele>
			</trkpt>
			<trkpt lat="48.952415" lon="20.391298">
				<ele>799.000000</ele>
			</trkpt>
			<trkpt lat="48.952332" lon="20.391281">
				<ele>798.000000</ele>
			</trkpt>
			<trkpt lat="48.952226" lon="20.391254">
				<ele>796.000000</ele>
			</trkpt>
			<trkpt lat="48.952167" lon="20.391200">
				<ele>796.000000</ele>
			</trkpt>
			<trkpt lat="48.952143" lon="20.391147">
				<ele>795.000000</ele>
			</trkpt>
			<trkpt lat="48.952137" lon="20.391110">
				<ele>795.000000</ele>
			</trkpt>
			<trkpt lat="48.952126" lon="20.391047">
				<ele>794.000000</ele>
			</trkpt>
			<trkpt lat="48.952149" lon="20.390958">
				<ele>794.000000</ele>
			</trkpt>
			<trkpt lat="48.952196" lon="20.390877">
				<ele>793.000000</ele>
			</trkpt>
			<trkpt lat="48.952320" lon="20.390697">
				<ele>791.000000</ele>
			</trkpt>
			<trkpt lat="48.952485" lon="20.390472">
				<ele>788.000000</ele>
			</trkpt>
			<trkpt lat="48.952662" lon="20.390248">
				<ele>784.000000</ele>
			</trkpt>
			<trkpt lat="48.952757" lon="20.390095">
				<ele>781.000000</ele>
			</trkpt>
			<trkpt lat="48.952839" lon="20.389862">
				<ele>778.000000</ele>
			</trkpt>
			<trkpt lat="48.952904" lon="20.389763">
				<ele>777.000000</ele>
			</trkpt>
			<trkpt lat="48.952993" lon="20.389690">
				<ele>775.000000</ele>
			</trkpt>
			<trkpt lat="48.953081" lon="20.389637">
				<ele>773.000000</ele>
			</trkpt>
			<trkpt lat="48.953282" lon="20.389566">
				<ele>770.000000</ele>
			</trkpt>
			<trkpt lat="48.953406" lon="20.389529">
				<ele>767.000000</ele>
			</trkpt>
			<trkpt lat="48.953518" lon="20.389511">
				<ele>765.000000</ele>
			</trkpt>
			<trkpt lat="48.953583" lon="20.389484">
				<ele>764.000000</ele>
			</trkpt>
			<trkpt lat="48.953647" lon="20.389449">
				<ele>763.000000</ele>
			</trkpt>
			<trkpt lat="48.953730" lon="20.389413">
				<ele>761.000000</ele>
			</trkpt>
			<trkpt lat="48.953854" lon="20.389394">
				<ele>759.000000</ele>
			</trkpt>
			<trkpt lat="48.954037" lon="20.389340">
				<ele>756.000000</ele>
			</trkpt>
			<trkpt lat="48.954279" lon="20.389277">
				<ele>752.000000</ele>
			</trkpt>
			<trkpt lat="48.954408" lon="20.389250">
				<ele>750.000000</ele>
			</trkpt>
			<trkpt lat="48.954509" lon="20.389242">
				<ele>749.000000</ele>
			</trkpt>
			<trkpt lat="48.954579" lon="20.389250">
				<ele>748.000000</ele>
			</trkpt>
			<trkpt lat="48.954739" lon="20.389296">
				<ele>745.000000</ele>
			</trkpt>
			<trkpt lat="48.954886" lon="20.389331">
				<ele>743.000000</ele>
			</trkpt>
			<trkpt lat="48.955057" lon="20.389350">
				<ele>741.000000</ele>
			</trkpt>
			<trkpt lat="48.955146" lon="20.389359">
				<ele>740.000000</ele>
			</trkpt>
			<trkpt lat="48.955205" lon="20.389350">
				<ele>739.000000</ele>
			</trkpt>
			<trkpt lat="48.955441" lon="20.389233">
				<ele>737.000000</ele>
			</trkpt>
			<trkpt lat="48.955511" lon="20.389206">
				<ele>736.000000</ele>
			</trkpt>
			<trkpt lat="48.955694" lon="20.389224">
				<ele>732.000000</ele>
			</trkpt>
			<trkpt lat="48.955871" lon="20.389187">
				<ele>727.000000</ele>
			</trkpt>
			<trkpt lat="48.955948" lon="20.389179">
				<ele>725.000000</ele>
			</trkpt>
			<trkpt lat="48.956013" lon="20.389187">
				<ele>724.000000</ele>
			</trkpt>
			<trkpt lat="48.956143" lon="20.389250">
				<ele>720.000000</ele>
			</trkpt>
			<trkpt lat="48.956272" lon="20.389304">
				<ele>717.000000</ele>
			</trkpt>
			<trkpt lat="48.956373" lon="20.389350">
				<ele>715.000000</ele>
			</trkpt>
			<trkpt lat="48.956467" lon="20.389421">
				<ele>713.000000</ele>
			</trkpt>
			<trkpt lat="48.956491" lon="20.389529">
				<ele>712.000000</ele>
			</trkpt>
			<trkpt lat="48.956514" lon="20.389592">
				<ele>711.000000</ele>
			</trkpt>
			<trkpt lat="48.956555" lon="20.389682">
				<ele>710.000000</ele>
			</trkpt>
			<trkpt lat="48.956591" lon="20.389745">
				<ele>710.000000</ele>
			</trkpt>
			<trkpt lat="48.956632" lon="20.389780">
				<ele>709.000000</ele>
			</trkpt>
			<trkpt lat="48.956750" lon="20.389879">
				<ele>708.000000</ele>
			</trkpt>
			<trkpt lat="48.956809" lon="20.389879">
				<ele>707.000000</ele>
			</trkpt>
			<trkpt lat="48.956915" lon="20.389879">
				<ele>705.000000</ele>
			</trkpt>
			<trkpt lat="48.957045" lon="20.389897">
				<ele>704.000000</ele>
			</trkpt>
			<trkpt lat="48.957122" lon="20.389897">
				<ele>703.000000</ele>
			</trkpt>
			<trkpt lat="48.957181" lon="20.389879">
				<ele>702.000000</ele>
			</trkpt>
			<trkpt lat="48.957281" lon="20.389843">
				<ele>701.000000</ele>
			</trkpt>
			<trkpt lat="48.957470" lon="20.389763">
				<ele>697.000000</ele>
			</trkpt>
			<trkpt lat="48.957647" lon="20.389629">
				<ele>693.000000</ele>
			</trkpt>
			<trkpt lat="48.957729" lon="20.389529">
				<ele>691.000000</ele>
			</trkpt>
			<trkpt lat="48.957829" lon="20.389386">
				<ele>688.000000</ele>
			</trkpt>
			<trkpt lat="48.958012" lon="20.389124">
				<ele>681.000000</ele>
			</trkpt>
			<trkpt lat="48.958213" lon="20.388883">
				<ele>672.000000</ele>
			</trkpt>
			<trkpt lat="48.958390" lon="20.388711">
				<ele>665.000000</ele>
			</trkpt>
			<trkpt lat="48.958491" lon="20.388667">
				<ele>661.000000</ele>
			</trkpt>
			<trkpt lat="48.958609" lon="20.388658">
				<ele>659.000000</ele>
			</trkpt>
			<trkpt lat="48.958785" lon="20.388676">
				<ele>652.000000</ele>
			</trkpt>
			<trkpt lat="48.959021" lon="20.388487">
				<ele>642.000000</ele>
			</trkpt>
			<trkpt lat="48.959240" lon="20.388407">
				<ele>636.000000</ele>
			</trkpt>
			<trkpt lat="48.959352" lon="20.388352">
				<ele>632.000000</ele>
			</trkpt>
			<trkpt lat="48.959588" lon="20.388325">
				<ele>626.000000</ele>
			</trkpt>
			<trkpt lat="48.959953" lon="20.388208">
				<ele>617.000000</ele>
			</trkpt>
			<trkpt lat="48.960101" lon="20.388128">
				<ele>614.000000</ele>
			</trkpt>
			<trkpt lat="48.960254" lon="20.388047">
				<ele>610.000000</ele>
			</trkpt>
			<trkpt lat="48.960413" lon="20.387992">
				<ele>606.000000</ele>
			</trkpt>
			<trkpt lat="48.960508" lon="20.387975">
				<ele>603.000000</ele>
			</trkpt>
			<trkpt lat="48.960649" lon="20.387984">
				<ele>599.000000</ele>
			</trkpt>
			<trkpt lat="48.960974" lon="20.387958">
				<ele>595.000000</ele>
			</trkpt>
			<trkpt lat="48.961092" lon="20.387931">
				<ele>593.000000</ele>
			</trkpt>
			<trkpt lat="48.961156" lon="20.387903">
				<ele>592.000000</ele>
			</trkpt>
			<trkpt lat="48.961215" lon="20.387858">
				<ele>590.000000</ele>
			</trkpt>
			<trkpt lat="48.961251" lon="20.387813">
				<ele>590.000000</ele>
			</trkpt>
			<trkpt lat="48.961286" lon="20.387732">
				<ele>588.000000</ele>
			</trkpt>
			<trkpt lat="48.961328" lon="20.387625">
				<ele>587.000000</ele>
			</trkpt>
			<trkpt lat="48.961398" lon="20.387418">
				<ele>584.000000</ele>
			</trkpt>
			<trkpt lat="48.961457" lon="20.387266">
				<ele>582.000000</ele>
			</trkpt>
			<trkpt lat="48.961534" lon="20.387149">
				<ele>580.000000</ele>
			</trkpt>
			<trkpt lat="48.961723" lon="20.386933">
				<ele>578.000000</ele>
			</trkpt>
			<trkpt lat="48.961876" lon="20.386717">
				<ele>576.000000</ele>
			</trkpt>
			<trkpt lat="48.961994" lon="20.386583">
				<ele>574.000000</ele>
			</trkpt>
			<trkpt lat="48.962171" lon="20.386439">
				<ele>572.000000</ele>
			</trkpt>
			<trkpt lat="48.962360" lon="20.386260">
				<ele>570.000000</ele>
			</trkpt>
			<trkpt lat="48.962460" lon="20.386187">
				<ele>568.000000</ele>
			</trkpt>
			<trkpt lat="48.962572" lon="20.386143">
				<ele>566.000000</ele>
			</trkpt>
			<trkpt lat="48.962802" lon="20.386088">
				<ele>562.000000</ele>
			</trkpt>
			<trkpt lat="48.962955" lon="20.386026">
				<ele>559.000000</ele>
			</trkpt>
			<trkpt lat="48.963209" lon="20.385873">
				<ele>552.000000</ele>
			</trkpt>
			<trkpt lat="48.963333" lon="20.385936">
				<ele>551.000000</ele>
			</trkpt>
			<trkpt lat="48.963533" lon="20.386026">
				<ele>550.000000</ele>
			</trkpt>
			<trkpt lat="48.963734" lon="20.386080">
				<ele>550.000000</ele>
			</trkpt>
			<trkpt lat="48.963810" lon="20.386088">
				<ele>550.000000</ele>
			</trkpt>
			<trkpt lat="48.963875" lon="20.386107">
				<ele>550.000000</ele>
			</trkpt>
			<trkpt lat="48.963999" lon="20.386107">
				<ele>550.000000</ele>
			</trkpt>
			<trkpt lat="48.964082" lon="20.386115">
				<ele>550.000000</ele>
			</trkpt>
			<trkpt lat="48.964217" lon="20.386115">
				<ele>550.000000</ele>
			</trkpt>
			<trkpt lat="48.964312" lon="20.386107">
				<ele>550.000000</ele>
			</trkpt>
			<trkpt lat="48.964377" lon="20.386097">
				<ele>550.000000</ele>
			</trkpt>
			<trkpt lat="48.964388" lon="20.386097">
				<ele>550.000000</ele>
			</trkpt>
			<trkpt lat="48.964388" lon="20.386097">
				<ele>550.000000</ele>
			</trkpt>
			<trkpt lat="48.964719" lon="20.386026">
				<ele>550.000000</ele>
			</trkpt>
			<trkpt lat="48.964772" lon="20.386008">
				<ele>550.000000</ele>
			</trkpt>
			<trkpt lat="48.964795" lon="20.385998">
				<ele>550.000000</ele>
			</trkpt>
			<trkpt lat="48.964854" lon="20.385981">
				<ele>550.000000</ele>
			</trkpt>
			<trkpt lat="48.964913" lon="20.385971">
				<ele>550.000000</ele>
			</trkpt>
			<trkpt lat="48.964913" lon="20.385971">
				<ele>550.000000</ele>
			</trkpt>
			<trkpt lat="48.965096" lon="20.385927">
				<ele>550.000000</ele>
			</trkpt>
			<trkpt lat="48.965196" lon="20.385900">
				<ele>550.000000</ele>
			</trkpt>
			<trkpt lat="48.965338" lon="20.385864">
				<ele>550.000000</ele>
			</trkpt>
			<trkpt lat="48.965444" lon="20.385837">
				<ele>550.000000</ele>
			</trkpt>
			<trkpt lat="48.965562" lon="20.385810">
				<ele>550.000000</ele>
			</trkpt>
			<trkpt lat="48.965751" lon="20.385765">
				<ele>550.000000</ele>
			</trkpt>
			<trkpt lat="48.965822" lon="20.385747">
				<ele>550.000000</ele>
			</trkpt>
			<trkpt lat="48.965845" lon="20.385908">
				<ele>550.000000</ele>
			</trkpt>
		</trkseg>
	</trk>
</gpx>

