<?xml version="1.0" encoding="UTF-8"?>
<gpx xmlns="http://www.topografix.com/GPX/1/1" xmlns:gpsies="http://www.gpsies.com/GPX/1/0" creator="GPSies http://www.gpsies.com - GPSies Track" version="1.1" xmlns:xsi="http://www.w3.org/2001/XMLSchema-instance" xsi:schemaLocation="http://www.topografix.com/GPX/1/1 http://www.topografix.com/GPX/1/1/gpx.xsd http://www.gpsies.com/GPX/1/0 http://www.gpsies.com/gpsies.xsd">
  <metadata>
    <name>GPSies Track</name>
    <link href="http://www.gpsies.com/">
      <text>GPSies Track on GPSies.com</text>
    </link>
    <time>2018-01-25T11:07:20Z</time>
  </metadata>
  <trk>
    <name>GPSies Track on GPSies.com</name>
    <trkseg>
      <trkpt lat="47.62820649" lon="18.83022308">
        <ele>209.00000</ele>
        <time>2010-01-01T00:00:00Z</time>
      </trkpt>
      <trkpt lat="47.62821000" lon="18.83022000">
        <ele>209.00000</ele>
        <time>2010-01-01T00:00:00Z</time>
      </trkpt>
      <trkpt lat="47.62824000" lon="18.83041000">
        <ele>209.00000</ele>
        <time>2010-01-01T00:00:05Z</time>
      </trkpt>
      <trkpt lat="47.62820000" lon="18.83092000">
        <ele>210.00000</ele>
        <time>2010-01-01T00:00:19Z</time>
      </trkpt>
      <trkpt lat="47.62821000" lon="18.83116000">
        <ele>211.00000</ele>
        <time>2010-01-01T00:00:25Z</time>
      </trkpt>
      <trkpt lat="47.62826000" lon="18.83134000">
        <ele>212.00000</ele>
        <time>2010-01-01T00:00:31Z</time>
      </trkpt>
      <trkpt lat="47.62842000" lon="18.83170000">
        <ele>214.00000</ele>
        <time>2010-01-01T00:00:42Z</time>
      </trkpt>
      <trkpt lat="47.62860000" lon="18.83202000">
        <ele>217.00000</ele>
        <time>2010-01-01T00:00:53Z</time>
      </trkpt>
      <trkpt lat="47.62867000" lon="18.83216000">
        <ele>218.00000</ele>
        <time>2010-01-01T00:00:58Z</time>
      </trkpt>
      <trkpt lat="47.62844000" lon="18.83242000">
        <ele>219.00000</ele>
        <time>2010-01-01T00:01:10Z</time>
      </trkpt>
      <trkpt lat="47.62840000" lon="18.83267000">
        <ele>221.00000</ele>
        <time>2010-01-01T00:01:17Z</time>
      </trkpt>
      <trkpt lat="47.62828000" lon="18.83271000">
        <ele>221.00000</ele>
        <time>2010-01-01T00:01:22Z</time>
      </trkpt>
      <trkpt lat="47.62822000" lon="18.83297000">
        <ele>223.00000</ele>
        <time>2010-01-01T00:01:29Z</time>
      </trkpt>
      <trkpt lat="47.62809000" lon="18.83305000">
        <ele>224.00000</ele>
        <time>2010-01-01T00:01:35Z</time>
      </trkpt>
      <trkpt lat="47.62807000" lon="18.83326000">
        <ele>227.00000</ele>
        <time>2010-01-01T00:01:40Z</time>
      </trkpt>
      <trkpt lat="47.62795000" lon="18.83334000">
        <ele>229.00000</ele>
        <time>2010-01-01T00:01:46Z</time>
      </trkpt>
      <trkpt lat="47.62790000" lon="18.83356000">
        <ele>232.00000</ele>
        <time>2010-01-01T00:01:52Z</time>
      </trkpt>
      <trkpt lat="47.62776000" lon="18.83367000">
        <ele>237.00000</ele>
        <time>2010-01-01T00:01:58Z</time>
      </trkpt>
      <trkpt lat="47.62772000" lon="18.83389000">
        <ele>242.00000</ele>
        <time>2010-01-01T00:02:04Z</time>
      </trkpt>
      <trkpt lat="47.62758000" lon="18.83396000">
        <ele>244.00000</ele>
        <time>2010-01-01T00:02:10Z</time>
      </trkpt>
      <trkpt lat="47.62755000" lon="18.83418000">
        <ele>248.00000</ele>
        <time>2010-01-01T00:02:16Z</time>
      </trkpt>
      <trkpt lat="47.62744000" lon="18.83426000">
        <ele>250.00000</ele>
        <time>2010-01-01T00:02:21Z</time>
      </trkpt>
      <trkpt lat="47.62740000" lon="18.83446000">
        <ele>253.00000</ele>
        <time>2010-01-01T00:02:27Z</time>
      </trkpt>
      <trkpt lat="47.62727000" lon="18.83454000">
        <ele>255.00000</ele>
        <time>2010-01-01T00:02:32Z</time>
      </trkpt>
      <trkpt lat="47.62713000" lon="18.83468000">
        <ele>257.00000</ele>
        <time>2010-01-01T00:02:39Z</time>
      </trkpt>
      <trkpt lat="47.62671000" lon="18.83507000">
        <ele>261.00000</ele>
        <time>2010-01-01T00:02:59Z</time>
      </trkpt>
      <trkpt lat="47.62636000" lon="18.83526000">
        <ele>259.00000</ele>
        <time>2010-01-01T00:03:14Z</time>
      </trkpt>
      <trkpt lat="47.62616000" lon="18.83544000">
        <ele>258.00000</ele>
        <time>2010-01-01T00:03:23Z</time>
      </trkpt>
      <trkpt lat="47.62611000" lon="18.83554000">
        <ele>259.00000</ele>
        <time>2010-01-01T00:03:27Z</time>
      </trkpt>
      <trkpt lat="47.62595000" lon="18.83577000">
        <ele>261.00000</ele>
        <time>2010-01-01T00:03:36Z</time>
      </trkpt>
      <trkpt lat="47.62584000" lon="18.83594000">
        <ele>263.00000</ele>
        <time>2010-01-01T00:03:42Z</time>
      </trkpt>
      <trkpt lat="47.62559000" lon="18.83641000">
        <ele>266.00000</ele>
        <time>2010-01-01T00:03:58Z</time>
      </trkpt>
      <trkpt lat="47.62555000" lon="18.83651000">
        <ele>266.00000</ele>
        <time>2010-01-01T00:04:01Z</time>
      </trkpt>
      <trkpt lat="47.62553000" lon="18.83667000">
        <ele>266.00000</ele>
        <time>2010-01-01T00:04:06Z</time>
      </trkpt>
      <trkpt lat="47.62546000" lon="18.83687000">
        <ele>265.00000</ele>
        <time>2010-01-01T00:04:12Z</time>
      </trkpt>
      <trkpt lat="47.62534000" lon="18.83697000">
        <ele>266.00000</ele>
        <time>2010-01-01T00:04:17Z</time>
      </trkpt>
      <trkpt lat="47.62525000" lon="18.83707000">
        <ele>266.00000</ele>
        <time>2010-01-01T00:04:22Z</time>
      </trkpt>
      <trkpt lat="47.62510000" lon="18.83719000">
        <ele>268.00000</ele>
        <time>2010-01-01T00:04:29Z</time>
      </trkpt>
      <trkpt lat="47.62503000" lon="18.83722000">
        <ele>269.00000</ele>
        <time>2010-01-01T00:04:31Z</time>
      </trkpt>
      <trkpt lat="47.62493000" lon="18.83728000">
        <ele>270.00000</ele>
        <time>2010-01-01T00:04:36Z</time>
      </trkpt>
      <trkpt lat="47.62483000" lon="18.83735000">
        <ele>270.00000</ele>
        <time>2010-01-01T00:04:40Z</time>
      </trkpt>
      <trkpt lat="47.62466000" lon="18.83754000">
        <ele>271.00000</ele>
        <time>2010-01-01T00:04:49Z</time>
      </trkpt>
      <trkpt lat="47.62417000" lon="18.83782000">
        <ele>274.00000</ele>
        <time>2010-01-01T00:05:10Z</time>
      </trkpt>
      <trkpt lat="47.62410000" lon="18.83793000">
        <ele>274.00000</ele>
        <time>2010-01-01T00:05:14Z</time>
      </trkpt>
      <trkpt lat="47.62406000" lon="18.83799000">
        <ele>274.00000</ele>
        <time>2010-01-01T00:05:16Z</time>
      </trkpt>
      <trkpt lat="47.62404000" lon="18.83803000">
        <ele>274.00000</ele>
        <time>2010-01-01T00:05:17Z</time>
      </trkpt>
      <trkpt lat="47.62404000" lon="18.83823000">
        <ele>275.00000</ele>
        <time>2010-01-01T00:05:23Z</time>
      </trkpt>
      <trkpt lat="47.62405000" lon="18.83935000">
        <ele>280.00000</ele>
        <time>2010-01-01T00:05:53Z</time>
      </trkpt>
      <trkpt lat="47.62398000" lon="18.84008000">
        <ele>281.00000</ele>
        <time>2010-01-01T00:06:13Z</time>
      </trkpt>
      <trkpt lat="47.62411000" lon="18.84088000">
        <ele>281.00000</ele>
        <time>2010-01-01T00:06:35Z</time>
      </trkpt>
      <trkpt lat="47.62413000" lon="18.84104000">
        <ele>282.00000</ele>
        <time>2010-01-01T00:06:40Z</time>
      </trkpt>
      <trkpt lat="47.62408000" lon="18.84108000">
        <ele>282.00000</ele>
        <time>2010-01-01T00:06:42Z</time>
      </trkpt>
      <trkpt lat="47.62404000" lon="18.84113000">
        <ele>283.00000</ele>
        <time>2010-01-01T00:06:44Z</time>
      </trkpt>
      <trkpt lat="47.62400000" lon="18.84130000">
        <ele>284.00000</ele>
        <time>2010-01-01T00:06:49Z</time>
      </trkpt>
      <trkpt lat="47.62395000" lon="18.84146000">
        <ele>285.00000</ele>
        <time>2010-01-01T00:06:54Z</time>
      </trkpt>
      <trkpt lat="47.62393000" lon="18.84143000">
        <ele>285.00000</ele>
        <time>2010-01-01T00:06:55Z</time>
      </trkpt>
      <trkpt lat="47.62392000" lon="18.84143000">
        <ele>285.00000</ele>
        <time>2010-01-01T00:06:55Z</time>
      </trkpt>
      <trkpt lat="47.62369000" lon="18.84101000">
        <ele>280.00000</ele>
        <time>2010-01-01T00:07:10Z</time>
      </trkpt>
      <trkpt lat="47.62358000" lon="18.84083000">
        <ele>278.00000</ele>
        <time>2010-01-01T00:07:16Z</time>
      </trkpt>
      <trkpt lat="47.62287000" lon="18.83965000">
        <ele>259.00000</ele>
        <time>2010-01-01T00:07:59Z</time>
      </trkpt>
      <trkpt lat="47.62276000" lon="18.83937000">
        <ele>252.00000</ele>
        <time>2010-01-01T00:08:08Z</time>
      </trkpt>
      <trkpt lat="47.62272000" lon="18.83917000">
        <ele>249.00000</ele>
        <time>2010-01-01T00:08:13Z</time>
      </trkpt>
      <trkpt lat="47.62272000" lon="18.83916000">
        <ele>249.00000</ele>
        <time>2010-01-01T00:08:14Z</time>
      </trkpt>
      <trkpt lat="47.62269000" lon="18.83907000">
        <ele>248.00000</ele>
        <time>2010-01-01T00:08:16Z</time>
      </trkpt>
      <trkpt lat="47.62267000" lon="18.83888000">
        <ele>247.00000</ele>
        <time>2010-01-01T00:08:21Z</time>
      </trkpt>
      <trkpt lat="47.62249000" lon="18.83879000">
        <ele>244.00000</ele>
        <time>2010-01-01T00:08:29Z</time>
      </trkpt>
      <trkpt lat="47.62229000" lon="18.83918000">
        <ele>244.00000</ele>
        <time>2010-01-01T00:08:42Z</time>
      </trkpt>
      <trkpt lat="47.62212000" lon="18.83879000">
        <ele>241.00000</ele>
        <time>2010-01-01T00:08:55Z</time>
      </trkpt>
      <trkpt lat="47.62213000" lon="18.83893000">
        <ele>242.00000</ele>
        <time>2010-01-01T00:08:59Z</time>
      </trkpt>
      <trkpt lat="47.62219000" lon="18.83921000">
        <ele>243.00000</ele>
        <time>2010-01-01T00:09:07Z</time>
      </trkpt>
      <trkpt lat="47.62220000" lon="18.83935000">
        <ele>244.00000</ele>
        <time>2010-01-01T00:09:10Z</time>
      </trkpt>
      <trkpt lat="47.62219000" lon="18.83952000">
        <ele>245.00000</ele>
        <time>2010-01-01T00:09:15Z</time>
      </trkpt>
      <trkpt lat="47.62211000" lon="18.83990000">
        <ele>247.00000</ele>
        <time>2010-01-01T00:09:26Z</time>
      </trkpt>
      <trkpt lat="47.62208000" lon="18.84003000">
        <ele>248.00000</ele>
        <time>2010-01-01T00:09:29Z</time>
      </trkpt>
      <trkpt lat="47.62203000" lon="18.84010000">
        <ele>248.00000</ele>
        <time>2010-01-01T00:09:32Z</time>
      </trkpt>
      <trkpt lat="47.62200000" lon="18.84015000">
        <ele>248.00000</ele>
        <time>2010-01-01T00:09:34Z</time>
      </trkpt>
      <trkpt lat="47.62188000" lon="18.84024000">
        <ele>247.00000</ele>
        <time>2010-01-01T00:09:39Z</time>
      </trkpt>
      <trkpt lat="47.62151000" lon="18.84030000">
        <ele>245.00000</ele>
        <time>2010-01-01T00:09:54Z</time>
      </trkpt>
      <trkpt lat="47.62116000" lon="18.84048000">
        <ele>244.00000</ele>
        <time>2010-01-01T00:10:09Z</time>
      </trkpt>
      <trkpt lat="47.62087000" lon="18.84065000">
        <ele>243.00000</ele>
        <time>2010-01-01T00:10:22Z</time>
      </trkpt>
      <trkpt lat="47.62113000" lon="18.84119000">
        <ele>254.00000</ele>
        <time>2010-01-01T00:10:39Z</time>
      </trkpt>
      <trkpt lat="47.62119000" lon="18.84127000">
        <ele>257.00000</ele>
        <time>2010-01-01T00:10:43Z</time>
      </trkpt>
      <trkpt lat="47.62131000" lon="18.84128000">
        <ele>260.00000</ele>
        <time>2010-01-01T00:10:47Z</time>
      </trkpt>
      <trkpt lat="47.62141000" lon="18.84133000">
        <ele>263.00000</ele>
        <time>2010-01-01T00:10:52Z</time>
      </trkpt>
      <trkpt lat="47.62149000" lon="18.84155000">
        <ele>270.00000</ele>
        <time>2010-01-01T00:10:58Z</time>
      </trkpt>
      <trkpt lat="47.62151000" lon="18.84158000">
        <ele>272.00000</ele>
        <time>2010-01-01T00:11:00Z</time>
      </trkpt>
      <trkpt lat="47.62151000" lon="18.84157000">
        <ele>271.00000</ele>
        <time>2010-01-01T00:11:00Z</time>
      </trkpt>
      <trkpt lat="47.62149000" lon="18.84155000">
        <ele>270.00000</ele>
        <time>2010-01-01T00:11:01Z</time>
      </trkpt>
      <trkpt lat="47.62141000" lon="18.84133000">
        <ele>263.00000</ele>
        <time>2010-01-01T00:11:08Z</time>
      </trkpt>
      <trkpt lat="47.62131000" lon="18.84128000">
        <ele>260.00000</ele>
        <time>2010-01-01T00:11:12Z</time>
      </trkpt>
      <trkpt lat="47.62119000" lon="18.84127000">
        <ele>257.00000</ele>
        <time>2010-01-01T00:11:17Z</time>
      </trkpt>
      <trkpt lat="47.62113000" lon="18.84119000">
        <ele>254.00000</ele>
        <time>2010-01-01T00:11:20Z</time>
      </trkpt>
      <trkpt lat="47.62087000" lon="18.84065000">
        <ele>243.00000</ele>
        <time>2010-01-01T00:11:38Z</time>
      </trkpt>
      <trkpt lat="47.62069000" lon="18.84027000">
        <ele>240.00000</ele>
        <time>2010-01-01T00:11:50Z</time>
      </trkpt>
      <trkpt lat="47.62108000" lon="18.83974000">
        <ele>238.00000</ele>
        <time>2010-01-01T00:12:11Z</time>
      </trkpt>
      <trkpt lat="47.62146000" lon="18.83903000">
        <ele>239.00000</ele>
        <time>2010-01-01T00:12:36Z</time>
      </trkpt>
      <trkpt lat="47.62168000" lon="18.83879000">
        <ele>241.00000</ele>
        <time>2010-01-01T00:12:47Z</time>
      </trkpt>
      <trkpt lat="47.62184000" lon="18.83856000">
        <ele>240.00000</ele>
        <time>2010-01-01T00:12:56Z</time>
      </trkpt>
      <trkpt lat="47.62197000" lon="18.83832000">
        <ele>239.00000</ele>
        <time>2010-01-01T00:13:04Z</time>
      </trkpt>
      <trkpt lat="47.62204000" lon="18.83808000">
        <ele>238.00000</ele>
        <time>2010-01-01T00:13:11Z</time>
      </trkpt>
      <trkpt lat="47.62238000" lon="18.83694000">
        <ele>233.00000</ele>
        <time>2010-01-01T00:13:45Z</time>
      </trkpt>
      <trkpt lat="47.62253000" lon="18.83653000">
        <ele>231.00000</ele>
        <time>2010-01-01T00:13:57Z</time>
      </trkpt>
      <trkpt lat="47.62264000" lon="18.83628000">
        <ele>229.00000</ele>
        <time>2010-01-01T00:14:05Z</time>
      </trkpt>
      <trkpt lat="47.62274000" lon="18.83598000">
        <ele>227.00000</ele>
        <time>2010-01-01T00:14:14Z</time>
      </trkpt>
      <trkpt lat="47.62269000" lon="18.83600000">
        <ele>227.00000</ele>
        <time>2010-01-01T00:14:17Z</time>
      </trkpt>
      <trkpt lat="47.62274000" lon="18.83598000">
        <ele>227.00000</ele>
        <time>2010-01-01T00:14:19Z</time>
      </trkpt>
      <trkpt lat="47.62302000" lon="18.83534000">
        <ele>228.00000</ele>
        <time>2010-01-01T00:14:39Z</time>
      </trkpt>
      <trkpt lat="47.62311000" lon="18.83516000">
        <ele>228.00000</ele>
        <time>2010-01-01T00:14:45Z</time>
      </trkpt>
      <trkpt lat="47.62341000" lon="18.83472000">
        <ele>226.00000</ele>
        <time>2010-01-01T00:15:02Z</time>
      </trkpt>
      <trkpt lat="47.62401000" lon="18.83402000">
        <ele>225.00000</ele>
        <time>2010-01-01T00:15:33Z</time>
      </trkpt>
      <trkpt lat="47.62433000" lon="18.83367000">
        <ele>224.00000</ele>
        <time>2010-01-01T00:15:49Z</time>
      </trkpt>
      <trkpt lat="47.62461000" lon="18.83340000">
        <ele>222.00000</ele>
        <time>2010-01-01T00:16:02Z</time>
      </trkpt>
      <trkpt lat="47.62485000" lon="18.83318000">
        <ele>220.00000</ele>
        <time>2010-01-01T00:16:13Z</time>
      </trkpt>
      <trkpt lat="47.62506000" lon="18.83303000">
        <ele>219.00000</ele>
        <time>2010-01-01T00:16:23Z</time>
      </trkpt>
      <trkpt lat="47.62532000" lon="18.83286000">
        <ele>217.00000</ele>
        <time>2010-01-01T00:16:34Z</time>
      </trkpt>
      <trkpt lat="47.62535000" lon="18.83285000">
        <ele>217.00000</ele>
        <time>2010-01-01T00:16:35Z</time>
      </trkpt>
      <trkpt lat="47.62555000" lon="18.83276000">
        <ele>215.00000</ele>
        <time>2010-01-01T00:16:44Z</time>
      </trkpt>
      <trkpt lat="47.62577000" lon="18.83266000">
        <ele>215.00000</ele>
        <time>2010-01-01T00:16:53Z</time>
      </trkpt>
      <trkpt lat="47.62584000" lon="18.83262000">
        <ele>215.00000</ele>
        <time>2010-01-01T00:16:56Z</time>
      </trkpt>
      <trkpt lat="47.62588000" lon="18.83260000">
        <ele>215.00000</ele>
        <time>2010-01-01T00:16:57Z</time>
      </trkpt>
      <trkpt lat="47.62598000" lon="18.83252000">
        <ele>214.00000</ele>
        <time>2010-01-01T00:17:02Z</time>
      </trkpt>
      <trkpt lat="47.62627000" lon="18.83225000">
        <ele>214.00000</ele>
        <time>2010-01-01T00:17:16Z</time>
      </trkpt>
      <trkpt lat="47.62635000" lon="18.83217000">
        <ele>214.00000</ele>
        <time>2010-01-01T00:17:20Z</time>
      </trkpt>
      <trkpt lat="47.62673000" lon="18.83183000">
        <ele>212.00000</ele>
        <time>2010-01-01T00:17:37Z</time>
      </trkpt>
      <trkpt lat="47.62778000" lon="18.83081000">
        <ele>209.00000</ele>
        <time>2010-01-01T00:18:28Z</time>
      </trkpt>
      <trkpt lat="47.62800000" lon="18.83054000">
        <ele>209.00000</ele>
        <time>2010-01-01T00:18:39Z</time>
      </trkpt>
      <trkpt lat="47.62808000" lon="18.83040000">
        <ele>209.00000</ele>
        <time>2010-01-01T00:18:44Z</time>
      </trkpt>
      <trkpt lat="47.62814000" lon="18.83029000">
        <ele>209.00000</ele>
        <time>2010-01-01T00:18:48Z</time>
      </trkpt>
    </trkseg>
  </trk>
</gpx>

