<?xml version="1.0" encoding="UTF-8"?>
<gpx xmlns="http://www.topografix.com/GPX/1/1" creator="turistautak.openstreetmap.hu" version="1.1" xmlns:xsi="http://www.w3.org/2001/XMLSchema-instance" xsi:schemaLocation="http://www.garmin.com/xmlschemas/GpxExtensions/v3 http://www.garmin.com/xmlschemas/GpxExtensions/v3/GpxExtensionsv3.xsd http://www.topografix.com/GPX/1/1 http://www.topografix.com/GPX/1/1/gpx.xsd">
	<metadata>
		<name>1511781552159s útvonal</name>
		<desc>1511781552159s útvonal</desc>
	</metadata>
<trk>
  <name>utv</name>
<trkseg><trkpt lat="47.610960" lon="18.954392">
        <ele>144.5</ele>
      </trkpt>
<trkpt lat="47.611042" lon="18.954403">
        <ele>145</ele>
      </trkpt>
<trkpt lat="47.611434" lon="18.954973">
        <ele>146.2</ele>
      </trkpt>
<trkpt lat="47.611492" lon="18.955049">
        <ele>146.8</ele>
      </trkpt>
<trkpt lat="47.612080" lon="18.955611">
        <ele>148.6</ele>
      </trkpt>
<trkpt lat="47.612112" lon="18.955762">
        <ele>150.4</ele>
      </trkpt>
<trkpt lat="47.611992" lon="18.956064">
        <ele>151.8</ele>
      </trkpt>
<trkpt lat="47.612090" lon="18.956290">
        <ele>155.2</ele>
      </trkpt>
<trkpt lat="47.612177" lon="18.956858">
        <ele>158.4</ele>
      </trkpt>
<trkpt lat="47.612279" lon="18.957023">
        <ele>162</ele>
      </trkpt>
<trkpt lat="47.612573" lon="18.957101">
        <ele>165.6</ele>
      </trkpt>
<trkpt lat="47.613116" lon="18.957730">
        <ele>169.2</ele>
      </trkpt>
<trkpt lat="47.613225" lon="18.958155">
        <ele>170</ele>
      </trkpt>
<trkpt lat="47.613346" lon="18.958264">
        <ele>171.6</ele>
      </trkpt>
<trkpt lat="47.613659" lon="18.958348">
        <ele>173.8</ele>
      </trkpt>
<trkpt lat="47.613899" lon="18.958291">
        <ele>176</ele>
      </trkpt>
<trkpt lat="47.614495" lon="18.958391">
        <ele>177.4</ele>
      </trkpt>
<trkpt lat="47.615129" lon="18.958817">
        <ele>179</ele>
      </trkpt>
<trkpt lat="47.615361" lon="18.959081">
        <ele>182.8</ele>
      </trkpt>
<trkpt lat="47.615612" lon="18.959608">
        <ele>184.2</ele>
      </trkpt>
<trkpt lat="47.615657" lon="18.959926">
        <ele>187.6</ele>
      </trkpt>
<trkpt lat="47.615903" lon="18.960459">
        <ele>191.8</ele>
      </trkpt>
<trkpt lat="47.615958" lon="18.960987">
        <ele>196</ele>
      </trkpt>
<trkpt lat="47.615940" lon="18.961270">
        <ele>193</ele>
      </trkpt>
<trkpt lat="47.616008" lon="18.961415">
        <ele>191.2</ele>
      </trkpt>
<trkpt lat="47.616058" lon="18.961501">
        <ele>187.4</ele>
      </trkpt>
<trkpt lat="47.616332" lon="18.961980">
        <ele>183.6</ele>
      </trkpt>
<trkpt lat="47.616383" lon="18.962389">
        <ele>179.6</ele>
      </trkpt>
<trkpt lat="47.616578" lon="18.962683">
        <ele>180.6</ele>
      </trkpt>
<trkpt lat="47.617038" lon="18.962858">
        <ele>180.4</ele>
      </trkpt>
<trkpt lat="47.617183" lon="18.962614">
        <ele>181.2</ele>
      </trkpt>
<trkpt lat="47.617251" lon="18.962588">
        <ele>182.4</ele>
      </trkpt>
<trkpt lat="47.617757" lon="18.962594">
        <ele>185.4</ele>
      </trkpt>
<trkpt lat="47.618527" lon="18.962554">
        <ele>188.4</ele>
      </trkpt>
<trkpt lat="47.619024" lon="18.963210">
        <ele>189.4</ele>
      </trkpt>
<trkpt lat="47.619246" lon="18.963757">
        <ele>192.8</ele>
      </trkpt>
<trkpt lat="47.619488" lon="18.964088">
        <ele>194</ele>
      </trkpt>
<trkpt lat="47.619615" lon="18.964771">
        <ele>193.4</ele>
      </trkpt>
<trkpt lat="47.619561" lon="18.965116">
        <ele>194</ele>
      </trkpt>
<trkpt lat="47.619853" lon="18.965777">
        <ele>196.6</ele>
      </trkpt>
<trkpt lat="47.620645" lon="18.966196">
        <ele>196.6</ele>
      </trkpt>
<trkpt lat="47.620823" lon="18.966413">
        <ele>198.4</ele>
      </trkpt>
<trkpt lat="47.621037" lon="18.967082">
        <ele>200.4</ele>
      </trkpt>
<trkpt lat="47.621224" lon="18.967136">
        <ele>202</ele>
      </trkpt>
<trkpt lat="47.621156" lon="18.967413">
        <ele>207.8</ele>
      </trkpt>
<trkpt lat="47.619882" lon="18.968475">
        <ele>212.8</ele>
      </trkpt>
<trkpt lat="47.619657" lon="18.969519">
        <ele>217.8</ele>
      </trkpt>
<trkpt lat="47.619426" lon="18.971329">
        <ele>222.8</ele>
      </trkpt>
<trkpt lat="47.619365" lon="18.971991">
        <ele>227</ele>
      </trkpt>
<trkpt lat="47.619196" lon="18.971942">
        <ele>227</ele>
      </trkpt>
<trkpt lat="47.619045" lon="18.972056">
        <ele>228.8</ele>
      </trkpt>
<trkpt lat="47.618895" lon="18.971870">
        <ele>230.6</ele>
      </trkpt>
<trkpt lat="47.618936" lon="18.972019">
        <ele>230.6</ele>
      </trkpt>
<trkpt lat="47.618864" lon="18.972289">
        <ele>232.4</ele>
      </trkpt>
<trkpt lat="47.618897" lon="18.972424">
        <ele>238.2</ele>
      </trkpt>
<trkpt lat="47.618487" lon="18.972728">
        <ele>242.2</ele>
      </trkpt>
<trkpt lat="47.618646" lon="18.973111">
        <ele>249.2</ele>
      </trkpt>
<trkpt lat="47.618810" lon="18.973989">
        <ele>259.8</ele>
      </trkpt>
<trkpt lat="47.618776" lon="18.974190">
        <ele>268.6</ele>
      </trkpt>
<trkpt lat="47.619027" lon="18.975064">
        <ele>270.4</ele>
      </trkpt>
<trkpt lat="47.618946" lon="18.975524">
        <ele>274.8</ele>
      </trkpt>
<trkpt lat="47.618767" lon="18.975642">
        <ele>273.6</ele>
      </trkpt>
<trkpt lat="47.618414" lon="18.976042">
        <ele>270.4</ele>
      </trkpt>
<trkpt lat="47.618083" lon="18.976347">
        <ele>270</ele>
      </trkpt>
<trkpt lat="47.617602" lon="18.976811">
        <ele>271</ele>
      </trkpt>
<trkpt lat="47.616774" lon="18.977696">
        <ele>269.4</ele>
      </trkpt>
<trkpt lat="47.616394" lon="18.978069">
        <ele>268.4</ele>
      </trkpt>
<trkpt lat="47.616149" lon="18.978224">
        <ele>269.4</ele>
      </trkpt>
<trkpt lat="47.615795" lon="18.978292">
        <ele>265.8</ele>
      </trkpt>
<trkpt lat="47.615296" lon="18.978465">
        <ele>263.8</ele>
      </trkpt>
<trkpt lat="47.614823" lon="18.978845">
        <ele>261.8</ele>
      </trkpt>
<trkpt lat="47.614527" lon="18.978883">
        <ele>261</ele>
      </trkpt>
<trkpt lat="47.614261" lon="18.978808">
        <ele>258.4</ele>
      </trkpt>
<trkpt lat="47.614053" lon="18.978756">
        <ele>257.6</ele>
      </trkpt>
<trkpt lat="47.613741" lon="18.978797">
        <ele>257.2</ele>
      </trkpt>
<trkpt lat="47.613426" lon="18.978947">
        <ele>256.8</ele>
      </trkpt>
<trkpt lat="47.613313" lon="18.978938">
        <ele>257.2</ele>
      </trkpt>
<trkpt lat="47.612891" lon="18.979259">
        <ele>256.4</ele>
      </trkpt>
<trkpt lat="47.612841" lon="18.979079">
        <ele>255.6</ele>
      </trkpt>
<trkpt lat="47.612251" lon="18.979030">
        <ele>255.2</ele>
      </trkpt>
<trkpt lat="47.611545" lon="18.979303">
        <ele>254.8</ele>
      </trkpt>
<trkpt lat="47.611422" lon="18.979433">
        <ele>254.6</ele>
      </trkpt>
<trkpt lat="47.611236" lon="18.979801">
        <ele>255.6</ele>
      </trkpt>
<trkpt lat="47.610826" lon="18.980024">
        <ele>257</ele>
      </trkpt>
<trkpt lat="47.609955" lon="18.980229">
        <ele>258.2</ele>
      </trkpt>
<trkpt lat="47.609907" lon="18.980316">
        <ele>258.6</ele>
      </trkpt>
<trkpt lat="47.609720" lon="18.981150">
        <ele>257.6</ele>
      </trkpt>
<trkpt lat="47.609355" lon="18.981994">
        <ele>256.6</ele>
      </trkpt>
<trkpt lat="47.609193" lon="18.982714">
        <ele>254.8</ele>
      </trkpt>
<trkpt lat="47.609180" lon="18.983089">
        <ele>252.4</ele>
      </trkpt>
<trkpt lat="47.608912" lon="18.983598">
        <ele>249.4</ele>
      </trkpt>
<trkpt lat="47.608352" lon="18.984261">
        <ele>248.2</ele>
      </trkpt>
<trkpt lat="47.607893" lon="18.984960">
        <ele>246.6</ele>
      </trkpt>
<trkpt lat="47.607345" lon="18.985626">
        <ele>245.4</ele>
      </trkpt>
<trkpt lat="47.607065" lon="18.986186">
        <ele>244.2</ele>
      </trkpt>
<trkpt lat="47.607027" lon="18.986404">
        <ele>244.4</ele>
      </trkpt>
<trkpt lat="47.606863" lon="18.986644">
        <ele>244</ele>
      </trkpt>
<trkpt lat="47.606591" lon="18.986741">
        <ele>243.8</ele>
      </trkpt>
<trkpt lat="47.606346" lon="18.986712">
        <ele>241.6</ele>
      </trkpt>
<trkpt lat="47.606156" lon="18.986815">
        <ele>239.4</ele>
      </trkpt>
<trkpt lat="47.605570" lon="18.987876">
        <ele>236.4</ele>
      </trkpt>
<trkpt lat="47.604956" lon="18.988142">
        <ele>233.4</ele>
      </trkpt>
<trkpt lat="47.604850" lon="18.988307">
        <ele>230.6</ele>
      </trkpt>
<trkpt lat="47.604523" lon="18.988799">
        <ele>230.2</ele>
      </trkpt>
<trkpt lat="47.604094" lon="18.989133">
        <ele>229.2</ele>
      </trkpt>
<trkpt lat="47.603863" lon="18.989329">
        <ele>229</ele>
      </trkpt>
<trkpt lat="47.603567" lon="18.989400">
        <ele>231.4</ele>
      </trkpt>
<trkpt lat="47.603151" lon="18.989978">
        <ele>234.6</ele>
      </trkpt>
<trkpt lat="47.603085" lon="18.990070">
        <ele>237.4</ele>
      </trkpt>
<trkpt lat="47.602647" lon="18.989195">
        <ele>241.6</ele>
      </trkpt>
<trkpt lat="47.602242" lon="18.988568">
        <ele>245.8</ele>
      </trkpt>
<trkpt lat="47.602101" lon="18.988417">
        <ele>248</ele>
      </trkpt>
<trkpt lat="47.602045" lon="18.988304">
        <ele>248.8</ele>
      </trkpt>
<trkpt lat="47.602082" lon="18.987921">
        <ele>249.6</ele>
      </trkpt>
<trkpt lat="47.602038" lon="18.987632">
        <ele>251</ele>
      </trkpt>
<trkpt lat="47.601541" lon="18.986728">
        <ele>252.4</ele>
      </trkpt>
<trkpt lat="47.601438" lon="18.986708">
        <ele>253.2</ele>
      </trkpt>
<trkpt lat="47.601181" lon="18.986904">
        <ele>256.2</ele>
      </trkpt>
<trkpt lat="47.600770" lon="18.986784">
        <ele>259</ele>
      </trkpt>
<trkpt lat="47.600626" lon="18.986517">
        <ele>260.6</ele>
      </trkpt>
<trkpt lat="47.599966" lon="18.986496">
        <ele>263</ele>
      </trkpt>
<trkpt lat="47.599712" lon="18.986147">
        <ele>265.4</ele>
      </trkpt>
<trkpt lat="47.599508" lon="18.986191">
        <ele>266.2</ele>
      </trkpt>
<trkpt lat="47.599197" lon="18.986388">
        <ele>266.8</ele>
      </trkpt>
<trkpt lat="47.599031" lon="18.986373">
        <ele>267.2</ele>
      </trkpt>
<trkpt lat="47.598911" lon="18.986442">
        <ele>266.8</ele>
      </trkpt>
<trkpt lat="47.598670" lon="18.986894">
        <ele>266.8</ele>
      </trkpt>
<trkpt lat="47.598547" lon="18.986947">
        <ele>266.8</ele>
      </trkpt>
<trkpt lat="47.598180" lon="18.986913">
        <ele>267.2</ele>
      </trkpt>
<trkpt lat="47.598054" lon="18.987129">
        <ele>267.6</ele>
      </trkpt>
<trkpt lat="47.598017" lon="18.987302">
        <ele>268.4</ele>
      </trkpt>
<trkpt lat="47.598058" lon="18.987663">
        <ele>268.4</ele>
      </trkpt>
<trkpt lat="47.597886" lon="18.988088">
        <ele>269.4</ele>
      </trkpt>
<trkpt lat="47.597930" lon="18.988144">
        <ele>271</ele>
      </trkpt>
<trkpt lat="47.597762" lon="18.988404">
        <ele>272.6</ele>
      </trkpt>
<trkpt lat="47.597702" lon="18.988784">
        <ele>271.2</ele>
      </trkpt>
<trkpt lat="47.597719" lon="18.989996">
        <ele>270.2</ele>
      </trkpt>
<trkpt lat="47.597225" lon="18.990345">
        <ele>268.2</ele>
      </trkpt>
<trkpt lat="47.596955" lon="18.990322">
        <ele>266.6</ele>
      </trkpt>
<trkpt lat="47.596867" lon="18.990190">
        <ele>265</ele>
      </trkpt>
<trkpt lat="47.596808" lon="18.990190">
        <ele>262.2</ele>
      </trkpt>
<trkpt lat="47.596525" lon="18.990690">
        <ele>259.4</ele>
      </trkpt>
<trkpt lat="47.596409" lon="18.991033">
        <ele>256</ele>
      </trkpt>
<trkpt lat="47.596177" lon="18.991713">
        <ele>249.8</ele>
      </trkpt>
<trkpt lat="47.596096" lon="18.991745">
        <ele>241.8</ele>
      </trkpt>
<trkpt lat="47.595985" lon="18.991148">
        <ele>237.6</ele>
      </trkpt>
<trkpt lat="47.595941" lon="18.990335">
        <ele>233.4</ele>
      </trkpt>
<trkpt lat="47.596086" lon="18.989267">
        <ele>228.6</ele>
      </trkpt>
<trkpt lat="47.595969" lon="18.988966">
        <ele>225.6</ele>
      </trkpt>
<trkpt lat="47.595816" lon="18.988881">
        <ele>224.4</ele>
      </trkpt>
<trkpt lat="47.595706" lon="18.988737">
        <ele>221.2</ele>
      </trkpt>
<trkpt lat="47.595478" lon="18.988654">
        <ele>218</ele>
      </trkpt>
<trkpt lat="47.595790" lon="18.987984">
        <ele>216.8</ele>
      </trkpt>
<trkpt lat="47.596032" lon="18.987763">
        <ele>212</ele>
      </trkpt>
<trkpt lat="47.596144" lon="18.987432">
        <ele>207.2</ele>
      </trkpt>
<trkpt lat="47.596455" lon="18.987072">
        <ele>201.2</ele>
      </trkpt>
<trkpt lat="47.596861" lon="18.985846">
        <ele>202.6</ele>
      </trkpt>
<trkpt lat="47.597001" lon="18.985555">
        <ele>199.4</ele>
      </trkpt>
<trkpt lat="47.597077" lon="18.985217">
        <ele>196.8</ele>
      </trkpt>
<trkpt lat="47.597269" lon="18.984797">
        <ele>194.2</ele>
      </trkpt>
<trkpt lat="47.597543" lon="18.983760">
        <ele>197.6</ele>
      </trkpt>
<trkpt lat="47.597697" lon="18.983574">
        <ele>193.6</ele>
      </trkpt>
<trkpt lat="47.597858" lon="18.983194">
        <ele>193.4</ele>
      </trkpt>
<trkpt lat="47.597948" lon="18.982652">
        <ele>196.2</ele>
      </trkpt>
<trkpt lat="47.598054" lon="18.982539">
        <ele>203.8</ele>
      </trkpt>
<trkpt lat="47.598309" lon="18.982463">
        <ele>208.6</ele>
      </trkpt>
<trkpt lat="47.598517" lon="18.982293">
        <ele>213.4</ele>
      </trkpt>
<trkpt lat="47.598985" lon="18.982084">
        <ele>215.8</ele>
      </trkpt>
<trkpt lat="47.599430" lon="18.982209">
        <ele>218.6</ele>
      </trkpt>
<trkpt lat="47.599511" lon="18.982171">
        <ele>213.6</ele>
      </trkpt>
<trkpt lat="47.599542" lon="18.982030">
        <ele>208.6</ele>
      </trkpt>
<trkpt lat="47.600047" lon="18.981189">
        <ele>203.6</ele>
      </trkpt>
<trkpt lat="47.600341" lon="18.980197">
        <ele>201</ele>
      </trkpt>
<trkpt lat="47.600272" lon="18.980031">
        <ele>195.6</ele>
      </trkpt>
<trkpt lat="47.600311" lon="18.979866">
        <ele>188.2</ele>
      </trkpt>
<trkpt lat="47.600405" lon="18.979749">
        <ele>180.8</ele>
      </trkpt>
<trkpt lat="47.600434" lon="18.979033">
        <ele>173.4</ele>
      </trkpt>
<trkpt lat="47.600377" lon="18.978532">
        <ele>166</ele>
      </trkpt>
<trkpt lat="47.600214" lon="18.978189">
        <ele>163</ele>
      </trkpt>
<trkpt lat="47.600218" lon="18.978004">
        <ele>165</ele>
      </trkpt>
<trkpt lat="47.600382" lon="18.978044">
        <ele>167</ele>
      </trkpt>
<trkpt lat="47.600442" lon="18.977967">
        <ele>169</ele>
      </trkpt>
<trkpt lat="47.600638" lon="18.978017">
        <ele>175.2</ele>
      </trkpt>
<trkpt lat="47.600717" lon="18.978213">
        <ele>179.4</ele>
      </trkpt>
<trkpt lat="47.601047" lon="18.978482">
        <ele>188</ele>
      </trkpt>
<trkpt lat="47.601810" lon="18.978575">
        <ele>196.6</ele>
      </trkpt>
<trkpt lat="47.602034" lon="18.978591">
        <ele>205.2</ele>
      </trkpt>
<trkpt lat="47.602142" lon="18.978690">
        <ele>209.6</ele>
      </trkpt>
<trkpt lat="47.602372" lon="18.978695">
        <ele>214</ele>
      </trkpt>
<trkpt lat="47.602649" lon="18.978490">
        <ele>214.2</ele>
      </trkpt>
<trkpt lat="47.602715" lon="18.978494">
        <ele>214.4</ele>
      </trkpt>
<trkpt lat="47.602848" lon="18.978058">
        <ele>215.2</ele>
      </trkpt>
<trkpt lat="47.603973" lon="18.977006">
        <ele>216</ele>
      </trkpt>
<trkpt lat="47.604574" lon="18.976742">
        <ele>216.8</ele>
      </trkpt>
<trkpt lat="47.604986" lon="18.976369">
        <ele>217.4</ele>
      </trkpt>
<trkpt lat="47.605094" lon="18.976368">
        <ele>218.2</ele>
      </trkpt>
<trkpt lat="47.605209" lon="18.976436">
        <ele>218.4</ele>
      </trkpt>
<trkpt lat="47.605350" lon="18.976775">
        <ele>218.6</ele>
      </trkpt>
<trkpt lat="47.605461" lon="18.976819">
        <ele>218.8</ele>
      </trkpt>
<trkpt lat="47.605736" lon="18.976717">
        <ele>221</ele>
      </trkpt>
<trkpt lat="47.605881" lon="18.976805">
        <ele>223</ele>
      </trkpt>
<trkpt lat="47.606051" lon="18.977036">
        <ele>224</ele>
      </trkpt>
<trkpt lat="47.606252" lon="18.977128">
        <ele>225</ele>
      </trkpt>
<trkpt lat="47.606611" lon="18.977095">
        <ele>227.2</ele>
      </trkpt>
<trkpt lat="47.606710" lon="18.977015">
        <ele>226.2</ele>
      </trkpt>
<trkpt lat="47.606925" lon="18.976972">
        <ele>223.6</ele>
      </trkpt>
<trkpt lat="47.607325" lon="18.976716">
        <ele>223.4</ele>
      </trkpt>
<trkpt lat="47.607456" lon="18.975931">
        <ele>222.2</ele>
      </trkpt>
<trkpt lat="47.607828" lon="18.974779">
        <ele>219.2</ele>
      </trkpt>
<trkpt lat="47.608044" lon="18.974272">
        <ele>217.2</ele>
      </trkpt>
<trkpt lat="47.608316" lon="18.973131">
        <ele>221.2</ele>
      </trkpt>
<trkpt lat="47.608422" lon="18.972235">
        <ele>223.8</ele>
      </trkpt>
<trkpt lat="47.608658" lon="18.971347">
        <ele>227</ele>
      </trkpt>
<trkpt lat="47.608819" lon="18.971026">
        <ele>230.4</ele>
      </trkpt>
<trkpt lat="47.609037" lon="18.970154">
        <ele>234</ele>
      </trkpt>
<trkpt lat="47.608780" lon="18.968894">
        <ele>233.4</ele>
      </trkpt>
<trkpt lat="47.608769" lon="18.968666">
        <ele>232</ele>
      </trkpt>
<trkpt lat="47.608844" lon="18.968195">
        <ele>226</ele>
      </trkpt>
<trkpt lat="47.608875" lon="18.967674">
        <ele>219</ele>
      </trkpt>
<trkpt lat="47.608823" lon="18.966998">
        <ele>214.4</ele>
      </trkpt>
<trkpt lat="47.609306" lon="18.964225">
        <ele>209.6</ele>
      </trkpt>
<trkpt lat="47.609506" lon="18.963627">
        <ele>205</ele>
      </trkpt>
<trkpt lat="47.609724" lon="18.962569">
        <ele>200</ele>
      </trkpt>
<trkpt lat="47.609712" lon="18.962201">
        <ele>196.4</ele>
      </trkpt>
<trkpt lat="47.609651" lon="18.961427">
        <ele>190.4</ele>
      </trkpt>
<trkpt lat="47.609572" lon="18.960414">
        <ele>186.8</ele>
      </trkpt>
<trkpt lat="47.609557" lon="18.960299">
        <ele>183.8</ele>
      </trkpt>
<trkpt lat="47.609566" lon="18.959876">
        <ele>186.2</ele>
      </trkpt>
<trkpt lat="47.609719" lon="18.959415">
        <ele>188.6</ele>
      </trkpt>
<trkpt lat="47.610016" lon="18.958908">
        <ele>189.4</ele>
      </trkpt>
<trkpt lat="47.610284" lon="18.958883">
        <ele>187.8</ele>
      </trkpt>
<trkpt lat="47.610363" lon="18.958794">
        <ele>184.6</ele>
      </trkpt>
<trkpt lat="47.610458" lon="18.958425">
        <ele>181.4</ele>
      </trkpt>
<trkpt lat="47.610495" lon="18.957933">
        <ele>179.8</ele>
      </trkpt>
<trkpt lat="47.610587" lon="18.957745">
        <ele>179.8</ele>
      </trkpt>
<trkpt lat="47.610767" lon="18.957813">
        <ele>179.8</ele>
      </trkpt>
<trkpt lat="47.611212" lon="18.958425">
        <ele>180.4</ele>
      </trkpt>
<trkpt lat="47.611533" lon="18.958630">
        <ele>181</ele>
      </trkpt>
<trkpt lat="47.611863" lon="18.958704">
        <ele>177.8</ele>
      </trkpt>
<trkpt lat="47.612207" lon="18.958524">
        <ele>174.6</ele>
      </trkpt>
<trkpt lat="47.612284" lon="18.958350">
        <ele>171.4</ele>
      </trkpt>
<trkpt lat="47.612409" lon="18.957771">
        <ele>166.6</ele>
      </trkpt>
<trkpt lat="47.612385" lon="18.957612">
        <ele>161.8</ele>
      </trkpt>
<trkpt lat="47.612298" lon="18.957461">
        <ele>159.2</ele>
      </trkpt>
<trkpt lat="47.612279" lon="18.957023">
        <ele>155.2</ele>
      </trkpt>
<trkpt lat="47.612177" lon="18.956858">
        <ele>151.8</ele>
      </trkpt>
<trkpt lat="47.612090" lon="18.956290">
        <ele>150.4</ele>
      </trkpt>
<trkpt lat="47.611992" lon="18.956064">
        <ele>148.6</ele>
      </trkpt>
<trkpt lat="47.612112" lon="18.955762">
        <ele>146.8</ele>
      </trkpt>
<trkpt lat="47.612080" lon="18.955611">
        <ele>146.2</ele>
      </trkpt>
<trkpt lat="47.611492" lon="18.955049">
        <ele>145</ele>
      </trkpt>
<trkpt lat="47.611434" lon="18.954973">
        <ele>144.4</ele>
      </trkpt>
<trkpt lat="47.611042" lon="18.954403">
        <ele>144.25</ele>
      </trkpt>
<trkpt lat="47.610960" lon="18.954392">
        <ele>144</ele>
      </trkpt>
<trkpt lat="47.610879" lon="18.954499">
        <ele>144</ele>
      </trkpt>
</trkseg>
</trk>
</gpx>



