<?xml version="1.0" encoding="utf-8"?>
<gpx xmlns="http://www.topografix.com/GPX/1/1" version="1.1" creator="https://mapy.cz/">
	<trk>
		<name>Route from Majdán utca to Parking lot</name>
		<trkseg>
			<trkpt lat="47.643285" lon="19.009619">
				<ele>190.000000</ele>
			</trkpt>
			<trkpt lat="47.643327" lon="19.009529">
				<ele>190.000000</ele>
			</trkpt>
			<trkpt lat="47.643793" lon="19.008577">
				<ele>191.000000</ele>
			</trkpt>
			<trkpt lat="47.643981" lon="19.008342">
				<ele>191.000000</ele>
			</trkpt>
			<trkpt lat="47.644217" lon="19.007911">
				<ele>192.000000</ele>
			</trkpt>
			<trkpt lat="47.644253" lon="19.007831">
				<ele>192.000000</ele>
			</trkpt>
			<trkpt lat="47.644283" lon="19.007749">
				<ele>192.000000</ele>
			</trkpt>
			<trkpt lat="47.644332" lon="19.007489">
				<ele>192.000000</ele>
			</trkpt>
			<trkpt lat="47.644356" lon="19.007408">
				<ele>192.000000</ele>
			</trkpt>
			<trkpt lat="47.644387" lon="19.007327">
				<ele>192.000000</ele>
			</trkpt>
			<trkpt lat="47.644519" lon="19.007022">
				<ele>192.000000</ele>
			</trkpt>
			<trkpt lat="47.644641" lon="19.006806">
				<ele>192.000000</ele>
			</trkpt>
			<trkpt lat="47.644737" lon="19.006663">
				<ele>192.000000</ele>
			</trkpt>
			<trkpt lat="47.644931" lon="19.006285">
				<ele>192.000000</ele>
			</trkpt>
			<trkpt lat="47.644979" lon="19.006151">
				<ele>192.000000</ele>
			</trkpt>
			<trkpt lat="47.644985" lon="19.006051">
				<ele>192.000000</ele>
			</trkpt>
			<trkpt lat="47.644967" lon="19.005800">
				<ele>193.000000</ele>
			</trkpt>
			<trkpt lat="47.645058" lon="19.005351">
				<ele>194.000000</ele>
			</trkpt>
			<trkpt lat="47.645137" lon="19.004875">
				<ele>196.000000</ele>
			</trkpt>
			<trkpt lat="47.645258" lon="19.004992">
				<ele>195.000000</ele>
			</trkpt>
			<trkpt lat="47.645355" lon="19.005082">
				<ele>195.000000</ele>
			</trkpt>
			<trkpt lat="47.645845" lon="19.005512">
				<ele>191.000000</ele>
			</trkpt>
			<trkpt lat="47.645966" lon="19.005630">
				<ele>190.000000</ele>
			</trkpt>
			<trkpt lat="47.646009" lon="19.005674">
				<ele>189.000000</ele>
			</trkpt>
			<trkpt lat="47.646202" lon="19.005837">
				<ele>188.000000</ele>
			</trkpt>
			<trkpt lat="47.646335" lon="19.005944">
				<ele>186.000000</ele>
			</trkpt>
			<trkpt lat="47.646365" lon="19.005998">
				<ele>186.000000</ele>
			</trkpt>
			<trkpt lat="47.646402" lon="19.006034">
				<ele>186.000000</ele>
			</trkpt>
			<trkpt lat="47.646463" lon="19.006070">
				<ele>185.000000</ele>
			</trkpt>
			<trkpt lat="47.646481" lon="19.005953">
				<ele>185.000000</ele>
			</trkpt>
			<trkpt lat="47.646481" lon="19.005927">
				<ele>185.000000</ele>
			</trkpt>
			<trkpt lat="47.646493" lon="19.005927">
				<ele>185.000000</ele>
			</trkpt>
			<trkpt lat="47.646511" lon="19.005927">
				<ele>185.000000</ele>
			</trkpt>
			<trkpt lat="47.646517" lon="19.005935">
				<ele>184.000000</ele>
			</trkpt>
			<trkpt lat="47.646523" lon="19.005944">
				<ele>184.000000</ele>
			</trkpt>
			<trkpt lat="47.646523" lon="19.005953">
				<ele>184.000000</ele>
			</trkpt>
			<trkpt lat="47.646517" lon="19.005961">
				<ele>184.000000</ele>
			</trkpt>
			<trkpt lat="47.646517" lon="19.005971">
				<ele>184.000000</ele>
			</trkpt>
			<trkpt lat="47.646517" lon="19.005980">
				<ele>185.000000</ele>
			</trkpt>
			<trkpt lat="47.646523" lon="19.005998">
				<ele>184.000000</ele>
			</trkpt>
			<trkpt lat="47.646529" lon="19.006016">
				<ele>184.000000</ele>
			</trkpt>
			<trkpt lat="47.646535" lon="19.006024">
				<ele>184.000000</ele>
			</trkpt>
			<trkpt lat="47.646535" lon="19.006034">
				<ele>184.000000</ele>
			</trkpt>
			<trkpt lat="47.646541" lon="19.006043">
				<ele>184.000000</ele>
			</trkpt>
			<trkpt lat="47.646541" lon="19.006061">
				<ele>184.000000</ele>
			</trkpt>
			<trkpt lat="47.646541" lon="19.006070">
				<ele>184.000000</ele>
			</trkpt>
			<trkpt lat="47.646535" lon="19.006078">
				<ele>184.000000</ele>
			</trkpt>
			<trkpt lat="47.646529" lon="19.006097">
				<ele>184.000000</ele>
			</trkpt>
			<trkpt lat="47.646529" lon="19.006106">
				<ele>184.000000</ele>
			</trkpt>
			<trkpt lat="47.646529" lon="19.006114">
				<ele>184.000000</ele>
			</trkpt>
			<trkpt lat="47.646529" lon="19.006114">
				<ele>184.000000</ele>
			</trkpt>
			<trkpt lat="47.646529" lon="19.006106">
				<ele>184.000000</ele>
			</trkpt>
			<trkpt lat="47.646529" lon="19.006097">
				<ele>184.000000</ele>
			</trkpt>
			<trkpt lat="47.646535" lon="19.006078">
				<ele>184.000000</ele>
			</trkpt>
			<trkpt lat="47.646541" lon="19.006070">
				<ele>184.000000</ele>
			</trkpt>
			<trkpt lat="47.646541" lon="19.006061">
				<ele>184.000000</ele>
			</trkpt>
			<trkpt lat="47.646541" lon="19.006043">
				<ele>184.000000</ele>
			</trkpt>
			<trkpt lat="47.646535" lon="19.006034">
				<ele>184.000000</ele>
			</trkpt>
			<trkpt lat="47.646535" lon="19.006024">
				<ele>184.000000</ele>
			</trkpt>
			<trkpt lat="47.646529" lon="19.006016">
				<ele>184.000000</ele>
			</trkpt>
			<trkpt lat="47.646523" lon="19.005998">
				<ele>184.000000</ele>
			</trkpt>
			<trkpt lat="47.646517" lon="19.005980">
				<ele>185.000000</ele>
			</trkpt>
			<trkpt lat="47.646517" lon="19.005971">
				<ele>184.000000</ele>
			</trkpt>
			<trkpt lat="47.646517" lon="19.005961">
				<ele>184.000000</ele>
			</trkpt>
			<trkpt lat="47.646523" lon="19.005953">
				<ele>184.000000</ele>
			</trkpt>
			<trkpt lat="47.646523" lon="19.005944">
				<ele>184.000000</ele>
			</trkpt>
			<trkpt lat="47.646517" lon="19.005935">
				<ele>184.000000</ele>
			</trkpt>
			<trkpt lat="47.646511" lon="19.005927">
				<ele>185.000000</ele>
			</trkpt>
			<trkpt lat="47.646493" lon="19.005927">
				<ele>185.000000</ele>
			</trkpt>
			<trkpt lat="47.646481" lon="19.005927">
				<ele>185.000000</ele>
			</trkpt>
			<trkpt lat="47.646481" lon="19.005953">
				<ele>185.000000</ele>
			</trkpt>
			<trkpt lat="47.646463" lon="19.006070">
				<ele>185.000000</ele>
			</trkpt>
			<trkpt lat="47.646402" lon="19.006034">
				<ele>186.000000</ele>
			</trkpt>
			<trkpt lat="47.646365" lon="19.005998">
				<ele>186.000000</ele>
			</trkpt>
			<trkpt lat="47.646335" lon="19.005944">
				<ele>186.000000</ele>
			</trkpt>
			<trkpt lat="47.646202" lon="19.005837">
				<ele>188.000000</ele>
			</trkpt>
			<trkpt lat="47.646009" lon="19.005674">
				<ele>189.000000</ele>
			</trkpt>
			<trkpt lat="47.645966" lon="19.005630">
				<ele>190.000000</ele>
			</trkpt>
			<trkpt lat="47.645845" lon="19.005512">
				<ele>191.000000</ele>
			</trkpt>
			<trkpt lat="47.645355" lon="19.005082">
				<ele>195.000000</ele>
			</trkpt>
			<trkpt lat="47.645258" lon="19.004992">
				<ele>195.000000</ele>
			</trkpt>
			<trkpt lat="47.645137" lon="19.004875">
				<ele>196.000000</ele>
			</trkpt>
			<trkpt lat="47.645197" lon="19.004695">
				<ele>196.000000</ele>
			</trkpt>
			<trkpt lat="47.645245" lon="19.004543">
				<ele>195.000000</ele>
			</trkpt>
			<trkpt lat="47.645282" lon="19.004390">
				<ele>194.000000</ele>
			</trkpt>
			<trkpt lat="47.645307" lon="19.004319">
				<ele>193.000000</ele>
			</trkpt>
			<trkpt lat="47.645313" lon="19.004237">
				<ele>192.000000</ele>
			</trkpt>
			<trkpt lat="47.645313" lon="19.004147">
				<ele>192.000000</ele>
			</trkpt>
			<trkpt lat="47.645300" lon="19.004057">
				<ele>191.000000</ele>
			</trkpt>
			<trkpt lat="47.645276" lon="19.003967">
				<ele>191.000000</ele>
			</trkpt>
			<trkpt lat="47.645221" lon="19.003860">
				<ele>191.000000</ele>
			</trkpt>
			<trkpt lat="47.645173" lon="19.003787">
				<ele>191.000000</ele>
			</trkpt>
			<trkpt lat="47.645149" lon="19.003716">
				<ele>191.000000</ele>
			</trkpt>
			<trkpt lat="47.645131" lon="19.003608">
				<ele>191.000000</ele>
			</trkpt>
			<trkpt lat="47.645149" lon="19.003464">
				<ele>189.000000</ele>
			</trkpt>
			<trkpt lat="47.645101" lon="19.003401">
				<ele>189.000000</ele>
			</trkpt>
			<trkpt lat="47.645064" lon="19.003366">
				<ele>190.000000</ele>
			</trkpt>
			<trkpt lat="47.644653" lon="19.002944">
				<ele>191.000000</ele>
			</trkpt>
			<trkpt lat="47.644362" lon="19.002692">
				<ele>191.000000</ele>
			</trkpt>
			<trkpt lat="47.644241" lon="19.002575">
				<ele>192.000000</ele>
			</trkpt>
			<trkpt lat="47.643721" lon="19.002171">
				<ele>193.000000</ele>
			</trkpt>
			<trkpt lat="47.643860" lon="19.001883">
				<ele>192.000000</ele>
			</trkpt>
			<trkpt lat="47.644229" lon="19.000958">
				<ele>193.000000</ele>
			</trkpt>
			<trkpt lat="47.644713" lon="18.999898">
				<ele>193.000000</ele>
			</trkpt>
			<trkpt lat="47.644816" lon="18.999709">
				<ele>194.000000</ele>
			</trkpt>
			<trkpt lat="47.644931" lon="18.999440">
				<ele>194.000000</ele>
			</trkpt>
			<trkpt lat="47.644961" lon="18.999359">
				<ele>194.000000</ele>
			</trkpt>
			<trkpt lat="47.645028" lon="18.999179">
				<ele>195.000000</ele>
			</trkpt>
			<trkpt lat="47.645155" lon="18.998757">
				<ele>196.000000</ele>
			</trkpt>
			<trkpt lat="47.645155" lon="18.998757">
				<ele>196.000000</ele>
			</trkpt>
			<trkpt lat="47.645209" lon="18.998569">
				<ele>197.000000</ele>
			</trkpt>
			<trkpt lat="47.645215" lon="18.998461">
				<ele>197.000000</ele>
			</trkpt>
			<trkpt lat="47.645227" lon="18.998300">
				<ele>197.000000</ele>
			</trkpt>
			<trkpt lat="47.645131" lon="18.997958">
				<ele>198.000000</ele>
			</trkpt>
			<trkpt lat="47.644877" lon="18.997545">
				<ele>197.000000</ele>
			</trkpt>
			<trkpt lat="47.644847" lon="18.997500">
				<ele>197.000000</ele>
			</trkpt>
			<trkpt lat="47.644574" lon="18.997176">
				<ele>198.000000</ele>
			</trkpt>
			<trkpt lat="47.644362" lon="18.997032">
				<ele>199.000000</ele>
			</trkpt>
			<trkpt lat="47.644277" lon="18.996808">
				<ele>199.000000</ele>
			</trkpt>
			<trkpt lat="47.644247" lon="18.996485">
				<ele>200.000000</ele>
			</trkpt>
			<trkpt lat="47.644320" lon="18.996126">
				<ele>200.000000</ele>
			</trkpt>
			<trkpt lat="47.644326" lon="18.995811">
				<ele>201.000000</ele>
			</trkpt>
			<trkpt lat="47.644417" lon="18.995326">
				<ele>202.000000</ele>
			</trkpt>
			<trkpt lat="47.644217" lon="18.994715">
				<ele>204.000000</ele>
			</trkpt>
			<trkpt lat="47.643920" lon="18.994346">
				<ele>204.000000</ele>
			</trkpt>
			<trkpt lat="47.643539" lon="18.993979">
				<ele>203.000000</ele>
			</trkpt>
			<trkpt lat="47.643448" lon="18.993637">
				<ele>201.000000</ele>
			</trkpt>
			<trkpt lat="47.643515" lon="18.993304">
				<ele>201.000000</ele>
			</trkpt>
			<trkpt lat="47.643430" lon="18.992793">
				<ele>200.000000</ele>
			</trkpt>
			<trkpt lat="47.643581" lon="18.992262">
				<ele>199.000000</ele>
			</trkpt>
			<trkpt lat="47.643575" lon="18.992119">
				<ele>199.000000</ele>
			</trkpt>
			<trkpt lat="47.643563" lon="18.991975">
				<ele>199.000000</ele>
			</trkpt>
			<trkpt lat="47.643593" lon="18.991805">
				<ele>199.000000</ele>
			</trkpt>
			<trkpt lat="47.643715" lon="18.991625">
				<ele>200.000000</ele>
			</trkpt>
			<trkpt lat="47.644193" lon="18.990807">
				<ele>203.000000</ele>
			</trkpt>
			<trkpt lat="47.644380" lon="18.990654">
				<ele>204.000000</ele>
			</trkpt>
			<trkpt lat="47.645270" lon="18.990170">
				<ele>206.000000</ele>
			</trkpt>
			<trkpt lat="47.645313" lon="18.990107">
				<ele>206.000000</ele>
			</trkpt>
			<trkpt lat="47.645712" lon="18.989253">
				<ele>208.000000</ele>
			</trkpt>
			<trkpt lat="47.645966" lon="18.989235">
				<ele>206.000000</ele>
			</trkpt>
			<trkpt lat="47.646559" lon="18.989954">
				<ele>200.000000</ele>
			</trkpt>
			<trkpt lat="47.646601" lon="18.989998">
				<ele>199.000000</ele>
			</trkpt>
			<trkpt lat="47.646601" lon="18.989998">
				<ele>199.000000</ele>
			</trkpt>
			<trkpt lat="47.647037" lon="18.990537">
				<ele>192.000000</ele>
			</trkpt>
			<trkpt lat="47.647152" lon="18.990726">
				<ele>191.000000</ele>
			</trkpt>
			<trkpt lat="47.647231" lon="18.990889">
				<ele>189.000000</ele>
			</trkpt>
			<trkpt lat="47.647315" lon="18.990780">
				<ele>188.000000</ele>
			</trkpt>
			<trkpt lat="47.647401" lon="18.990637">
				<ele>188.000000</ele>
			</trkpt>
			<trkpt lat="47.647455" lon="18.990564">
				<ele>187.000000</ele>
			</trkpt>
			<trkpt lat="47.647503" lon="18.990520">
				<ele>187.000000</ele>
			</trkpt>
			<trkpt lat="47.647558" lon="18.990493">
				<ele>186.000000</ele>
			</trkpt>
			<trkpt lat="47.647612" lon="18.990484">
				<ele>185.000000</ele>
			</trkpt>
			<trkpt lat="47.647775" lon="18.990466">
				<ele>183.000000</ele>
			</trkpt>
			<trkpt lat="47.647824" lon="18.990457">
				<ele>182.000000</ele>
			</trkpt>
			<trkpt lat="47.647951" lon="18.990394">
				<ele>181.000000</ele>
			</trkpt>
			<trkpt lat="47.647969" lon="18.990367">
				<ele>181.000000</ele>
			</trkpt>
			<trkpt lat="47.647987" lon="18.990340">
				<ele>181.000000</ele>
			</trkpt>
			<trkpt lat="47.648012" lon="18.990295">
				<ele>181.000000</ele>
			</trkpt>
			<trkpt lat="47.648054" lon="18.990250">
				<ele>181.000000</ele>
			</trkpt>
			<trkpt lat="47.648133" lon="18.990178">
				<ele>181.000000</ele>
			</trkpt>
			<trkpt lat="47.648205" lon="18.990116">
				<ele>180.000000</ele>
			</trkpt>
			<trkpt lat="47.648284" lon="18.990044">
				<ele>180.000000</ele>
			</trkpt>
			<trkpt lat="47.648332" lon="18.990008">
				<ele>180.000000</ele>
			</trkpt>
			<trkpt lat="47.648369" lon="18.989981">
				<ele>179.000000</ele>
			</trkpt>
			<trkpt lat="47.648399" lon="18.989963">
				<ele>179.000000</ele>
			</trkpt>
			<trkpt lat="47.648423" lon="18.989937">
				<ele>179.000000</ele>
			</trkpt>
			<trkpt lat="47.648441" lon="18.989927">
				<ele>179.000000</ele>
			</trkpt>
			<trkpt lat="47.648459" lon="18.989918">
				<ele>179.000000</ele>
			</trkpt>
			<trkpt lat="47.648484" lon="18.989900">
				<ele>179.000000</ele>
			</trkpt>
			<trkpt lat="47.648514" lon="18.989891">
				<ele>179.000000</ele>
			</trkpt>
			<trkpt lat="47.648550" lon="18.989864">
				<ele>178.000000</ele>
			</trkpt>
			<trkpt lat="47.648720" lon="18.989702">
				<ele>178.000000</ele>
			</trkpt>
			<trkpt lat="47.648756" lon="18.989667">
				<ele>178.000000</ele>
			</trkpt>
			<trkpt lat="47.648780" lon="18.989631">
				<ele>178.000000</ele>
			</trkpt>
			<trkpt lat="47.648810" lon="18.989577">
				<ele>178.000000</ele>
			</trkpt>
			<trkpt lat="47.648853" lon="18.989505">
				<ele>178.000000</ele>
			</trkpt>
			<trkpt lat="47.648901" lon="18.989432">
				<ele>178.000000</ele>
			</trkpt>
			<trkpt lat="47.648950" lon="18.989379">
				<ele>178.000000</ele>
			</trkpt>
			<trkpt lat="47.649034" lon="18.989289">
				<ele>178.000000</ele>
			</trkpt>
			<trkpt lat="47.649258" lon="18.989082">
				<ele>178.000000</ele>
			</trkpt>
			<trkpt lat="47.649258" lon="18.989082">
				<ele>178.000000</ele>
			</trkpt>
			<trkpt lat="47.649324" lon="18.989019">
				<ele>178.000000</ele>
			</trkpt>
			<trkpt lat="47.649410" lon="18.988895">
				<ele>179.000000</ele>
			</trkpt>
			<trkpt lat="47.649500" lon="18.988786">
				<ele>181.000000</ele>
			</trkpt>
			<trkpt lat="47.649500" lon="18.988786">
				<ele>181.000000</ele>
			</trkpt>
			<trkpt lat="47.649524" lon="18.988759">
				<ele>181.000000</ele>
			</trkpt>
			<trkpt lat="47.649591" lon="18.988642">
				<ele>183.000000</ele>
			</trkpt>
			<trkpt lat="47.649676" lon="18.988453">
				<ele>186.000000</ele>
			</trkpt>
			<trkpt lat="47.649706" lon="18.988382">
				<ele>187.000000</ele>
			</trkpt>
			<trkpt lat="47.649778" lon="18.988310">
				<ele>188.000000</ele>
			</trkpt>
			<trkpt lat="47.649821" lon="18.988266">
				<ele>189.000000</ele>
			</trkpt>
			<trkpt lat="47.649870" lon="18.988283">
				<ele>189.000000</ele>
			</trkpt>
			<trkpt lat="47.649900" lon="18.988329">
				<ele>188.000000</ele>
			</trkpt>
			<trkpt lat="47.649924" lon="18.988400">
				<ele>187.000000</ele>
			</trkpt>
			<trkpt lat="47.649954" lon="18.988436">
				<ele>186.000000</ele>
			</trkpt>
			<trkpt lat="47.650002" lon="18.988463">
				<ele>184.000000</ele>
			</trkpt>
			<trkpt lat="47.650008" lon="18.988480">
				<ele>184.000000</ele>
			</trkpt>
			<trkpt lat="47.650008" lon="18.988480">
				<ele>184.000000</ele>
			</trkpt>
			<trkpt lat="47.650002" lon="18.988463">
				<ele>184.000000</ele>
			</trkpt>
			<trkpt lat="47.649954" lon="18.988436">
				<ele>186.000000</ele>
			</trkpt>
			<trkpt lat="47.649924" lon="18.988400">
				<ele>187.000000</ele>
			</trkpt>
			<trkpt lat="47.649900" lon="18.988329">
				<ele>188.000000</ele>
			</trkpt>
			<trkpt lat="47.649870" lon="18.988283">
				<ele>189.000000</ele>
			</trkpt>
			<trkpt lat="47.649833" lon="18.988239">
				<ele>189.000000</ele>
			</trkpt>
			<trkpt lat="47.649778" lon="18.988193">
				<ele>189.000000</ele>
			</trkpt>
			<trkpt lat="47.649706" lon="18.987987">
				<ele>191.000000</ele>
			</trkpt>
			<trkpt lat="47.649567" lon="18.987763">
				<ele>190.000000</ele>
			</trkpt>
			<trkpt lat="47.649470" lon="18.987637">
				<ele>188.000000</ele>
			</trkpt>
			<trkpt lat="47.649410" lon="18.987618">
				<ele>188.000000</ele>
			</trkpt>
			<trkpt lat="47.649361" lon="18.987708">
				<ele>188.000000</ele>
			</trkpt>
			<trkpt lat="47.649324" lon="18.987797">
				<ele>187.000000</ele>
			</trkpt>
			<trkpt lat="47.649216" lon="18.987690">
				<ele>188.000000</ele>
			</trkpt>
			<trkpt lat="47.649143" lon="18.987600">
				<ele>189.000000</ele>
			</trkpt>
			<trkpt lat="47.649070" lon="18.987555">
				<ele>190.000000</ele>
			</trkpt>
			<trkpt lat="47.648932" lon="18.987528">
				<ele>191.000000</ele>
			</trkpt>
			<trkpt lat="47.648907" lon="18.987501">
				<ele>191.000000</ele>
			</trkpt>
			<trkpt lat="47.648883" lon="18.987466">
				<ele>192.000000</ele>
			</trkpt>
			<trkpt lat="47.648871" lon="18.987348">
				<ele>193.000000</ele>
			</trkpt>
			<trkpt lat="47.648883" lon="18.987151">
				<ele>194.000000</ele>
			</trkpt>
			<trkpt lat="47.648853" lon="18.986908">
				<ele>197.000000</ele>
			</trkpt>
			<trkpt lat="47.648938" lon="18.986092">
				<ele>209.000000</ele>
			</trkpt>
			<trkpt lat="47.648968" lon="18.985822">
				<ele>210.000000</ele>
			</trkpt>
			<trkpt lat="47.649040" lon="18.985292">
				<ele>215.000000</ele>
			</trkpt>
			<trkpt lat="47.649137" lon="18.984870">
				<ele>219.000000</ele>
			</trkpt>
			<trkpt lat="47.649162" lon="18.984761">
				<ele>220.000000</ele>
			</trkpt>
			<trkpt lat="47.649234" lon="18.983908">
				<ele>227.000000</ele>
			</trkpt>
			<trkpt lat="47.649240" lon="18.983845">
				<ele>228.000000</ele>
			</trkpt>
			<trkpt lat="47.649264" lon="18.983468">
				<ele>233.000000</ele>
			</trkpt>
			<trkpt lat="47.649270" lon="18.983432">
				<ele>233.000000</ele>
			</trkpt>
			<trkpt lat="47.649270" lon="18.983432">
				<ele>233.000000</ele>
			</trkpt>
			<trkpt lat="47.649355" lon="18.982839">
				<ele>239.000000</ele>
			</trkpt>
			<trkpt lat="47.649373" lon="18.982130">
				<ele>246.000000</ele>
			</trkpt>
			<trkpt lat="47.649337" lon="18.981654">
				<ele>251.000000</ele>
			</trkpt>
			<trkpt lat="47.649216" lon="18.980962">
				<ele>259.000000</ele>
			</trkpt>
			<trkpt lat="47.649155" lon="18.980468">
				<ele>265.000000</ele>
			</trkpt>
			<trkpt lat="47.649034" lon="18.979614">
				<ele>275.000000</ele>
			</trkpt>
			<trkpt lat="47.649004" lon="18.979488">
				<ele>276.000000</ele>
			</trkpt>
			<trkpt lat="47.648925" lon="18.979345">
				<ele>278.000000</ele>
			</trkpt>
			<trkpt lat="47.648750" lon="18.979067">
				<ele>282.000000</ele>
			</trkpt>
			<trkpt lat="47.648502" lon="18.978832">
				<ele>285.000000</ele>
			</trkpt>
			<trkpt lat="47.648338" lon="18.978734">
				<ele>286.000000</ele>
			</trkpt>
			<trkpt lat="47.648211" lon="18.978572">
				<ele>289.000000</ele>
			</trkpt>
			<trkpt lat="47.647927" lon="18.978033">
				<ele>294.000000</ele>
			</trkpt>
			<trkpt lat="47.647909" lon="18.977997">
				<ele>294.000000</ele>
			</trkpt>
			<trkpt lat="47.647800" lon="18.977737">
				<ele>295.000000</ele>
			</trkpt>
			<trkpt lat="47.647576" lon="18.977063">
				<ele>297.000000</ele>
			</trkpt>
			<trkpt lat="47.647545" lon="18.976947">
				<ele>297.000000</ele>
			</trkpt>
			<trkpt lat="47.647545" lon="18.976838">
				<ele>298.000000</ele>
			</trkpt>
			<trkpt lat="47.647588" lon="18.976614">
				<ele>298.000000</ele>
			</trkpt>
			<trkpt lat="47.647533" lon="18.976398">
				<ele>300.000000</ele>
			</trkpt>
			<trkpt lat="47.647419" lon="18.976371">
				<ele>301.000000</ele>
			</trkpt>
			<trkpt lat="47.647183" lon="18.976237">
				<ele>304.000000</ele>
			</trkpt>
			<trkpt lat="47.646898" lon="18.976102">
				<ele>305.000000</ele>
			</trkpt>
			<trkpt lat="47.646892" lon="18.975931">
				<ele>306.000000</ele>
			</trkpt>
			<trkpt lat="47.647037" lon="18.975410">
				<ele>310.000000</ele>
			</trkpt>
			<trkpt lat="47.647007" lon="18.975320">
				<ele>311.000000</ele>
			</trkpt>
			<trkpt lat="47.646892" lon="18.975087">
				<ele>314.000000</ele>
			</trkpt>
			<trkpt lat="47.646837" lon="18.974934">
				<ele>316.000000</ele>
			</trkpt>
			<trkpt lat="47.646777" lon="18.974691">
				<ele>319.000000</ele>
			</trkpt>
			<trkpt lat="47.646729" lon="18.974513">
				<ele>321.000000</ele>
			</trkpt>
			<trkpt lat="47.646723" lon="18.974467">
				<ele>322.000000</ele>
			</trkpt>
			<trkpt lat="47.646699" lon="18.974368">
				<ele>323.000000</ele>
			</trkpt>
			<trkpt lat="47.646687" lon="18.974297">
				<ele>323.000000</ele>
			</trkpt>
			<trkpt lat="47.646601" lon="18.974071">
				<ele>320.000000</ele>
			</trkpt>
			<trkpt lat="47.646589" lon="18.973947">
				<ele>316.000000</ele>
			</trkpt>
			<trkpt lat="47.646583" lon="18.973937">
				<ele>315.000000</ele>
			</trkpt>
			<trkpt lat="47.646583" lon="18.973937">
				<ele>315.000000</ele>
			</trkpt>
			<trkpt lat="47.646589" lon="18.973947">
				<ele>316.000000</ele>
			</trkpt>
			<trkpt lat="47.646601" lon="18.974071">
				<ele>320.000000</ele>
			</trkpt>
			<trkpt lat="47.646687" lon="18.974297">
				<ele>323.000000</ele>
			</trkpt>
			<trkpt lat="47.646699" lon="18.974368">
				<ele>323.000000</ele>
			</trkpt>
			<trkpt lat="47.646723" lon="18.974467">
				<ele>322.000000</ele>
			</trkpt>
			<trkpt lat="47.646729" lon="18.974513">
				<ele>321.000000</ele>
			</trkpt>
			<trkpt lat="47.646777" lon="18.974691">
				<ele>319.000000</ele>
			</trkpt>
			<trkpt lat="47.646837" lon="18.974934">
				<ele>316.000000</ele>
			</trkpt>
			<trkpt lat="47.646892" lon="18.975087">
				<ele>314.000000</ele>
			</trkpt>
			<trkpt lat="47.647007" lon="18.975320">
				<ele>311.000000</ele>
			</trkpt>
			<trkpt lat="47.647037" lon="18.975410">
				<ele>310.000000</ele>
			</trkpt>
			<trkpt lat="47.646892" lon="18.975931">
				<ele>306.000000</ele>
			</trkpt>
			<trkpt lat="47.646898" lon="18.976102">
				<ele>305.000000</ele>
			</trkpt>
			<trkpt lat="47.646874" lon="18.976075">
				<ele>305.000000</ele>
			</trkpt>
			<trkpt lat="47.646723" lon="18.975868">
				<ele>306.000000</ele>
			</trkpt>
			<trkpt lat="47.646625" lon="18.975761">
				<ele>304.000000</ele>
			</trkpt>
			<trkpt lat="47.646281" lon="18.975446">
				<ele>294.000000</ele>
			</trkpt>
			<trkpt lat="47.646159" lon="18.975293">
				<ele>292.000000</ele>
			</trkpt>
			<trkpt lat="47.646039" lon="18.975186">
				<ele>290.000000</ele>
			</trkpt>
			<trkpt lat="47.645948" lon="18.975132">
				<ele>289.000000</ele>
			</trkpt>
			<trkpt lat="47.645929" lon="18.975113">
				<ele>288.000000</ele>
			</trkpt>
			<trkpt lat="47.645724" lon="18.975050">
				<ele>284.000000</ele>
			</trkpt>
			<trkpt lat="47.645518" lon="18.974916">
				<ele>280.000000</ele>
			</trkpt>
			<trkpt lat="47.645288" lon="18.974736">
				<ele>275.000000</ele>
			</trkpt>
			<trkpt lat="47.645083" lon="18.974574">
				<ele>274.000000</ele>
			</trkpt>
			<trkpt lat="47.644901" lon="18.974574">
				<ele>276.000000</ele>
			</trkpt>
			<trkpt lat="47.644701" lon="18.974629">
				<ele>280.000000</ele>
			</trkpt>
			<trkpt lat="47.644435" lon="18.974691">
				<ele>285.000000</ele>
			</trkpt>
			<trkpt lat="47.644193" lon="18.974871">
				<ele>289.000000</ele>
			</trkpt>
			<trkpt lat="47.643890" lon="18.975113">
				<ele>294.000000</ele>
			</trkpt>
			<trkpt lat="47.643654" lon="18.975419">
				<ele>298.000000</ele>
			</trkpt>
			<trkpt lat="47.643333" lon="18.975563">
				<ele>306.000000</ele>
			</trkpt>
			<trkpt lat="47.643309" lon="18.975599">
				<ele>306.000000</ele>
			</trkpt>
			<trkpt lat="47.643230" lon="18.975706">
				<ele>308.000000</ele>
			</trkpt>
			<trkpt lat="47.643164" lon="18.975976">
				<ele>309.000000</ele>
			</trkpt>
			<trkpt lat="47.643043" lon="18.976407">
				<ele>313.000000</ele>
			</trkpt>
			<trkpt lat="47.642885" lon="18.976677">
				<ele>318.000000</ele>
			</trkpt>
			<trkpt lat="47.642667" lon="18.976991">
				<ele>324.000000</ele>
			</trkpt>
			<trkpt lat="47.642667" lon="18.976991">
				<ele>324.000000</ele>
			</trkpt>
			<trkpt lat="47.642655" lon="18.977010">
				<ele>324.000000</ele>
			</trkpt>
			<trkpt lat="47.642486" lon="18.977081">
				<ele>330.000000</ele>
			</trkpt>
			<trkpt lat="47.642407" lon="18.977018">
				<ele>333.000000</ele>
			</trkpt>
			<trkpt lat="47.642371" lon="18.976874">
				<ele>336.000000</ele>
			</trkpt>
			<trkpt lat="47.642353" lon="18.976623">
				<ele>339.000000</ele>
			</trkpt>
			<trkpt lat="47.642317" lon="18.976515">
				<ele>340.000000</ele>
			</trkpt>
			<trkpt lat="47.642201" lon="18.976497">
				<ele>343.000000</ele>
			</trkpt>
			<trkpt lat="47.642111" lon="18.976507">
				<ele>346.000000</ele>
			</trkpt>
			<trkpt lat="47.641984" lon="18.976748">
				<ele>346.000000</ele>
			</trkpt>
			<trkpt lat="47.641917" lon="18.976794">
				<ele>346.000000</ele>
			</trkpt>
			<trkpt lat="47.641717" lon="18.976920">
				<ele>348.000000</ele>
			</trkpt>
			<trkpt lat="47.641433" lon="18.977027">
				<ele>350.000000</ele>
			</trkpt>
			<trkpt lat="47.641154" lon="18.976955">
				<ele>349.000000</ele>
			</trkpt>
			<trkpt lat="47.640912" lon="18.976964">
				<ele>346.000000</ele>
			</trkpt>
			<trkpt lat="47.640852" lon="18.976964">
				<ele>345.000000</ele>
			</trkpt>
			<trkpt lat="47.640688" lon="18.977073">
				<ele>343.000000</ele>
			</trkpt>
			<trkpt lat="47.640676" lon="18.977423">
				<ele>342.000000</ele>
			</trkpt>
			<trkpt lat="47.640398" lon="18.977674">
				<ele>332.000000</ele>
			</trkpt>
			<trkpt lat="47.640295" lon="18.977773">
				<ele>328.000000</ele>
			</trkpt>
			<trkpt lat="47.640119" lon="18.977952">
				<ele>323.000000</ele>
			</trkpt>
			<trkpt lat="47.639962" lon="18.978042">
				<ele>320.000000</ele>
			</trkpt>
			<trkpt lat="47.639908" lon="18.978079">
				<ele>319.000000</ele>
			</trkpt>
			<trkpt lat="47.639992" lon="18.978222">
				<ele>318.000000</ele>
			</trkpt>
			<trkpt lat="47.640071" lon="18.978653">
				<ele>314.000000</ele>
			</trkpt>
			<trkpt lat="47.640053" lon="18.979031">
				<ele>309.000000</ele>
			</trkpt>
			<trkpt lat="47.640010" lon="18.979264">
				<ele>306.000000</ele>
			</trkpt>
			<trkpt lat="47.639974" lon="18.979650">
				<ele>301.000000</ele>
			</trkpt>
			<trkpt lat="47.639914" lon="18.980144">
				<ele>296.000000</ele>
			</trkpt>
			<trkpt lat="47.639799" lon="18.980889">
				<ele>286.000000</ele>
			</trkpt>
			<trkpt lat="47.639726" lon="18.981627">
				<ele>275.000000</ele>
			</trkpt>
			<trkpt lat="47.639926" lon="18.982381">
				<ele>268.000000</ele>
			</trkpt>
			<trkpt lat="47.639944" lon="18.982417">
				<ele>268.000000</ele>
			</trkpt>
			<trkpt lat="47.640017" lon="18.982543">
				<ele>269.000000</ele>
			</trkpt>
			<trkpt lat="47.640083" lon="18.982677">
				<ele>267.000000</ele>
			</trkpt>
			<trkpt lat="47.640198" lon="18.982821">
				<ele>266.000000</ele>
			</trkpt>
			<trkpt lat="47.640295" lon="18.982956">
				<ele>264.000000</ele>
			</trkpt>
			<trkpt lat="47.640368" lon="18.983019">
				<ele>263.000000</ele>
			</trkpt>
			<trkpt lat="47.640434" lon="18.983109">
				<ele>261.000000</ele>
			</trkpt>
			<trkpt lat="47.640592" lon="18.983226">
				<ele>258.000000</ele>
			</trkpt>
			<trkpt lat="47.640809" lon="18.983486">
				<ele>251.000000</ele>
			</trkpt>
			<trkpt lat="47.640846" lon="18.983594">
				<ele>248.000000</ele>
			</trkpt>
			<trkpt lat="47.640815" lon="18.983729">
				<ele>246.000000</ele>
			</trkpt>
			<trkpt lat="47.640858" lon="18.983863">
				<ele>245.000000</ele>
			</trkpt>
			<trkpt lat="47.640930" lon="18.983953">
				<ele>246.000000</ele>
			</trkpt>
			<trkpt lat="47.640930" lon="18.983953">
				<ele>246.000000</ele>
			</trkpt>
			<trkpt lat="47.640979" lon="18.984008">
				<ele>247.000000</ele>
			</trkpt>
			<trkpt lat="47.641082" lon="18.984025">
				<ele>248.000000</ele>
			</trkpt>
			<trkpt lat="47.641197" lon="18.984195">
				<ele>249.000000</ele>
			</trkpt>
			<trkpt lat="47.641263" lon="18.984375">
				<ele>250.000000</ele>
			</trkpt>
			<trkpt lat="47.641282" lon="18.984547">
				<ele>251.000000</ele>
			</trkpt>
			<trkpt lat="47.641288" lon="18.984681">
				<ele>252.000000</ele>
			</trkpt>
			<trkpt lat="47.641306" lon="18.984824">
				<ele>253.000000</ele>
			</trkpt>
			<trkpt lat="47.641336" lon="18.985050">
				<ele>254.000000</ele>
			</trkpt>
			<trkpt lat="47.641378" lon="18.985247">
				<ele>255.000000</ele>
			</trkpt>
			<trkpt lat="47.641427" lon="18.985363">
				<ele>256.000000</ele>
			</trkpt>
			<trkpt lat="47.641348" lon="18.985400">
				<ele>256.000000</ele>
			</trkpt>
			<trkpt lat="47.641269" lon="18.985471">
				<ele>256.000000</ele>
			</trkpt>
			<trkpt lat="47.641173" lon="18.985589">
				<ele>258.000000</ele>
			</trkpt>
			<trkpt lat="47.641058" lon="18.985705">
				<ele>258.000000</ele>
			</trkpt>
			<trkpt lat="47.640979" lon="18.985768">
				<ele>258.000000</ele>
			</trkpt>
			<trkpt lat="47.640864" lon="18.985839">
				<ele>258.000000</ele>
			</trkpt>
			<trkpt lat="47.640840" lon="18.985849">
				<ele>258.000000</ele>
			</trkpt>
			<trkpt lat="47.640779" lon="18.985866">
				<ele>259.000000</ele>
			</trkpt>
			<trkpt lat="47.640640" lon="18.985830">
				<ele>259.000000</ele>
			</trkpt>
			<trkpt lat="47.640543" lon="18.985830">
				<ele>261.000000</ele>
			</trkpt>
			<trkpt lat="47.640495" lon="18.985866">
				<ele>261.000000</ele>
			</trkpt>
			<trkpt lat="47.640470" lon="18.985839">
				<ele>262.000000</ele>
			</trkpt>
			<trkpt lat="47.640440" lon="18.985803">
				<ele>262.000000</ele>
			</trkpt>
			<trkpt lat="47.640380" lon="18.985740">
				<ele>263.000000</ele>
			</trkpt>
			<trkpt lat="47.640325" lon="18.985795">
				<ele>264.000000</ele>
			</trkpt>
			<trkpt lat="47.640283" lon="18.985795">
				<ele>265.000000</ele>
			</trkpt>
			<trkpt lat="47.640234" lon="18.985740">
				<ele>266.000000</ele>
			</trkpt>
			<trkpt lat="47.640186" lon="18.985723">
				<ele>267.000000</ele>
			</trkpt>
			<trkpt lat="47.640119" lon="18.985723">
				<ele>268.000000</ele>
			</trkpt>
			<trkpt lat="47.640089" lon="18.985660">
				<ele>269.000000</ele>
			</trkpt>
			<trkpt lat="47.640089" lon="18.985660">
				<ele>267.000000</ele>
			</trkpt>
			<trkpt lat="47.640089" lon="18.985660">
				<ele>267.000000</ele>
			</trkpt>
			<trkpt lat="47.640089" lon="18.985660">
				<ele>269.000000</ele>
			</trkpt>
			<trkpt lat="47.640119" lon="18.985723">
				<ele>268.000000</ele>
			</trkpt>
			<trkpt lat="47.640186" lon="18.985723">
				<ele>267.000000</ele>
			</trkpt>
			<trkpt lat="47.640234" lon="18.985740">
				<ele>266.000000</ele>
			</trkpt>
			<trkpt lat="47.640283" lon="18.985795">
				<ele>265.000000</ele>
			</trkpt>
			<trkpt lat="47.640325" lon="18.985795">
				<ele>264.000000</ele>
			</trkpt>
			<trkpt lat="47.640380" lon="18.985740">
				<ele>263.000000</ele>
			</trkpt>
			<trkpt lat="47.640440" lon="18.985803">
				<ele>262.000000</ele>
			</trkpt>
			<trkpt lat="47.640470" lon="18.985839">
				<ele>262.000000</ele>
			</trkpt>
			<trkpt lat="47.640495" lon="18.985866">
				<ele>261.000000</ele>
			</trkpt>
			<trkpt lat="47.640543" lon="18.985830">
				<ele>261.000000</ele>
			</trkpt>
			<trkpt lat="47.640640" lon="18.985830">
				<ele>259.000000</ele>
			</trkpt>
			<trkpt lat="47.640779" lon="18.985866">
				<ele>259.000000</ele>
			</trkpt>
			<trkpt lat="47.640840" lon="18.985849">
				<ele>258.000000</ele>
			</trkpt>
			<trkpt lat="47.640864" lon="18.985839">
				<ele>258.000000</ele>
			</trkpt>
			<trkpt lat="47.640979" lon="18.985768">
				<ele>258.000000</ele>
			</trkpt>
			<trkpt lat="47.641058" lon="18.985705">
				<ele>258.000000</ele>
			</trkpt>
			<trkpt lat="47.641173" lon="18.985589">
				<ele>258.000000</ele>
			</trkpt>
			<trkpt lat="47.641269" lon="18.985471">
				<ele>256.000000</ele>
			</trkpt>
			<trkpt lat="47.641348" lon="18.985400">
				<ele>256.000000</ele>
			</trkpt>
			<trkpt lat="47.641427" lon="18.985363">
				<ele>256.000000</ele>
			</trkpt>
			<trkpt lat="47.641475" lon="18.985480">
				<ele>256.000000</ele>
			</trkpt>
			<trkpt lat="47.641554" lon="18.985570">
				<ele>257.000000</ele>
			</trkpt>
			<trkpt lat="47.641596" lon="18.985642">
				<ele>257.000000</ele>
			</trkpt>
			<trkpt lat="47.641687" lon="18.985803">
				<ele>256.000000</ele>
			</trkpt>
			<trkpt lat="47.641760" lon="18.985975">
				<ele>255.000000</ele>
			</trkpt>
			<trkpt lat="47.641832" lon="18.986163">
				<ele>253.000000</ele>
			</trkpt>
			<trkpt lat="47.641869" lon="18.986361">
				<ele>250.000000</ele>
			</trkpt>
			<trkpt lat="47.641881" lon="18.986522">
				<ele>249.000000</ele>
			</trkpt>
			<trkpt lat="47.641844" lon="18.986692">
				<ele>248.000000</ele>
			</trkpt>
			<trkpt lat="47.641772" lon="18.986935">
				<ele>247.000000</ele>
			</trkpt>
			<trkpt lat="47.641675" lon="18.987178">
				<ele>245.000000</ele>
			</trkpt>
			<trkpt lat="47.641639" lon="18.987331">
				<ele>243.000000</ele>
			</trkpt>
			<trkpt lat="47.641620" lon="18.987591">
				<ele>241.000000</ele>
			</trkpt>
			<trkpt lat="47.641620" lon="18.987797">
				<ele>238.000000</ele>
			</trkpt>
			<trkpt lat="47.641669" lon="18.987987">
				<ele>235.000000</ele>
			</trkpt>
			<trkpt lat="47.641754" lon="18.988310">
				<ele>231.000000</ele>
			</trkpt>
			<trkpt lat="47.641832" lon="18.988579">
				<ele>226.000000</ele>
			</trkpt>
			<trkpt lat="47.641869" lon="18.988669">
				<ele>225.000000</ele>
			</trkpt>
			<trkpt lat="47.641857" lon="18.988849">
				<ele>223.000000</ele>
			</trkpt>
			<trkpt lat="47.641832" lon="18.988992">
				<ele>221.000000</ele>
			</trkpt>
			<trkpt lat="47.641881" lon="18.989082">
				<ele>220.000000</ele>
			</trkpt>
			<trkpt lat="47.641905" lon="18.989182">
				<ele>218.000000</ele>
			</trkpt>
			<trkpt lat="47.641911" lon="18.989245">
				<ele>217.000000</ele>
			</trkpt>
			<trkpt lat="47.641899" lon="18.989308">
				<ele>217.000000</ele>
			</trkpt>
			<trkpt lat="47.641881" lon="18.989388">
				<ele>216.000000</ele>
			</trkpt>
			<trkpt lat="47.641838" lon="18.989495">
				<ele>215.000000</ele>
			</trkpt>
			<trkpt lat="47.641832" lon="18.989621">
				<ele>214.000000</ele>
			</trkpt>
			<trkpt lat="47.641826" lon="18.989721">
				<ele>213.000000</ele>
			</trkpt>
			<trkpt lat="47.641905" lon="18.989847">
				<ele>211.000000</ele>
			</trkpt>
			<trkpt lat="47.642099" lon="18.990107">
				<ele>208.000000</ele>
			</trkpt>
			<trkpt lat="47.642189" lon="18.990187">
				<ele>207.000000</ele>
			</trkpt>
			<trkpt lat="47.642292" lon="18.990268">
				<ele>205.000000</ele>
			</trkpt>
			<trkpt lat="47.643055" lon="18.991392">
				<ele>196.000000</ele>
			</trkpt>
			<trkpt lat="47.643206" lon="18.991634">
				<ele>195.000000</ele>
			</trkpt>
			<trkpt lat="47.643297" lon="18.991759">
				<ele>196.000000</ele>
			</trkpt>
			<trkpt lat="47.643297" lon="18.991759">
				<ele>196.000000</ele>
			</trkpt>
			<trkpt lat="47.643575" lon="18.992119">
				<ele>199.000000</ele>
			</trkpt>
			<trkpt lat="47.643581" lon="18.992262">
				<ele>199.000000</ele>
			</trkpt>
			<trkpt lat="47.643430" lon="18.992793">
				<ele>200.000000</ele>
			</trkpt>
			<trkpt lat="47.643515" lon="18.993304">
				<ele>201.000000</ele>
			</trkpt>
			<trkpt lat="47.643448" lon="18.993637">
				<ele>201.000000</ele>
			</trkpt>
			<trkpt lat="47.643539" lon="18.993979">
				<ele>203.000000</ele>
			</trkpt>
			<trkpt lat="47.643920" lon="18.994346">
				<ele>204.000000</ele>
			</trkpt>
			<trkpt lat="47.644217" lon="18.994715">
				<ele>204.000000</ele>
			</trkpt>
			<trkpt lat="47.644417" lon="18.995326">
				<ele>202.000000</ele>
			</trkpt>
			<trkpt lat="47.644326" lon="18.995811">
				<ele>201.000000</ele>
			</trkpt>
			<trkpt lat="47.644320" lon="18.996126">
				<ele>200.000000</ele>
			</trkpt>
			<trkpt lat="47.644247" lon="18.996485">
				<ele>200.000000</ele>
			</trkpt>
			<trkpt lat="47.644277" lon="18.996808">
				<ele>199.000000</ele>
			</trkpt>
			<trkpt lat="47.644362" lon="18.997032">
				<ele>199.000000</ele>
			</trkpt>
			<trkpt lat="47.644574" lon="18.997176">
				<ele>198.000000</ele>
			</trkpt>
			<trkpt lat="47.644847" lon="18.997500">
				<ele>197.000000</ele>
			</trkpt>
			<trkpt lat="47.644877" lon="18.997545">
				<ele>197.000000</ele>
			</trkpt>
			<trkpt lat="47.645131" lon="18.997958">
				<ele>198.000000</ele>
			</trkpt>
			<trkpt lat="47.645227" lon="18.998300">
				<ele>197.000000</ele>
			</trkpt>
			<trkpt lat="47.645215" lon="18.998461">
				<ele>197.000000</ele>
			</trkpt>
			<trkpt lat="47.645209" lon="18.998569">
				<ele>197.000000</ele>
			</trkpt>
			<trkpt lat="47.645028" lon="18.999179">
				<ele>195.000000</ele>
			</trkpt>
			<trkpt lat="47.644961" lon="18.999359">
				<ele>194.000000</ele>
			</trkpt>
			<trkpt lat="47.644931" lon="18.999440">
				<ele>194.000000</ele>
			</trkpt>
			<trkpt lat="47.644816" lon="18.999709">
				<ele>194.000000</ele>
			</trkpt>
			<trkpt lat="47.644713" lon="18.999898">
				<ele>193.000000</ele>
			</trkpt>
			<trkpt lat="47.644229" lon="19.000958">
				<ele>193.000000</ele>
			</trkpt>
			<trkpt lat="47.643860" lon="19.001883">
				<ele>192.000000</ele>
			</trkpt>
			<trkpt lat="47.643721" lon="19.002171">
				<ele>193.000000</ele>
			</trkpt>
			<trkpt lat="47.644241" lon="19.002575">
				<ele>192.000000</ele>
			</trkpt>
			<trkpt lat="47.644362" lon="19.002692">
				<ele>191.000000</ele>
			</trkpt>
			<trkpt lat="47.644653" lon="19.002944">
				<ele>191.000000</ele>
			</trkpt>
			<trkpt lat="47.645064" lon="19.003366">
				<ele>190.000000</ele>
			</trkpt>
			<trkpt lat="47.645101" lon="19.003401">
				<ele>189.000000</ele>
			</trkpt>
			<trkpt lat="47.645149" lon="19.003464">
				<ele>189.000000</ele>
			</trkpt>
			<trkpt lat="47.645131" lon="19.003608">
				<ele>191.000000</ele>
			</trkpt>
			<trkpt lat="47.645149" lon="19.003716">
				<ele>191.000000</ele>
			</trkpt>
			<trkpt lat="47.645173" lon="19.003787">
				<ele>191.000000</ele>
			</trkpt>
			<trkpt lat="47.645221" lon="19.003860">
				<ele>191.000000</ele>
			</trkpt>
			<trkpt lat="47.645276" lon="19.003967">
				<ele>191.000000</ele>
			</trkpt>
			<trkpt lat="47.645300" lon="19.004057">
				<ele>191.000000</ele>
			</trkpt>
			<trkpt lat="47.645313" lon="19.004147">
				<ele>192.000000</ele>
			</trkpt>
			<trkpt lat="47.645313" lon="19.004237">
				<ele>192.000000</ele>
			</trkpt>
			<trkpt lat="47.645307" lon="19.004319">
				<ele>193.000000</ele>
			</trkpt>
			<trkpt lat="47.645282" lon="19.004390">
				<ele>194.000000</ele>
			</trkpt>
			<trkpt lat="47.645245" lon="19.004543">
				<ele>195.000000</ele>
			</trkpt>
			<trkpt lat="47.645197" lon="19.004695">
				<ele>196.000000</ele>
			</trkpt>
			<trkpt lat="47.645137" lon="19.004875">
				<ele>196.000000</ele>
			</trkpt>
			<trkpt lat="47.645058" lon="19.005351">
				<ele>194.000000</ele>
			</trkpt>
			<trkpt lat="47.644967" lon="19.005800">
				<ele>193.000000</ele>
			</trkpt>
			<trkpt lat="47.644985" lon="19.006051">
				<ele>192.000000</ele>
			</trkpt>
			<trkpt lat="47.644979" lon="19.006151">
				<ele>192.000000</ele>
			</trkpt>
			<trkpt lat="47.644931" lon="19.006285">
				<ele>192.000000</ele>
			</trkpt>
			<trkpt lat="47.644737" lon="19.006663">
				<ele>192.000000</ele>
			</trkpt>
			<trkpt lat="47.644641" lon="19.006806">
				<ele>192.000000</ele>
			</trkpt>
			<trkpt lat="47.644519" lon="19.007022">
				<ele>192.000000</ele>
			</trkpt>
			<trkpt lat="47.644387" lon="19.007327">
				<ele>192.000000</ele>
			</trkpt>
			<trkpt lat="47.644356" lon="19.007408">
				<ele>192.000000</ele>
			</trkpt>
			<trkpt lat="47.644332" lon="19.007489">
				<ele>192.000000</ele>
			</trkpt>
			<trkpt lat="47.644283" lon="19.007749">
				<ele>192.000000</ele>
			</trkpt>
			<trkpt lat="47.644253" lon="19.007831">
				<ele>192.000000</ele>
			</trkpt>
			<trkpt lat="47.644217" lon="19.007911">
				<ele>192.000000</ele>
			</trkpt>
			<trkpt lat="47.643981" lon="19.008342">
				<ele>191.000000</ele>
			</trkpt>
			<trkpt lat="47.643793" lon="19.008577">
				<ele>191.000000</ele>
			</trkpt>
			<trkpt lat="47.643327" lon="19.009529">
				<ele>190.000000</ele>
			</trkpt>
			<trkpt lat="47.643243" lon="19.009393">
				<ele>191.000000</ele>
			</trkpt>
			<trkpt lat="47.643218" lon="19.009430">
				<ele>191.000000</ele>
			</trkpt>
			<trkpt lat="47.643146" lon="19.009556">
				<ele>191.000000</ele>
			</trkpt>
		</trkseg>
	</trk>
</gpx>

