<?xml version="1.0" encoding="utf-8"?>
<gpx xmlns="http://www.topografix.com/GPX/1/1" version="1.1" creator="https://mapy.com/">
	<trk>
		<name>Elülső-Szoliszkó (Predné Solisko)</name>
		<trkseg>
			<trkpt lat="49.144325" lon="20.040390">
				<ele>1826.000000</ele>
			</trkpt>
			<trkpt lat="49.144331" lon="20.040282">
				<ele>1826.000000</ele>
			</trkpt>
			<trkpt lat="49.144349" lon="20.040157">
				<ele>1823.000000</ele>
			</trkpt>
			<trkpt lat="49.144378" lon="20.040012">
				<ele>1820.000000</ele>
			</trkpt>
			<trkpt lat="49.144361" lon="20.040040">
				<ele>1820.000000</ele>
			</trkpt>
			<trkpt lat="49.144337" lon="20.040075">
				<ele>1820.000000</ele>
			</trkpt>
			<trkpt lat="49.144314" lon="20.040138">
				<ele>1820.000000</ele>
			</trkpt>
			<trkpt lat="49.144291" lon="20.040228">
				<ele>1820.000000</ele>
			</trkpt>
			<trkpt lat="49.144272" lon="20.040274">
				<ele>1820.000000</ele>
			</trkpt>
			<trkpt lat="49.144255" lon="20.040300">
				<ele>1820.000000</ele>
			</trkpt>
			<trkpt lat="49.144214" lon="20.040327">
				<ele>1820.000000</ele>
			</trkpt>
			<trkpt lat="49.144196" lon="20.040354">
				<ele>1820.000000</ele>
			</trkpt>
			<trkpt lat="49.144179" lon="20.040426">
				<ele>1820.000000</ele>
			</trkpt>
			<trkpt lat="49.144149" lon="20.040534">
				<ele>1820.000000</ele>
			</trkpt>
			<trkpt lat="49.144144" lon="20.040731">
				<ele>1820.000000</ele>
			</trkpt>
			<trkpt lat="49.144144" lon="20.040983">
				<ele>1820.000000</ele>
			</trkpt>
			<trkpt lat="49.144191" lon="20.040983">
				<ele>1821.000000</ele>
			</trkpt>
			<trkpt lat="49.144232" lon="20.040929">
				<ele>1823.000000</ele>
			</trkpt>
			<trkpt lat="49.144314" lon="20.040786">
				<ele>1827.000000</ele>
			</trkpt>
			<trkpt lat="49.144443" lon="20.040731">
				<ele>1831.000000</ele>
			</trkpt>
			<trkpt lat="49.144484" lon="20.040624">
				<ele>1834.000000</ele>
			</trkpt>
			<trkpt lat="49.144567" lon="20.040561">
				<ele>1837.000000</ele>
			</trkpt>
			<trkpt lat="49.144678" lon="20.040543">
				<ele>1841.000000</ele>
			</trkpt>
			<trkpt lat="49.144761" lon="20.040480">
				<ele>1843.000000</ele>
			</trkpt>
			<trkpt lat="49.144795" lon="20.040444">
				<ele>1844.000000</ele>
			</trkpt>
			<trkpt lat="49.144861" lon="20.040398">
				<ele>1845.000000</ele>
			</trkpt>
			<trkpt lat="49.144872" lon="20.040337">
				<ele>1846.000000</ele>
			</trkpt>
			<trkpt lat="49.144884" lon="20.040264">
				<ele>1847.000000</ele>
			</trkpt>
			<trkpt lat="49.144919" lon="20.040165">
				<ele>1849.000000</ele>
			</trkpt>
			<trkpt lat="49.144978" lon="20.040094">
				<ele>1851.000000</ele>
			</trkpt>
			<trkpt lat="49.145007" lon="20.040021">
				<ele>1852.000000</ele>
			</trkpt>
			<trkpt lat="49.145078" lon="20.039958">
				<ele>1855.000000</ele>
			</trkpt>
			<trkpt lat="49.145113" lon="20.039869">
				<ele>1858.000000</ele>
			</trkpt>
			<trkpt lat="49.145148" lon="20.039860">
				<ele>1859.000000</ele>
			</trkpt>
			<trkpt lat="49.145237" lon="20.039914">
				<ele>1863.000000</ele>
			</trkpt>
			<trkpt lat="49.145278" lon="20.039958">
				<ele>1865.000000</ele>
			</trkpt>
			<trkpt lat="49.145307" lon="20.040147">
				<ele>1870.000000</ele>
			</trkpt>
			<trkpt lat="49.145331" lon="20.040184">
				<ele>1872.000000</ele>
			</trkpt>
			<trkpt lat="49.145418" lon="20.040165">
				<ele>1876.000000</ele>
			</trkpt>
			<trkpt lat="49.145448" lon="20.040201">
				<ele>1877.000000</ele>
			</trkpt>
			<trkpt lat="49.145483" lon="20.040300">
				<ele>1881.000000</ele>
			</trkpt>
			<trkpt lat="49.145548" lon="20.040345">
				<ele>1883.000000</ele>
			</trkpt>
			<trkpt lat="49.145654" lon="20.040300">
				<ele>1888.000000</ele>
			</trkpt>
			<trkpt lat="49.145689" lon="20.040247">
				<ele>1890.000000</ele>
			</trkpt>
			<trkpt lat="49.145724" lon="20.040220">
				<ele>1891.000000</ele>
			</trkpt>
			<trkpt lat="49.145760" lon="20.040210">
				<ele>1893.000000</ele>
			</trkpt>
			<trkpt lat="49.145771" lon="20.040255">
				<ele>1894.000000</ele>
			</trkpt>
			<trkpt lat="49.145795" lon="20.040300">
				<ele>1895.000000</ele>
			</trkpt>
			<trkpt lat="49.145854" lon="20.040310">
				<ele>1898.000000</ele>
			</trkpt>
			<trkpt lat="49.145888" lon="20.040371">
				<ele>1900.000000</ele>
			</trkpt>
			<trkpt lat="49.145924" lon="20.040461">
				<ele>1902.000000</ele>
			</trkpt>
			<trkpt lat="49.145965" lon="20.040516">
				<ele>1904.000000</ele>
			</trkpt>
			<trkpt lat="49.146012" lon="20.040624">
				<ele>1906.000000</ele>
			</trkpt>
			<trkpt lat="49.146053" lon="20.040660">
				<ele>1908.000000</ele>
			</trkpt>
			<trkpt lat="49.146135" lon="20.040696">
				<ele>1911.000000</ele>
			</trkpt>
			<trkpt lat="49.146194" lon="20.040668">
				<ele>1913.000000</ele>
			</trkpt>
			<trkpt lat="49.146188" lon="20.040507">
				<ele>1916.000000</ele>
			</trkpt>
			<trkpt lat="49.146212" lon="20.040408">
				<ele>1918.000000</ele>
			</trkpt>
			<trkpt lat="49.146259" lon="20.040327">
				<ele>1921.000000</ele>
			</trkpt>
			<trkpt lat="49.146306" lon="20.040310">
				<ele>1924.000000</ele>
			</trkpt>
			<trkpt lat="49.146371" lon="20.040337">
				<ele>1927.000000</ele>
			</trkpt>
			<trkpt lat="49.146458" lon="20.040318">
				<ele>1932.000000</ele>
			</trkpt>
			<trkpt lat="49.146511" lon="20.040247">
				<ele>1936.000000</ele>
			</trkpt>
			<trkpt lat="49.146523" lon="20.040192">
				<ele>1938.000000</ele>
			</trkpt>
			<trkpt lat="49.146553" lon="20.040184">
				<ele>1939.000000</ele>
			</trkpt>
			<trkpt lat="49.146623" lon="20.040264">
				<ele>1944.000000</ele>
			</trkpt>
			<trkpt lat="49.146664" lon="20.040274">
				<ele>1946.000000</ele>
			</trkpt>
			<trkpt lat="49.146682" lon="20.040255">
				<ele>1947.000000</ele>
			</trkpt>
			<trkpt lat="49.146700" lon="20.040102">
				<ele>1952.000000</ele>
			</trkpt>
			<trkpt lat="49.146729" lon="20.040075">
				<ele>1954.000000</ele>
			</trkpt>
			<trkpt lat="49.146800" lon="20.040165">
				<ele>1959.000000</ele>
			</trkpt>
			<trkpt lat="49.146823" lon="20.040157">
				<ele>1961.000000</ele>
			</trkpt>
			<trkpt lat="49.146847" lon="20.040075">
				<ele>1963.000000</ele>
			</trkpt>
			<trkpt lat="49.146882" lon="20.040067">
				<ele>1965.000000</ele>
			</trkpt>
			<trkpt lat="49.146917" lon="20.040130">
				<ele>1968.000000</ele>
			</trkpt>
			<trkpt lat="49.146935" lon="20.040147">
				<ele>1969.000000</ele>
			</trkpt>
			<trkpt lat="49.147000" lon="20.040102">
				<ele>1972.000000</ele>
			</trkpt>
			<trkpt lat="49.147058" lon="20.040021">
				<ele>1977.000000</ele>
			</trkpt>
			<trkpt lat="49.147187" lon="20.040031">
				<ele>1983.000000</ele>
			</trkpt>
			<trkpt lat="49.147258" lon="20.039968">
				<ele>1988.000000</ele>
			</trkpt>
			<trkpt lat="49.147317" lon="20.040012">
				<ele>1991.000000</ele>
			</trkpt>
			<trkpt lat="49.147375" lon="20.039932">
				<ele>1994.000000</ele>
			</trkpt>
			<trkpt lat="49.147411" lon="20.039842">
				<ele>1998.000000</ele>
			</trkpt>
			<trkpt lat="49.147446" lon="20.039824">
				<ele>1999.000000</ele>
			</trkpt>
			<trkpt lat="49.147481" lon="20.039842">
				<ele>2001.000000</ele>
			</trkpt>
			<trkpt lat="49.147504" lon="20.039977">
				<ele>2005.000000</ele>
			</trkpt>
			<trkpt lat="49.147540" lon="20.039958">
				<ele>2006.000000</ele>
			</trkpt>
			<trkpt lat="49.147575" lon="20.039887">
				<ele>2009.000000</ele>
			</trkpt>
			<trkpt lat="49.147698" lon="20.039887">
				<ele>2014.000000</ele>
			</trkpt>
			<trkpt lat="49.147769" lon="20.039842">
				<ele>2016.000000</ele>
			</trkpt>
			<trkpt lat="49.147810" lon="20.039779">
				<ele>2018.000000</ele>
			</trkpt>
			<trkpt lat="49.147863" lon="20.039771">
				<ele>2020.000000</ele>
			</trkpt>
			<trkpt lat="49.147910" lon="20.039654">
				<ele>2024.000000</ele>
			</trkpt>
			<trkpt lat="49.147951" lon="20.039608">
				<ele>2026.000000</ele>
			</trkpt>
			<trkpt lat="49.147992" lon="20.039599">
				<ele>2027.000000</ele>
			</trkpt>
			<trkpt lat="49.148080" lon="20.039591">
				<ele>2031.000000</ele>
			</trkpt>
			<trkpt lat="49.148104" lon="20.039572">
				<ele>2032.000000</ele>
			</trkpt>
			<trkpt lat="49.148145" lon="20.039564">
				<ele>2035.000000</ele>
			</trkpt>
			<trkpt lat="49.148186" lon="20.039591">
				<ele>2037.000000</ele>
			</trkpt>
			<trkpt lat="49.148221" lon="20.039582">
				<ele>2039.000000</ele>
			</trkpt>
			<trkpt lat="49.148251" lon="20.039608">
				<ele>2041.000000</ele>
			</trkpt>
			<trkpt lat="49.148292" lon="20.039635">
				<ele>2043.000000</ele>
			</trkpt>
			<trkpt lat="49.148363" lon="20.039618">
				<ele>2047.000000</ele>
			</trkpt>
			<trkpt lat="49.148439" lon="20.039564">
				<ele>2051.000000</ele>
			</trkpt>
			<trkpt lat="49.148462" lon="20.039564">
				<ele>2052.000000</ele>
			</trkpt>
			<trkpt lat="49.148486" lon="20.039572">
				<ele>2053.000000</ele>
			</trkpt>
			<trkpt lat="49.148515" lon="20.039455">
				<ele>2057.000000</ele>
			</trkpt>
			<trkpt lat="49.148580" lon="20.039455">
				<ele>2060.000000</ele>
			</trkpt>
			<trkpt lat="49.148621" lon="20.039402">
				<ele>2062.000000</ele>
			</trkpt>
			<trkpt lat="49.148644" lon="20.039402">
				<ele>2063.000000</ele>
			</trkpt>
			<trkpt lat="49.148674" lon="20.039419">
				<ele>2065.000000</ele>
			</trkpt>
			<trkpt lat="49.148709" lon="20.039411">
				<ele>2066.000000</ele>
			</trkpt>
			<trkpt lat="49.148756" lon="20.039356">
				<ele>2069.000000</ele>
			</trkpt>
			<trkpt lat="49.148827" lon="20.039366">
				<ele>2072.000000</ele>
			</trkpt>
			<trkpt lat="49.148885" lon="20.039303">
				<ele>2075.000000</ele>
			</trkpt>
			<trkpt lat="49.148944" lon="20.039303">
				<ele>2077.000000</ele>
			</trkpt>
			<trkpt lat="49.148980" lon="20.039303">
				<ele>2079.000000</ele>
			</trkpt>
			<trkpt lat="49.149021" lon="20.039285">
				<ele>2081.000000</ele>
			</trkpt>
			<trkpt lat="49.149056" lon="20.039258">
				<ele>2083.000000</ele>
			</trkpt>
			<trkpt lat="49.149085" lon="20.039222">
				<ele>2085.000000</ele>
			</trkpt>
			<trkpt lat="49.149121" lon="20.039222">
				<ele>2086.000000</ele>
			</trkpt>
			<trkpt lat="49.149167" lon="20.039222">
				<ele>2088.000000</ele>
			</trkpt>
			<trkpt lat="49.149208" lon="20.039249">
				<ele>2091.000000</ele>
			</trkpt>
			<trkpt lat="49.149267" lon="20.039222">
				<ele>2094.000000</ele>
			</trkpt>
			<trkpt lat="49.149303" lon="20.039205">
				<ele>2095.000000</ele>
			</trkpt>
			<trkpt lat="49.149350" lon="20.039205">
				<ele>2098.000000</ele>
			</trkpt>
			<trkpt lat="49.149455" lon="20.039178">
				<ele>2101.000000</ele>
			</trkpt>
			<trkpt lat="49.149514" lon="20.039168">
				<ele>2102.000000</ele>
			</trkpt>
			<trkpt lat="49.149550" lon="20.039132">
				<ele>2104.000000</ele>
			</trkpt>
			<trkpt lat="49.149579" lon="20.039088">
				<ele>2106.000000</ele>
			</trkpt>
			<trkpt lat="49.149614" lon="20.039060">
				<ele>2108.000000</ele>
			</trkpt>
			<trkpt lat="49.149620" lon="20.039060">
				<ele>2109.000000</ele>
			</trkpt>
			<trkpt lat="49.149620" lon="20.039060">
				<ele>2109.000000</ele>
			</trkpt>
			<trkpt lat="49.149614" lon="20.039060">
				<ele>2108.000000</ele>
			</trkpt>
			<trkpt lat="49.149579" lon="20.039088">
				<ele>2106.000000</ele>
			</trkpt>
			<trkpt lat="49.149550" lon="20.039132">
				<ele>2104.000000</ele>
			</trkpt>
			<trkpt lat="49.149514" lon="20.039168">
				<ele>2102.000000</ele>
			</trkpt>
			<trkpt lat="49.149455" lon="20.039178">
				<ele>2101.000000</ele>
			</trkpt>
			<trkpt lat="49.149350" lon="20.039205">
				<ele>2098.000000</ele>
			</trkpt>
			<trkpt lat="49.149303" lon="20.039205">
				<ele>2095.000000</ele>
			</trkpt>
			<trkpt lat="49.149267" lon="20.039222">
				<ele>2094.000000</ele>
			</trkpt>
			<trkpt lat="49.149208" lon="20.039249">
				<ele>2091.000000</ele>
			</trkpt>
			<trkpt lat="49.149167" lon="20.039222">
				<ele>2088.000000</ele>
			</trkpt>
			<trkpt lat="49.149121" lon="20.039222">
				<ele>2086.000000</ele>
			</trkpt>
			<trkpt lat="49.149085" lon="20.039222">
				<ele>2085.000000</ele>
			</trkpt>
			<trkpt lat="49.149056" lon="20.039258">
				<ele>2083.000000</ele>
			</trkpt>
			<trkpt lat="49.149021" lon="20.039285">
				<ele>2081.000000</ele>
			</trkpt>
			<trkpt lat="49.148980" lon="20.039303">
				<ele>2079.000000</ele>
			</trkpt>
			<trkpt lat="49.148944" lon="20.039303">
				<ele>2077.000000</ele>
			</trkpt>
			<trkpt lat="49.148885" lon="20.039303">
				<ele>2075.000000</ele>
			</trkpt>
			<trkpt lat="49.148827" lon="20.039366">
				<ele>2072.000000</ele>
			</trkpt>
			<trkpt lat="49.148756" lon="20.039356">
				<ele>2069.000000</ele>
			</trkpt>
			<trkpt lat="49.148709" lon="20.039411">
				<ele>2066.000000</ele>
			</trkpt>
			<trkpt lat="49.148674" lon="20.039419">
				<ele>2065.000000</ele>
			</trkpt>
			<trkpt lat="49.148644" lon="20.039402">
				<ele>2063.000000</ele>
			</trkpt>
			<trkpt lat="49.148621" lon="20.039402">
				<ele>2062.000000</ele>
			</trkpt>
			<trkpt lat="49.148580" lon="20.039455">
				<ele>2060.000000</ele>
			</trkpt>
			<trkpt lat="49.148515" lon="20.039455">
				<ele>2057.000000</ele>
			</trkpt>
			<trkpt lat="49.148486" lon="20.039572">
				<ele>2053.000000</ele>
			</trkpt>
			<trkpt lat="49.148462" lon="20.039564">
				<ele>2052.000000</ele>
			</trkpt>
			<trkpt lat="49.148439" lon="20.039564">
				<ele>2051.000000</ele>
			</trkpt>
			<trkpt lat="49.148363" lon="20.039618">
				<ele>2047.000000</ele>
			</trkpt>
			<trkpt lat="49.148292" lon="20.039635">
				<ele>2043.000000</ele>
			</trkpt>
			<trkpt lat="49.148251" lon="20.039608">
				<ele>2041.000000</ele>
			</trkpt>
			<trkpt lat="49.148221" lon="20.039582">
				<ele>2039.000000</ele>
			</trkpt>
			<trkpt lat="49.148186" lon="20.039591">
				<ele>2037.000000</ele>
			</trkpt>
			<trkpt lat="49.148145" lon="20.039564">
				<ele>2035.000000</ele>
			</trkpt>
			<trkpt lat="49.148104" lon="20.039572">
				<ele>2032.000000</ele>
			</trkpt>
			<trkpt lat="49.148080" lon="20.039591">
				<ele>2031.000000</ele>
			</trkpt>
			<trkpt lat="49.147992" lon="20.039599">
				<ele>2027.000000</ele>
			</trkpt>
			<trkpt lat="49.147951" lon="20.039608">
				<ele>2026.000000</ele>
			</trkpt>
			<trkpt lat="49.147910" lon="20.039654">
				<ele>2024.000000</ele>
			</trkpt>
			<trkpt lat="49.147863" lon="20.039771">
				<ele>2020.000000</ele>
			</trkpt>
			<trkpt lat="49.147810" lon="20.039779">
				<ele>2018.000000</ele>
			</trkpt>
			<trkpt lat="49.147769" lon="20.039842">
				<ele>2016.000000</ele>
			</trkpt>
			<trkpt lat="49.147698" lon="20.039887">
				<ele>2014.000000</ele>
			</trkpt>
			<trkpt lat="49.147575" lon="20.039887">
				<ele>2009.000000</ele>
			</trkpt>
			<trkpt lat="49.147540" lon="20.039958">
				<ele>2006.000000</ele>
			</trkpt>
			<trkpt lat="49.147504" lon="20.039977">
				<ele>2005.000000</ele>
			</trkpt>
			<trkpt lat="49.147481" lon="20.039842">
				<ele>2001.000000</ele>
			</trkpt>
			<trkpt lat="49.147446" lon="20.039824">
				<ele>1999.000000</ele>
			</trkpt>
			<trkpt lat="49.147411" lon="20.039842">
				<ele>1998.000000</ele>
			</trkpt>
			<trkpt lat="49.147375" lon="20.039932">
				<ele>1994.000000</ele>
			</trkpt>
			<trkpt lat="49.147317" lon="20.040012">
				<ele>1991.000000</ele>
			</trkpt>
			<trkpt lat="49.147258" lon="20.039968">
				<ele>1988.000000</ele>
			</trkpt>
			<trkpt lat="49.147187" lon="20.040031">
				<ele>1983.000000</ele>
			</trkpt>
			<trkpt lat="49.147058" lon="20.040021">
				<ele>1977.000000</ele>
			</trkpt>
			<trkpt lat="49.147000" lon="20.040102">
				<ele>1972.000000</ele>
			</trkpt>
			<trkpt lat="49.146935" lon="20.040147">
				<ele>1969.000000</ele>
			</trkpt>
			<trkpt lat="49.146917" lon="20.040130">
				<ele>1968.000000</ele>
			</trkpt>
			<trkpt lat="49.146882" lon="20.040067">
				<ele>1965.000000</ele>
			</trkpt>
			<trkpt lat="49.146847" lon="20.040075">
				<ele>1963.000000</ele>
			</trkpt>
			<trkpt lat="49.146823" lon="20.040157">
				<ele>1961.000000</ele>
			</trkpt>
			<trkpt lat="49.146800" lon="20.040165">
				<ele>1959.000000</ele>
			</trkpt>
			<trkpt lat="49.146729" lon="20.040075">
				<ele>1954.000000</ele>
			</trkpt>
			<trkpt lat="49.146700" lon="20.040102">
				<ele>1952.000000</ele>
			</trkpt>
			<trkpt lat="49.146682" lon="20.040255">
				<ele>1947.000000</ele>
			</trkpt>
			<trkpt lat="49.146664" lon="20.040274">
				<ele>1946.000000</ele>
			</trkpt>
			<trkpt lat="49.146623" lon="20.040264">
				<ele>1944.000000</ele>
			</trkpt>
			<trkpt lat="49.146553" lon="20.040184">
				<ele>1939.000000</ele>
			</trkpt>
			<trkpt lat="49.146523" lon="20.040192">
				<ele>1938.000000</ele>
			</trkpt>
			<trkpt lat="49.146511" lon="20.040247">
				<ele>1936.000000</ele>
			</trkpt>
			<trkpt lat="49.146458" lon="20.040318">
				<ele>1932.000000</ele>
			</trkpt>
			<trkpt lat="49.146371" lon="20.040337">
				<ele>1927.000000</ele>
			</trkpt>
			<trkpt lat="49.146306" lon="20.040310">
				<ele>1924.000000</ele>
			</trkpt>
			<trkpt lat="49.146259" lon="20.040327">
				<ele>1921.000000</ele>
			</trkpt>
			<trkpt lat="49.146212" lon="20.040408">
				<ele>1918.000000</ele>
			</trkpt>
			<trkpt lat="49.146188" lon="20.040507">
				<ele>1916.000000</ele>
			</trkpt>
			<trkpt lat="49.146194" lon="20.040668">
				<ele>1913.000000</ele>
			</trkpt>
			<trkpt lat="49.146135" lon="20.040696">
				<ele>1911.000000</ele>
			</trkpt>
			<trkpt lat="49.146053" lon="20.040660">
				<ele>1908.000000</ele>
			</trkpt>
			<trkpt lat="49.146012" lon="20.040624">
				<ele>1906.000000</ele>
			</trkpt>
			<trkpt lat="49.145965" lon="20.040516">
				<ele>1904.000000</ele>
			</trkpt>
			<trkpt lat="49.145924" lon="20.040461">
				<ele>1902.000000</ele>
			</trkpt>
			<trkpt lat="49.145888" lon="20.040371">
				<ele>1900.000000</ele>
			</trkpt>
			<trkpt lat="49.145854" lon="20.040310">
				<ele>1898.000000</ele>
			</trkpt>
			<trkpt lat="49.145795" lon="20.040300">
				<ele>1895.000000</ele>
			</trkpt>
			<trkpt lat="49.145771" lon="20.040255">
				<ele>1894.000000</ele>
			</trkpt>
			<trkpt lat="49.145760" lon="20.040210">
				<ele>1893.000000</ele>
			</trkpt>
			<trkpt lat="49.145724" lon="20.040220">
				<ele>1891.000000</ele>
			</trkpt>
			<trkpt lat="49.145689" lon="20.040247">
				<ele>1890.000000</ele>
			</trkpt>
			<trkpt lat="49.145654" lon="20.040300">
				<ele>1888.000000</ele>
			</trkpt>
			<trkpt lat="49.145548" lon="20.040345">
				<ele>1883.000000</ele>
			</trkpt>
			<trkpt lat="49.145483" lon="20.040300">
				<ele>1881.000000</ele>
			</trkpt>
			<trkpt lat="49.145448" lon="20.040201">
				<ele>1877.000000</ele>
			</trkpt>
			<trkpt lat="49.145418" lon="20.040165">
				<ele>1876.000000</ele>
			</trkpt>
			<trkpt lat="49.145331" lon="20.040184">
				<ele>1872.000000</ele>
			</trkpt>
			<trkpt lat="49.145307" lon="20.040147">
				<ele>1870.000000</ele>
			</trkpt>
			<trkpt lat="49.145278" lon="20.039958">
				<ele>1865.000000</ele>
			</trkpt>
			<trkpt lat="49.145237" lon="20.039914">
				<ele>1863.000000</ele>
			</trkpt>
			<trkpt lat="49.145148" lon="20.039860">
				<ele>1859.000000</ele>
			</trkpt>
			<trkpt lat="49.145113" lon="20.039869">
				<ele>1858.000000</ele>
			</trkpt>
			<trkpt lat="49.145078" lon="20.039958">
				<ele>1855.000000</ele>
			</trkpt>
			<trkpt lat="49.145007" lon="20.040021">
				<ele>1852.000000</ele>
			</trkpt>
			<trkpt lat="49.144978" lon="20.040094">
				<ele>1851.000000</ele>
			</trkpt>
			<trkpt lat="49.144919" lon="20.040165">
				<ele>1849.000000</ele>
			</trkpt>
			<trkpt lat="49.144884" lon="20.040264">
				<ele>1847.000000</ele>
			</trkpt>
			<trkpt lat="49.144872" lon="20.040337">
				<ele>1846.000000</ele>
			</trkpt>
			<trkpt lat="49.144861" lon="20.040398">
				<ele>1845.000000</ele>
			</trkpt>
			<trkpt lat="49.144795" lon="20.040444">
				<ele>1844.000000</ele>
			</trkpt>
			<trkpt lat="49.144761" lon="20.040480">
				<ele>1843.000000</ele>
			</trkpt>
			<trkpt lat="49.144678" lon="20.040543">
				<ele>1841.000000</ele>
			</trkpt>
			<trkpt lat="49.144567" lon="20.040561">
				<ele>1837.000000</ele>
			</trkpt>
			<trkpt lat="49.144484" lon="20.040624">
				<ele>1834.000000</ele>
			</trkpt>
			<trkpt lat="49.144443" lon="20.040731">
				<ele>1831.000000</ele>
			</trkpt>
			<trkpt lat="49.144314" lon="20.040786">
				<ele>1827.000000</ele>
			</trkpt>
			<trkpt lat="49.144232" lon="20.040929">
				<ele>1823.000000</ele>
			</trkpt>
			<trkpt lat="49.144191" lon="20.040983">
				<ele>1821.000000</ele>
			</trkpt>
			<trkpt lat="49.144144" lon="20.040983">
				<ele>1820.000000</ele>
			</trkpt>
			<trkpt lat="49.144144" lon="20.040731">
				<ele>1820.000000</ele>
			</trkpt>
			<trkpt lat="49.144149" lon="20.040534">
				<ele>1820.000000</ele>
			</trkpt>
			<trkpt lat="49.144179" lon="20.040426">
				<ele>1820.000000</ele>
			</trkpt>
			<trkpt lat="49.144196" lon="20.040354">
				<ele>1820.000000</ele>
			</trkpt>
			<trkpt lat="49.144214" lon="20.040327">
				<ele>1820.000000</ele>
			</trkpt>
			<trkpt lat="49.144255" lon="20.040300">
				<ele>1820.000000</ele>
			</trkpt>
			<trkpt lat="49.144272" lon="20.040274">
				<ele>1820.000000</ele>
			</trkpt>
			<trkpt lat="49.144291" lon="20.040228">
				<ele>1820.000000</ele>
			</trkpt>
			<trkpt lat="49.144314" lon="20.040138">
				<ele>1820.000000</ele>
			</trkpt>
			<trkpt lat="49.144337" lon="20.040075">
				<ele>1820.000000</ele>
			</trkpt>
			<trkpt lat="49.144361" lon="20.040040">
				<ele>1820.000000</ele>
			</trkpt>
			<trkpt lat="49.144378" lon="20.040012">
				<ele>1820.000000</ele>
			</trkpt>
			<trkpt lat="49.144349" lon="20.040157">
				<ele>1823.000000</ele>
			</trkpt>
			<trkpt lat="49.144331" lon="20.040282">
				<ele>1826.000000</ele>
			</trkpt>
			<trkpt lat="49.144325" lon="20.040390">
				<ele>1826.000000</ele>
			</trkpt>
		</trkseg>
	</trk>
</gpx>

