<?xml version="1.0" encoding="utf-8"?>
<gpx xmlns="http://www.topografix.com/GPX/1/1" version="1.1" creator="https://mapy.cz/">
	<trk>
		<name>Ferrata HZS C - idő 6:20óra :: táv 10km :: szint 780m</name>
		<trkseg>
			<trkpt lat="49.082579" lon="18.869669">
				<ele>532.000000</ele>
			</trkpt>
			<trkpt lat="49.082568" lon="18.869669">
				<ele>532.000000</ele>
			</trkpt>
			<trkpt lat="49.082479" lon="18.869642">
				<ele>531.000000</ele>
			</trkpt>
			<trkpt lat="49.082332" lon="18.869615">
				<ele>531.000000</ele>
			</trkpt>
			<trkpt lat="49.081938" lon="18.869517">
				<ele>527.000000</ele>
			</trkpt>
			<trkpt lat="49.081838" lon="18.869472">
				<ele>526.000000</ele>
			</trkpt>
			<trkpt lat="49.081691" lon="18.869409">
				<ele>525.000000</ele>
			</trkpt>
			<trkpt lat="49.081656" lon="18.869462">
				<ele>524.000000</ele>
			</trkpt>
			<trkpt lat="49.081167" lon="18.870325">
				<ele>515.000000</ele>
			</trkpt>
			<trkpt lat="49.081096" lon="18.870496">
				<ele>514.000000</ele>
			</trkpt>
			<trkpt lat="49.081055" lon="18.870667">
				<ele>513.000000</ele>
			</trkpt>
			<trkpt lat="49.081032" lon="18.870810">
				<ele>512.000000</ele>
			</trkpt>
			<trkpt lat="49.080903" lon="18.871592">
				<ele>507.000000</ele>
			</trkpt>
			<trkpt lat="49.080861" lon="18.871898">
				<ele>505.000000</ele>
			</trkpt>
			<trkpt lat="49.080814" lon="18.871691">
				<ele>506.000000</ele>
			</trkpt>
			<trkpt lat="49.080779" lon="18.871556">
				<ele>506.000000</ele>
			</trkpt>
			<trkpt lat="49.080714" lon="18.871359">
				<ele>506.000000</ele>
			</trkpt>
			<trkpt lat="49.080679" lon="18.871214">
				<ele>507.000000</ele>
			</trkpt>
			<trkpt lat="49.080567" lon="18.870766">
				<ele>509.000000</ele>
			</trkpt>
			<trkpt lat="49.080526" lon="18.870586">
				<ele>510.000000</ele>
			</trkpt>
			<trkpt lat="49.080485" lon="18.870451">
				<ele>511.000000</ele>
			</trkpt>
			<trkpt lat="49.080449" lon="18.870317">
				<ele>512.000000</ele>
			</trkpt>
			<trkpt lat="49.080449" lon="18.870317">
				<ele>512.000000</ele>
			</trkpt>
			<trkpt lat="49.080426" lon="18.870227">
				<ele>512.000000</ele>
			</trkpt>
			<trkpt lat="49.080237" lon="18.869849">
				<ele>515.000000</ele>
			</trkpt>
			<trkpt lat="49.079985" lon="18.869382">
				<ele>518.000000</ele>
			</trkpt>
			<trkpt lat="49.079743" lon="18.868986">
				<ele>521.000000</ele>
			</trkpt>
			<trkpt lat="49.079643" lon="18.868789">
				<ele>522.000000</ele>
			</trkpt>
			<trkpt lat="49.079596" lon="18.868654">
				<ele>523.000000</ele>
			</trkpt>
			<trkpt lat="49.079614" lon="18.868483">
				<ele>524.000000</ele>
			</trkpt>
			<trkpt lat="49.079631" lon="18.868250">
				<ele>526.000000</ele>
			</trkpt>
			<trkpt lat="49.079602" lon="18.867757">
				<ele>529.000000</ele>
			</trkpt>
			<trkpt lat="49.079573" lon="18.867244">
				<ele>534.000000</ele>
			</trkpt>
			<trkpt lat="49.079520" lon="18.866849">
				<ele>538.000000</ele>
			</trkpt>
			<trkpt lat="49.079478" lon="18.866688">
				<ele>539.000000</ele>
			</trkpt>
			<trkpt lat="49.079467" lon="18.866633">
				<ele>540.000000</ele>
			</trkpt>
			<trkpt lat="49.079425" lon="18.866552">
				<ele>541.000000</ele>
			</trkpt>
			<trkpt lat="49.079249" lon="18.866246">
				<ele>543.000000</ele>
			</trkpt>
			<trkpt lat="49.079155" lon="18.866004">
				<ele>545.000000</ele>
			</trkpt>
			<trkpt lat="49.078984" lon="18.865438">
				<ele>549.000000</ele>
			</trkpt>
			<trkpt lat="49.078814" lon="18.864935">
				<ele>553.000000</ele>
			</trkpt>
			<trkpt lat="49.078678" lon="18.864415">
				<ele>558.000000</ele>
			</trkpt>
			<trkpt lat="49.078660" lon="18.864342">
				<ele>559.000000</ele>
			</trkpt>
			<trkpt lat="49.078572" lon="18.863912">
				<ele>562.000000</ele>
			</trkpt>
			<trkpt lat="49.078531" lon="18.863651">
				<ele>564.000000</ele>
			</trkpt>
			<trkpt lat="49.078513" lon="18.863525">
				<ele>565.000000</ele>
			</trkpt>
			<trkpt lat="49.078460" lon="18.862788">
				<ele>571.000000</ele>
			</trkpt>
			<trkpt lat="49.078454" lon="18.862627">
				<ele>572.000000</ele>
			</trkpt>
			<trkpt lat="49.078460" lon="18.862438">
				<ele>574.000000</ele>
			</trkpt>
			<trkpt lat="49.078478" lon="18.862187">
				<ele>576.000000</ele>
			</trkpt>
			<trkpt lat="49.078484" lon="18.861971">
				<ele>578.000000</ele>
			</trkpt>
			<trkpt lat="49.078390" lon="18.861675">
				<ele>579.000000</ele>
			</trkpt>
			<trkpt lat="49.078407" lon="18.861594">
				<ele>579.000000</ele>
			</trkpt>
			<trkpt lat="49.078425" lon="18.861449">
				<ele>581.000000</ele>
			</trkpt>
			<trkpt lat="49.078496" lon="18.861145">
				<ele>583.000000</ele>
			</trkpt>
			<trkpt lat="49.078507" lon="18.860973">
				<ele>584.000000</ele>
			</trkpt>
			<trkpt lat="49.078502" lon="18.860839">
				<ele>585.000000</ele>
			</trkpt>
			<trkpt lat="49.078478" lon="18.860740">
				<ele>586.000000</ele>
			</trkpt>
			<trkpt lat="49.078478" lon="18.860516">
				<ele>587.000000</ele>
			</trkpt>
			<trkpt lat="49.078496" lon="18.860363">
				<ele>588.000000</ele>
			</trkpt>
			<trkpt lat="49.078578" lon="18.860076">
				<ele>590.000000</ele>
			</trkpt>
			<trkpt lat="49.078631" lon="18.859554">
				<ele>595.000000</ele>
			</trkpt>
			<trkpt lat="49.078555" lon="18.859510">
				<ele>594.000000</ele>
			</trkpt>
			<trkpt lat="49.078560" lon="18.859411">
				<ele>595.000000</ele>
			</trkpt>
			<trkpt lat="49.078637" lon="18.859159">
				<ele>597.000000</ele>
			</trkpt>
			<trkpt lat="49.078660" lon="18.858998">
				<ele>599.000000</ele>
			</trkpt>
			<trkpt lat="49.078672" lon="18.858836">
				<ele>601.000000</ele>
			</trkpt>
			<trkpt lat="49.078643" lon="18.858709">
				<ele>602.000000</ele>
			</trkpt>
			<trkpt lat="49.078702" lon="18.858629">
				<ele>603.000000</ele>
			</trkpt>
			<trkpt lat="49.078749" lon="18.858109">
				<ele>607.000000</ele>
			</trkpt>
			<trkpt lat="49.078837" lon="18.858054">
				<ele>607.000000</ele>
			</trkpt>
			<trkpt lat="49.078861" lon="18.857946">
				<ele>608.000000</ele>
			</trkpt>
			<trkpt lat="49.078890" lon="18.857820">
				<ele>610.000000</ele>
			</trkpt>
			<trkpt lat="49.078925" lon="18.857596">
				<ele>612.000000</ele>
			</trkpt>
			<trkpt lat="49.078896" lon="18.857426">
				<ele>613.000000</ele>
			</trkpt>
			<trkpt lat="49.078808" lon="18.857327">
				<ele>614.000000</ele>
			</trkpt>
			<trkpt lat="49.078778" lon="18.857102">
				<ele>617.000000</ele>
			</trkpt>
			<trkpt lat="49.078796" lon="18.856985">
				<ele>617.000000</ele>
			</trkpt>
			<trkpt lat="49.078808" lon="18.856868">
				<ele>618.000000</ele>
			</trkpt>
			<trkpt lat="49.078867" lon="18.856528">
				<ele>623.000000</ele>
			</trkpt>
			<trkpt lat="49.078937" lon="18.856375">
				<ele>622.000000</ele>
			</trkpt>
			<trkpt lat="49.078978" lon="18.856285">
				<ele>623.000000</ele>
			</trkpt>
			<trkpt lat="49.079043" lon="18.856149">
				<ele>624.000000</ele>
			</trkpt>
			<trkpt lat="49.079096" lon="18.855979">
				<ele>627.000000</ele>
			</trkpt>
			<trkpt lat="49.079114" lon="18.855880">
				<ele>627.000000</ele>
			</trkpt>
			<trkpt lat="49.079219" lon="18.855350">
				<ele>632.000000</ele>
			</trkpt>
			<trkpt lat="49.079196" lon="18.855243">
				<ele>633.000000</ele>
			</trkpt>
			<trkpt lat="49.079107" lon="18.855009">
				<ele>641.000000</ele>
			</trkpt>
			<trkpt lat="49.079213" lon="18.854928">
				<ele>636.000000</ele>
			</trkpt>
			<trkpt lat="49.079272" lon="18.854901">
				<ele>637.000000</ele>
			</trkpt>
			<trkpt lat="49.079285" lon="18.854910">
				<ele>637.000000</ele>
			</trkpt>
			<trkpt lat="49.079296" lon="18.854901">
				<ele>638.000000</ele>
			</trkpt>
			<trkpt lat="49.079314" lon="18.854694">
				<ele>640.000000</ele>
			</trkpt>
			<trkpt lat="49.079319" lon="18.854390">
				<ele>642.000000</ele>
			</trkpt>
			<trkpt lat="49.079325" lon="18.854021">
				<ele>646.000000</ele>
			</trkpt>
			<trkpt lat="49.079361" lon="18.854057">
				<ele>647.000000</ele>
			</trkpt>
			<trkpt lat="49.079361" lon="18.853994">
				<ele>648.000000</ele>
			</trkpt>
			<trkpt lat="49.079390" lon="18.854048">
				<ele>649.000000</ele>
			</trkpt>
			<trkpt lat="49.079425" lon="18.853985">
				<ele>653.000000</ele>
			</trkpt>
			<trkpt lat="49.079361" lon="18.853725">
				<ele>651.000000</ele>
			</trkpt>
			<trkpt lat="49.079325" lon="18.853679">
				<ele>650.000000</ele>
			</trkpt>
			<trkpt lat="49.079237" lon="18.853499">
				<ele>660.000000</ele>
			</trkpt>
			<trkpt lat="49.079366" lon="18.853195">
				<ele>667.000000</ele>
			</trkpt>
			<trkpt lat="49.079455" lon="18.852889">
				<ele>671.000000</ele>
			</trkpt>
			<trkpt lat="49.079514" lon="18.852826">
				<ele>670.000000</ele>
			</trkpt>
			<trkpt lat="49.079690" lon="18.852809">
				<ele>662.000000</ele>
			</trkpt>
			<trkpt lat="49.079708" lon="18.852493">
				<ele>665.000000</ele>
			</trkpt>
			<trkpt lat="49.079726" lon="18.852306">
				<ele>667.000000</ele>
			</trkpt>
			<trkpt lat="49.079785" lon="18.852044">
				<ele>669.000000</ele>
			</trkpt>
			<trkpt lat="49.079861" lon="18.851964">
				<ele>672.000000</ele>
			</trkpt>
			<trkpt lat="49.079967" lon="18.851801">
				<ele>674.000000</ele>
			</trkpt>
			<trkpt lat="49.080061" lon="18.851712">
				<ele>677.000000</ele>
			</trkpt>
			<trkpt lat="49.080220" lon="18.851560">
				<ele>680.000000</ele>
			</trkpt>
			<trkpt lat="49.080455" lon="18.851325">
				<ele>688.000000</ele>
			</trkpt>
			<trkpt lat="49.080567" lon="18.851209">
				<ele>688.000000</ele>
			</trkpt>
			<trkpt lat="49.080726" lon="18.851075">
				<ele>692.000000</ele>
			</trkpt>
			<trkpt lat="49.081102" lon="18.850706">
				<ele>699.000000</ele>
			</trkpt>
			<trkpt lat="49.081391" lon="18.850436">
				<ele>704.000000</ele>
			</trkpt>
			<trkpt lat="49.081444" lon="18.850400">
				<ele>705.000000</ele>
			</trkpt>
			<trkpt lat="49.081444" lon="18.850400">
				<ele>705.000000</ele>
			</trkpt>
			<trkpt lat="49.081609" lon="18.850266">
				<ele>708.000000</ele>
			</trkpt>
			<trkpt lat="49.081796" lon="18.850222">
				<ele>711.000000</ele>
			</trkpt>
			<trkpt lat="49.081938" lon="18.850239">
				<ele>713.000000</ele>
			</trkpt>
			<trkpt lat="49.081961" lon="18.850239">
				<ele>713.000000</ele>
			</trkpt>
			<trkpt lat="49.082032" lon="18.850113">
				<ele>716.000000</ele>
			</trkpt>
			<trkpt lat="49.082138" lon="18.850132">
				<ele>719.000000</ele>
			</trkpt>
			<trkpt lat="49.082320" lon="18.850149">
				<ele>722.000000</ele>
			</trkpt>
			<trkpt lat="49.082491" lon="18.850113">
				<ele>727.000000</ele>
			</trkpt>
			<trkpt lat="49.082555" lon="18.850283">
				<ele>723.000000</ele>
			</trkpt>
			<trkpt lat="49.082738" lon="18.850257">
				<ele>725.000000</ele>
			</trkpt>
			<trkpt lat="49.082873" lon="18.850132">
				<ele>727.000000</ele>
			</trkpt>
			<trkpt lat="49.083026" lon="18.850023">
				<ele>731.000000</ele>
			</trkpt>
			<trkpt lat="49.083050" lon="18.849987">
				<ele>731.000000</ele>
			</trkpt>
			<trkpt lat="49.083062" lon="18.849817">
				<ele>738.000000</ele>
			</trkpt>
			<trkpt lat="49.083256" lon="18.849780">
				<ele>738.000000</ele>
			</trkpt>
			<trkpt lat="49.083344" lon="18.849709">
				<ele>739.000000</ele>
			</trkpt>
			<trkpt lat="49.083409" lon="18.849601">
				<ele>742.000000</ele>
			</trkpt>
			<trkpt lat="49.083550" lon="18.849404">
				<ele>745.000000</ele>
			</trkpt>
			<trkpt lat="49.083656" lon="18.849107">
				<ele>746.000000</ele>
			</trkpt>
			<trkpt lat="49.083785" lon="18.849008">
				<ele>748.000000</ele>
			</trkpt>
			<trkpt lat="49.083750" lon="18.848811">
				<ele>749.000000</ele>
			</trkpt>
			<trkpt lat="49.083756" lon="18.848577">
				<ele>751.000000</ele>
			</trkpt>
			<trkpt lat="49.083768" lon="18.848316">
				<ele>755.000000</ele>
			</trkpt>
			<trkpt lat="49.083750" lon="18.847715">
				<ele>763.000000</ele>
			</trkpt>
			<trkpt lat="49.083774" lon="18.847454">
				<ele>766.000000</ele>
			</trkpt>
			<trkpt lat="49.083797" lon="18.847176">
				<ele>769.000000</ele>
			</trkpt>
			<trkpt lat="49.084156" lon="18.845612">
				<ele>788.000000</ele>
			</trkpt>
			<trkpt lat="49.084233" lon="18.845370">
				<ele>792.000000</ele>
			</trkpt>
			<trkpt lat="49.084668" lon="18.844337">
				<ele>810.000000</ele>
			</trkpt>
			<trkpt lat="49.084739" lon="18.844157">
				<ele>814.000000</ele>
			</trkpt>
			<trkpt lat="49.084768" lon="18.844058">
				<ele>816.000000</ele>
			</trkpt>
			<trkpt lat="49.084780" lon="18.843941">
				<ele>816.000000</ele>
			</trkpt>
			<trkpt lat="49.084809" lon="18.843825">
				<ele>817.000000</ele>
			</trkpt>
			<trkpt lat="49.084868" lon="18.843627">
				<ele>821.000000</ele>
			</trkpt>
			<trkpt lat="49.084986" lon="18.843312">
				<ele>827.000000</ele>
			</trkpt>
			<trkpt lat="49.084980" lon="18.843178">
				<ele>826.000000</ele>
			</trkpt>
			<trkpt lat="49.084933" lon="18.843142">
				<ele>827.000000</ele>
			</trkpt>
			<trkpt lat="49.085045" lon="18.842855">
				<ele>831.000000</ele>
			</trkpt>
			<trkpt lat="49.085127" lon="18.842513">
				<ele>838.000000</ele>
			</trkpt>
			<trkpt lat="49.085168" lon="18.842289">
				<ele>844.000000</ele>
			</trkpt>
			<trkpt lat="49.085280" lon="18.841983">
				<ele>850.000000</ele>
			</trkpt>
			<trkpt lat="49.085356" lon="18.841867">
				<ele>851.000000</ele>
			</trkpt>
			<trkpt lat="49.085403" lon="18.841651">
				<ele>855.000000</ele>
			</trkpt>
			<trkpt lat="49.085486" lon="18.841498">
				<ele>858.000000</ele>
			</trkpt>
			<trkpt lat="49.085651" lon="18.841283">
				<ele>862.000000</ele>
			</trkpt>
			<trkpt lat="49.085815" lon="18.841130">
				<ele>867.000000</ele>
			</trkpt>
			<trkpt lat="49.086009" lon="18.840851">
				<ele>878.000000</ele>
			</trkpt>
			<trkpt lat="49.086086" lon="18.840708">
				<ele>884.000000</ele>
			</trkpt>
			<trkpt lat="49.086274" lon="18.840519">
				<ele>889.000000</ele>
			</trkpt>
			<trkpt lat="49.086462" lon="18.840276">
				<ele>894.000000</ele>
			</trkpt>
			<trkpt lat="49.086539" lon="18.840069">
				<ele>901.000000</ele>
			</trkpt>
			<trkpt lat="49.086733" lon="18.839620">
				<ele>907.000000</ele>
			</trkpt>
			<trkpt lat="49.086739" lon="18.839486">
				<ele>910.000000</ele>
			</trkpt>
			<trkpt lat="49.086827" lon="18.838920">
				<ele>922.000000</ele>
			</trkpt>
			<trkpt lat="49.086915" lon="18.838876">
				<ele>929.000000</ele>
			</trkpt>
			<trkpt lat="49.087009" lon="18.838551">
				<ele>941.000000</ele>
			</trkpt>
			<trkpt lat="49.086980" lon="18.838157">
				<ele>940.000000</ele>
			</trkpt>
			<trkpt lat="49.087104" lon="18.837878">
				<ele>944.000000</ele>
			</trkpt>
			<trkpt lat="49.087062" lon="18.837788">
				<ele>945.000000</ele>
			</trkpt>
			<trkpt lat="49.087015" lon="18.837735">
				<ele>948.000000</ele>
			</trkpt>
			<trkpt lat="49.087033" lon="18.837689">
				<ele>950.000000</ele>
			</trkpt>
			<trkpt lat="49.087098" lon="18.837501">
				<ele>953.000000</ele>
			</trkpt>
			<trkpt lat="49.087162" lon="18.837222">
				<ele>958.000000</ele>
			</trkpt>
			<trkpt lat="49.087268" lon="18.836719">
				<ele>968.000000</ele>
			</trkpt>
			<trkpt lat="49.087280" lon="18.836630">
				<ele>970.000000</ele>
			</trkpt>
			<trkpt lat="49.087292" lon="18.836387">
				<ele>979.000000</ele>
			</trkpt>
			<trkpt lat="49.087386" lon="18.836243">
				<ele>981.000000</ele>
			</trkpt>
			<trkpt lat="49.087304" lon="18.836037">
				<ele>998.000000</ele>
			</trkpt>
			<trkpt lat="49.087656" lon="18.836127">
				<ele>1010.000000</ele>
			</trkpt>
			<trkpt lat="49.087709" lon="18.835938">
				<ele>1016.000000</ele>
			</trkpt>
			<trkpt lat="49.087457" lon="18.835597">
				<ele>1009.000000</ele>
			</trkpt>
			<trkpt lat="49.087615" lon="18.835156">
				<ele>1014.000000</ele>
			</trkpt>
			<trkpt lat="49.087774" lon="18.834698">
				<ele>1025.000000</ele>
			</trkpt>
			<trkpt lat="49.087810" lon="18.834608">
				<ele>1026.000000</ele>
			</trkpt>
			<trkpt lat="49.087957" lon="18.834348">
				<ele>1035.000000</ele>
			</trkpt>
			<trkpt lat="49.088104" lon="18.833980">
				<ele>1044.000000</ele>
			</trkpt>
			<trkpt lat="49.088251" lon="18.833764">
				<ele>1053.000000</ele>
			</trkpt>
			<trkpt lat="49.088298" lon="18.833656">
				<ele>1056.000000</ele>
			</trkpt>
			<trkpt lat="49.088316" lon="18.833584">
				<ele>1058.000000</ele>
			</trkpt>
			<trkpt lat="49.088239" lon="18.832884">
				<ele>1073.000000</ele>
			</trkpt>
			<trkpt lat="49.088257" lon="18.832775">
				<ele>1078.000000</ele>
			</trkpt>
			<trkpt lat="49.088298" lon="18.832740">
				<ele>1081.000000</ele>
			</trkpt>
			<trkpt lat="49.088328" lon="18.832622">
				<ele>1088.000000</ele>
			</trkpt>
			<trkpt lat="49.088362" lon="18.832515">
				<ele>1093.000000</ele>
			</trkpt>
			<trkpt lat="49.088398" lon="18.832335">
				<ele>1100.000000</ele>
			</trkpt>
			<trkpt lat="49.088398" lon="18.832299">
				<ele>1104.000000</ele>
			</trkpt>
			<trkpt lat="49.088498" lon="18.831859">
				<ele>1128.000000</ele>
			</trkpt>
			<trkpt lat="49.088539" lon="18.831553">
				<ele>1143.000000</ele>
			</trkpt>
			<trkpt lat="49.088627" lon="18.831492">
				<ele>1143.000000</ele>
			</trkpt>
			<trkpt lat="49.088639" lon="18.831446">
				<ele>1145.000000</ele>
			</trkpt>
			<trkpt lat="49.088686" lon="18.831429">
				<ele>1146.000000</ele>
			</trkpt>
			<trkpt lat="49.088716" lon="18.831366">
				<ele>1151.000000</ele>
			</trkpt>
			<trkpt lat="49.088757" lon="18.831249">
				<ele>1161.000000</ele>
			</trkpt>
			<trkpt lat="49.088816" lon="18.831230">
				<ele>1161.000000</ele>
			</trkpt>
			<trkpt lat="49.088845" lon="18.831140">
				<ele>1168.000000</ele>
			</trkpt>
			<trkpt lat="49.088922" lon="18.831069">
				<ele>1174.000000</ele>
			</trkpt>
			<trkpt lat="49.088957" lon="18.830961">
				<ele>1180.000000</ele>
			</trkpt>
			<trkpt lat="49.089022" lon="18.830907">
				<ele>1183.000000</ele>
			</trkpt>
			<trkpt lat="49.089033" lon="18.830853">
				<ele>1185.000000</ele>
			</trkpt>
			<trkpt lat="49.089109" lon="18.830790">
				<ele>1188.000000</ele>
			</trkpt>
			<trkpt lat="49.089128" lon="18.830701">
				<ele>1190.000000</ele>
			</trkpt>
			<trkpt lat="49.089198" lon="18.830637">
				<ele>1194.000000</ele>
			</trkpt>
			<trkpt lat="49.089215" lon="18.830574">
				<ele>1196.000000</ele>
			</trkpt>
			<trkpt lat="49.089280" lon="18.830530">
				<ele>1196.000000</ele>
			</trkpt>
			<trkpt lat="49.089321" lon="18.830431">
				<ele>1199.000000</ele>
			</trkpt>
			<trkpt lat="49.089321" lon="18.830431">
				<ele>1199.000000</ele>
			</trkpt>
			<trkpt lat="49.089427" lon="18.830188">
				<ele>1205.000000</ele>
			</trkpt>
			<trkpt lat="49.089321" lon="18.830297">
				<ele>1203.000000</ele>
			</trkpt>
			<trkpt lat="49.089192" lon="18.830387">
				<ele>1203.000000</ele>
			</trkpt>
			<trkpt lat="49.089086" lon="18.830448">
				<ele>1202.000000</ele>
			</trkpt>
			<trkpt lat="49.088910" lon="18.830521">
				<ele>1202.000000</ele>
			</trkpt>
			<trkpt lat="49.088710" lon="18.830485">
				<ele>1203.000000</ele>
			</trkpt>
			<trkpt lat="49.088598" lon="18.830395">
				<ele>1204.000000</ele>
			</trkpt>
			<trkpt lat="49.088439" lon="18.830144">
				<ele>1208.000000</ele>
			</trkpt>
			<trkpt lat="49.088351" lon="18.829901">
				<ele>1210.000000</ele>
			</trkpt>
			<trkpt lat="49.088251" lon="18.829632">
				<ele>1212.000000</ele>
			</trkpt>
			<trkpt lat="49.088163" lon="18.829318">
				<ele>1215.000000</ele>
			</trkpt>
			<trkpt lat="49.088051" lon="18.828840">
				<ele>1217.000000</ele>
			</trkpt>
			<trkpt lat="49.088051" lon="18.828716">
				<ele>1219.000000</ele>
			</trkpt>
			<trkpt lat="49.088110" lon="18.828779">
				<ele>1222.000000</ele>
			</trkpt>
			<trkpt lat="49.088169" lon="18.828869">
				<ele>1223.000000</ele>
			</trkpt>
			<trkpt lat="49.088245" lon="18.829020">
				<ele>1224.000000</ele>
			</trkpt>
			<trkpt lat="49.088351" lon="18.829219">
				<ele>1225.000000</ele>
			</trkpt>
			<trkpt lat="49.088486" lon="18.829371">
				<ele>1226.000000</ele>
			</trkpt>
			<trkpt lat="49.088580" lon="18.829488">
				<ele>1226.000000</ele>
			</trkpt>
			<trkpt lat="49.088692" lon="18.829532">
				<ele>1228.000000</ele>
			</trkpt>
			<trkpt lat="49.088827" lon="18.829586">
				<ele>1230.000000</ele>
			</trkpt>
			<trkpt lat="49.088869" lon="18.829542">
				<ele>1231.000000</ele>
			</trkpt>
			<trkpt lat="49.089056" lon="18.829488">
				<ele>1232.000000</ele>
			</trkpt>
			<trkpt lat="49.089227" lon="18.829406">
				<ele>1233.000000</ele>
			</trkpt>
			<trkpt lat="49.089368" lon="18.829380">
				<ele>1233.000000</ele>
			</trkpt>
			<trkpt lat="49.089569" lon="18.829245">
				<ele>1236.000000</ele>
			</trkpt>
			<trkpt lat="49.089669" lon="18.829236">
				<ele>1237.000000</ele>
			</trkpt>
			<trkpt lat="49.089839" lon="18.829255">
				<ele>1238.000000</ele>
			</trkpt>
			<trkpt lat="49.090063" lon="18.829263">
				<ele>1240.000000</ele>
			</trkpt>
			<trkpt lat="49.090192" lon="18.829245">
				<ele>1242.000000</ele>
			</trkpt>
			<trkpt lat="49.090310" lon="18.829173">
				<ele>1245.000000</ele>
			</trkpt>
			<trkpt lat="49.090457" lon="18.829290">
				<ele>1245.000000</ele>
			</trkpt>
			<trkpt lat="49.090534" lon="18.829335">
				<ele>1245.000000</ele>
			</trkpt>
			<trkpt lat="49.090586" lon="18.829362">
				<ele>1245.000000</ele>
			</trkpt>
			<trkpt lat="49.090668" lon="18.829371">
				<ele>1245.000000</ele>
			</trkpt>
			<trkpt lat="49.090768" lon="18.829353">
				<ele>1246.000000</ele>
			</trkpt>
			<trkpt lat="49.090863" lon="18.829318">
				<ele>1247.000000</ele>
			</trkpt>
			<trkpt lat="49.090957" lon="18.829263">
				<ele>1248.000000</ele>
			</trkpt>
			<trkpt lat="49.091063" lon="18.829156">
				<ele>1249.000000</ele>
			</trkpt>
			<trkpt lat="49.091157" lon="18.829012">
				<ele>1251.000000</ele>
			</trkpt>
			<trkpt lat="49.091304" lon="18.828779">
				<ele>1254.000000</ele>
			</trkpt>
			<trkpt lat="49.091357" lon="18.828724">
				<ele>1253.000000</ele>
			</trkpt>
			<trkpt lat="49.091387" lon="18.828706">
				<ele>1254.000000</ele>
			</trkpt>
			<trkpt lat="49.091404" lon="18.828697">
				<ele>1254.000000</ele>
			</trkpt>
			<trkpt lat="49.091445" lon="18.828697">
				<ele>1256.000000</ele>
			</trkpt>
			<trkpt lat="49.091493" lon="18.828724">
				<ele>1257.000000</ele>
			</trkpt>
			<trkpt lat="49.091569" lon="18.828806">
				<ele>1259.000000</ele>
			</trkpt>
			<trkpt lat="49.091645" lon="18.828922">
				<ele>1261.000000</ele>
			</trkpt>
			<trkpt lat="49.091727" lon="18.829066">
				<ele>1262.000000</ele>
			</trkpt>
			<trkpt lat="49.091798" lon="18.829236">
				<ele>1264.000000</ele>
			</trkpt>
			<trkpt lat="49.091875" lon="18.829435">
				<ele>1267.000000</ele>
			</trkpt>
			<trkpt lat="49.092128" lon="18.830135">
				<ele>1275.000000</ele>
			</trkpt>
			<trkpt lat="49.092204" lon="18.830324">
				<ele>1277.000000</ele>
			</trkpt>
			<trkpt lat="49.092316" lon="18.830530">
				<ele>1279.000000</ele>
			</trkpt>
			<trkpt lat="49.092399" lon="18.830674">
				<ele>1281.000000</ele>
			</trkpt>
			<trkpt lat="49.092498" lon="18.830808">
				<ele>1283.000000</ele>
			</trkpt>
			<trkpt lat="49.092551" lon="18.830880">
				<ele>1283.000000</ele>
			</trkpt>
			<trkpt lat="49.092822" lon="18.831114">
				<ele>1285.000000</ele>
			</trkpt>
			<trkpt lat="49.093004" lon="18.831303">
				<ele>1284.000000</ele>
			</trkpt>
			<trkpt lat="49.093174" lon="18.831527">
				<ele>1282.000000</ele>
			</trkpt>
			<trkpt lat="49.093286" lon="18.831680">
				<ele>1280.000000</ele>
			</trkpt>
			<trkpt lat="49.093410" lon="18.831842">
				<ele>1279.000000</ele>
			</trkpt>
			<trkpt lat="49.093486" lon="18.831976">
				<ele>1278.000000</ele>
			</trkpt>
			<trkpt lat="49.093563" lon="18.832129">
				<ele>1277.000000</ele>
			</trkpt>
			<trkpt lat="49.093669" lon="18.832354">
				<ele>1275.000000</ele>
			</trkpt>
			<trkpt lat="49.093710" lon="18.832479">
				<ele>1274.000000</ele>
			</trkpt>
			<trkpt lat="49.093757" lon="18.832677">
				<ele>1272.000000</ele>
			</trkpt>
			<trkpt lat="49.093804" lon="18.832920">
				<ele>1269.000000</ele>
			</trkpt>
			<trkpt lat="49.093857" lon="18.833090">
				<ele>1267.000000</ele>
			</trkpt>
			<trkpt lat="49.093969" lon="18.833306">
				<ele>1265.000000</ele>
			</trkpt>
			<trkpt lat="49.094110" lon="18.833513">
				<ele>1263.000000</ele>
			</trkpt>
			<trkpt lat="49.094198" lon="18.833629">
				<ele>1262.000000</ele>
			</trkpt>
			<trkpt lat="49.094481" lon="18.833899">
				<ele>1260.000000</ele>
			</trkpt>
			<trkpt lat="49.094328" lon="18.833970">
				<ele>1258.000000</ele>
			</trkpt>
			<trkpt lat="49.094157" lon="18.834016">
				<ele>1256.000000</ele>
			</trkpt>
			<trkpt lat="49.093892" lon="18.834060">
				<ele>1253.000000</ele>
			</trkpt>
			<trkpt lat="49.093704" lon="18.834087">
				<ele>1250.000000</ele>
			</trkpt>
			<trkpt lat="49.093628" lon="18.834114">
				<ele>1249.000000</ele>
			</trkpt>
			<trkpt lat="49.093610" lon="18.834114">
				<ele>1249.000000</ele>
			</trkpt>
			<trkpt lat="49.093498" lon="18.834177">
				<ele>1248.000000</ele>
			</trkpt>
			<trkpt lat="49.093698" lon="18.834186">
				<ele>1249.000000</ele>
			</trkpt>
			<trkpt lat="49.093840" lon="18.834213">
				<ele>1250.000000</ele>
			</trkpt>
			<trkpt lat="49.094133" lon="18.834303">
				<ele>1252.000000</ele>
			</trkpt>
			<trkpt lat="49.094186" lon="18.834356">
				<ele>1252.000000</ele>
			</trkpt>
			<trkpt lat="49.094275" lon="18.834509">
				<ele>1251.000000</ele>
			</trkpt>
			<trkpt lat="49.094428" lon="18.834735">
				<ele>1249.000000</ele>
			</trkpt>
			<trkpt lat="49.094545" lon="18.834832">
				<ele>1249.000000</ele>
			</trkpt>
			<trkpt lat="49.094646" lon="18.834895">
				<ele>1248.000000</ele>
			</trkpt>
			<trkpt lat="49.094622" lon="18.835004">
				<ele>1246.000000</ele>
			</trkpt>
			<trkpt lat="49.094610" lon="18.835102">
				<ele>1245.000000</ele>
			</trkpt>
			<trkpt lat="49.094604" lon="18.835255">
				<ele>1245.000000</ele>
			</trkpt>
			<trkpt lat="49.094604" lon="18.835255">
				<ele>1245.000000</ele>
			</trkpt>
			<trkpt lat="49.094604" lon="18.835255">
				<ele>1243.000000</ele>
			</trkpt>
			<trkpt lat="49.094593" lon="18.835461">
				<ele>1240.000000</ele>
			</trkpt>
			<trkpt lat="49.094574" lon="18.835632">
				<ele>1237.000000</ele>
			</trkpt>
			<trkpt lat="49.094563" lon="18.835866">
				<ele>1233.000000</ele>
			</trkpt>
			<trkpt lat="49.094551" lon="18.836046">
				<ele>1229.000000</ele>
			</trkpt>
			<trkpt lat="49.094557" lon="18.836108">
				<ele>1229.000000</ele>
			</trkpt>
			<trkpt lat="49.094574" lon="18.836297">
				<ele>1225.000000</ele>
			</trkpt>
			<trkpt lat="49.094622" lon="18.836450">
				<ele>1222.000000</ele>
			</trkpt>
			<trkpt lat="49.094657" lon="18.836584">
				<ele>1220.000000</ele>
			</trkpt>
			<trkpt lat="49.094710" lon="18.836729">
				<ele>1218.000000</ele>
			</trkpt>
			<trkpt lat="49.094745" lon="18.836756">
				<ele>1217.000000</ele>
			</trkpt>
			<trkpt lat="49.094792" lon="18.837016">
				<ele>1213.000000</ele>
			</trkpt>
			<trkpt lat="49.094786" lon="18.837213">
				<ele>1210.000000</ele>
			</trkpt>
			<trkpt lat="49.094798" lon="18.837366">
				<ele>1207.000000</ele>
			</trkpt>
			<trkpt lat="49.094798" lon="18.837446">
				<ele>1206.000000</ele>
			</trkpt>
			<trkpt lat="49.094798" lon="18.837635">
				<ele>1202.000000</ele>
			</trkpt>
			<trkpt lat="49.094780" lon="18.837716">
				<ele>1200.000000</ele>
			</trkpt>
			<trkpt lat="49.094780" lon="18.837716">
				<ele>1200.000000</ele>
			</trkpt>
			<trkpt lat="49.094763" lon="18.837788">
				<ele>1199.000000</ele>
			</trkpt>
			<trkpt lat="49.094699" lon="18.837968">
				<ele>1195.000000</ele>
			</trkpt>
			<trkpt lat="49.094739" lon="18.838184">
				<ele>1192.000000</ele>
			</trkpt>
			<trkpt lat="49.094757" lon="18.838354">
				<ele>1189.000000</ele>
			</trkpt>
			<trkpt lat="49.094763" lon="18.838525">
				<ele>1185.000000</ele>
			</trkpt>
			<trkpt lat="49.094786" lon="18.838696">
				<ele>1183.000000</ele>
			</trkpt>
			<trkpt lat="49.094780" lon="18.839027">
				<ele>1177.000000</ele>
			</trkpt>
			<trkpt lat="49.094786" lon="18.839127">
				<ele>1176.000000</ele>
			</trkpt>
			<trkpt lat="49.094816" lon="18.839226">
				<ele>1175.000000</ele>
			</trkpt>
			<trkpt lat="49.094828" lon="18.839343">
				<ele>1174.000000</ele>
			</trkpt>
			<trkpt lat="49.094833" lon="18.839513">
				<ele>1171.000000</ele>
			</trkpt>
			<trkpt lat="49.094869" lon="18.839675">
				<ele>1170.000000</ele>
			</trkpt>
			<trkpt lat="49.094792" lon="18.839953">
				<ele>1165.000000</ele>
			</trkpt>
			<trkpt lat="49.094780" lon="18.840169">
				<ele>1162.000000</ele>
			</trkpt>
			<trkpt lat="49.094792" lon="18.840394">
				<ele>1160.000000</ele>
			</trkpt>
			<trkpt lat="49.094804" lon="18.840555">
				<ele>1159.000000</ele>
			</trkpt>
			<trkpt lat="49.094816" lon="18.840635">
				<ele>1159.000000</ele>
			</trkpt>
			<trkpt lat="49.094810" lon="18.840681">
				<ele>1158.000000</ele>
			</trkpt>
			<trkpt lat="49.094792" lon="18.840960">
				<ele>1156.000000</ele>
			</trkpt>
			<trkpt lat="49.094833" lon="18.841112">
				<ele>1154.000000</ele>
			</trkpt>
			<trkpt lat="49.094863" lon="18.841211">
				<ele>1152.000000</ele>
			</trkpt>
			<trkpt lat="49.094886" lon="18.841327">
				<ele>1149.000000</ele>
			</trkpt>
			<trkpt lat="49.094869" lon="18.841507">
				<ele>1145.000000</ele>
			</trkpt>
			<trkpt lat="49.094839" lon="18.841597">
				<ele>1142.000000</ele>
			</trkpt>
			<trkpt lat="49.094780" lon="18.841669">
				<ele>1140.000000</ele>
			</trkpt>
			<trkpt lat="49.094798" lon="18.842029">
				<ele>1132.000000</ele>
			</trkpt>
			<trkpt lat="49.094828" lon="18.842119">
				<ele>1130.000000</ele>
			</trkpt>
			<trkpt lat="49.094804" lon="18.842163">
				<ele>1128.000000</ele>
			</trkpt>
			<trkpt lat="49.094822" lon="18.842209">
				<ele>1128.000000</ele>
			</trkpt>
			<trkpt lat="49.094804" lon="18.842262">
				<ele>1127.000000</ele>
			</trkpt>
			<trkpt lat="49.094780" lon="18.842325">
				<ele>1125.000000</ele>
			</trkpt>
			<trkpt lat="49.094663" lon="18.842280">
				<ele>1123.000000</ele>
			</trkpt>
			<trkpt lat="49.094751" lon="18.842729">
				<ele>1119.000000</ele>
			</trkpt>
			<trkpt lat="49.094745" lon="18.842899">
				<ele>1117.000000</ele>
			</trkpt>
			<trkpt lat="49.094699" lon="18.843277">
				<ele>1115.000000</ele>
			</trkpt>
			<trkpt lat="49.094633" lon="18.843645">
				<ele>1111.000000</ele>
			</trkpt>
			<trkpt lat="49.094580" lon="18.843843">
				<ele>1110.000000</ele>
			</trkpt>
			<trkpt lat="49.094416" lon="18.844266">
				<ele>1106.000000</ele>
			</trkpt>
			<trkpt lat="49.094057" lon="18.845010">
				<ele>1100.000000</ele>
			</trkpt>
			<trkpt lat="49.093992" lon="18.845218">
				<ele>1099.000000</ele>
			</trkpt>
			<trkpt lat="49.093951" lon="18.845325">
				<ele>1099.000000</ele>
			</trkpt>
			<trkpt lat="49.093927" lon="18.845442">
				<ele>1098.000000</ele>
			</trkpt>
			<trkpt lat="49.093899" lon="18.845585">
				<ele>1098.000000</ele>
			</trkpt>
			<trkpt lat="49.093892" lon="18.845721">
				<ele>1098.000000</ele>
			</trkpt>
			<trkpt lat="49.093892" lon="18.845891">
				<ele>1097.000000</ele>
			</trkpt>
			<trkpt lat="49.093910" lon="18.846044">
				<ele>1095.000000</ele>
			</trkpt>
			<trkpt lat="49.093939" lon="18.846224">
				<ele>1095.000000</ele>
			</trkpt>
			<trkpt lat="49.093975" lon="18.846385">
				<ele>1094.000000</ele>
			</trkpt>
			<trkpt lat="49.094169" lon="18.847023">
				<ele>1090.000000</ele>
			</trkpt>
			<trkpt lat="49.094351" lon="18.847688">
				<ele>1086.000000</ele>
			</trkpt>
			<trkpt lat="49.094398" lon="18.847985">
				<ele>1083.000000</ele>
			</trkpt>
			<trkpt lat="49.094422" lon="18.848136">
				<ele>1083.000000</ele>
			</trkpt>
			<trkpt lat="49.094457" lon="18.848352">
				<ele>1081.000000</ele>
			</trkpt>
			<trkpt lat="49.094487" lon="18.848505">
				<ele>1081.000000</ele>
			</trkpt>
			<trkpt lat="49.094481" lon="18.848765">
				<ele>1079.000000</ele>
			</trkpt>
			<trkpt lat="49.094445" lon="18.849071">
				<ele>1076.000000</ele>
			</trkpt>
			<trkpt lat="49.094387" lon="18.849448">
				<ele>1073.000000</ele>
			</trkpt>
			<trkpt lat="49.094281" lon="18.849862">
				<ele>1070.000000</ele>
			</trkpt>
			<trkpt lat="49.094257" lon="18.850185">
				<ele>1069.000000</ele>
			</trkpt>
			<trkpt lat="49.094239" lon="18.850463">
				<ele>1066.000000</ele>
			</trkpt>
			<trkpt lat="49.094239" lon="18.850688">
				<ele>1065.000000</ele>
			</trkpt>
			<trkpt lat="49.094257" lon="18.850895">
				<ele>1063.000000</ele>
			</trkpt>
			<trkpt lat="49.094304" lon="18.851021">
				<ele>1062.000000</ele>
			</trkpt>
			<trkpt lat="49.094316" lon="18.851048">
				<ele>1062.000000</ele>
			</trkpt>
			<trkpt lat="49.094292" lon="18.851101">
				<ele>1061.000000</ele>
			</trkpt>
			<trkpt lat="49.094269" lon="18.851174">
				<ele>1059.000000</ele>
			</trkpt>
			<trkpt lat="49.094228" lon="18.851245">
				<ele>1057.000000</ele>
			</trkpt>
			<trkpt lat="49.094204" lon="18.851362">
				<ele>1054.000000</ele>
			</trkpt>
			<trkpt lat="49.094169" lon="18.851442">
				<ele>1051.000000</ele>
			</trkpt>
			<trkpt lat="49.094128" lon="18.851524">
				<ele>1048.000000</ele>
			</trkpt>
			<trkpt lat="49.094045" lon="18.851838">
				<ele>1038.000000</ele>
			</trkpt>
			<trkpt lat="49.094028" lon="18.852008">
				<ele>1033.000000</ele>
			</trkpt>
			<trkpt lat="49.094004" lon="18.852143">
				<ele>1030.000000</ele>
			</trkpt>
			<trkpt lat="49.093933" lon="18.852270">
				<ele>1026.000000</ele>
			</trkpt>
			<trkpt lat="49.093798" lon="18.852440">
				<ele>1021.000000</ele>
			</trkpt>
			<trkpt lat="49.093757" lon="18.852476">
				<ele>1019.000000</ele>
			</trkpt>
			<trkpt lat="49.093757" lon="18.852476">
				<ele>1019.000000</ele>
			</trkpt>
			<trkpt lat="49.093751" lon="18.852476">
				<ele>1019.000000</ele>
			</trkpt>
			<trkpt lat="49.093681" lon="18.852574">
				<ele>1016.000000</ele>
			</trkpt>
			<trkpt lat="49.093645" lon="18.852700">
				<ele>1014.000000</ele>
			</trkpt>
			<trkpt lat="49.093569" lon="18.852826">
				<ele>1011.000000</ele>
			</trkpt>
			<trkpt lat="49.093451" lon="18.852960">
				<ele>1007.000000</ele>
			</trkpt>
			<trkpt lat="49.093139" lon="18.853203">
				<ele>999.000000</ele>
			</trkpt>
			<trkpt lat="49.092987" lon="18.853329">
				<ele>995.000000</ele>
			</trkpt>
			<trkpt lat="49.092816" lon="18.853375">
				<ele>991.000000</ele>
			</trkpt>
			<trkpt lat="49.092586" lon="18.853625">
				<ele>981.000000</ele>
			</trkpt>
			<trkpt lat="49.092469" lon="18.853662">
				<ele>978.000000</ele>
			</trkpt>
			<trkpt lat="49.092163" lon="18.853751">
				<ele>968.000000</ele>
			</trkpt>
			<trkpt lat="49.091886" lon="18.853851">
				<ele>958.000000</ele>
			</trkpt>
			<trkpt lat="49.091886" lon="18.853851">
				<ele>958.000000</ele>
			</trkpt>
			<trkpt lat="49.091739" lon="18.853895">
				<ele>953.000000</ele>
			</trkpt>
			<trkpt lat="49.091263" lon="18.854281">
				<ele>938.000000</ele>
			</trkpt>
			<trkpt lat="49.091234" lon="18.854182">
				<ele>938.000000</ele>
			</trkpt>
			<trkpt lat="49.091234" lon="18.854048">
				<ele>937.000000</ele>
			</trkpt>
			<trkpt lat="49.091234" lon="18.853922">
				<ele>936.000000</ele>
			</trkpt>
			<trkpt lat="49.091298" lon="18.853778">
				<ele>935.000000</ele>
			</trkpt>
			<trkpt lat="49.091357" lon="18.853662">
				<ele>935.000000</ele>
			</trkpt>
			<trkpt lat="49.091434" lon="18.853518">
				<ele>935.000000</ele>
			</trkpt>
			<trkpt lat="49.091445" lon="18.853472">
				<ele>934.000000</ele>
			</trkpt>
			<trkpt lat="49.091434" lon="18.853438">
				<ele>934.000000</ele>
			</trkpt>
			<trkpt lat="49.091375" lon="18.853438">
				<ele>933.000000</ele>
			</trkpt>
			<trkpt lat="49.091269" lon="18.853608">
				<ele>931.000000</ele>
			</trkpt>
			<trkpt lat="49.091128" lon="18.853895">
				<ele>929.000000</ele>
			</trkpt>
			<trkpt lat="49.090586" lon="18.854776">
				<ele>919.000000</ele>
			</trkpt>
			<trkpt lat="49.090457" lon="18.855027">
				<ele>916.000000</ele>
			</trkpt>
			<trkpt lat="49.090280" lon="18.855620">
				<ele>911.000000</ele>
			</trkpt>
			<trkpt lat="49.090127" lon="18.856088">
				<ele>908.000000</ele>
			</trkpt>
			<trkpt lat="49.090086" lon="18.856239">
				<ele>907.000000</ele>
			</trkpt>
			<trkpt lat="49.090086" lon="18.856356">
				<ele>906.000000</ele>
			</trkpt>
			<trkpt lat="49.090116" lon="18.856392">
				<ele>906.000000</ele>
			</trkpt>
			<trkpt lat="49.090157" lon="18.856375">
				<ele>905.000000</ele>
			</trkpt>
			<trkpt lat="49.090292" lon="18.856212">
				<ele>904.000000</ele>
			</trkpt>
			<trkpt lat="49.090363" lon="18.856078">
				<ele>903.000000</ele>
			</trkpt>
			<trkpt lat="49.090416" lon="18.856015">
				<ele>902.000000</ele>
			</trkpt>
			<trkpt lat="49.090451" lon="18.856042">
				<ele>901.000000</ele>
			</trkpt>
			<trkpt lat="49.090463" lon="18.856141">
				<ele>900.000000</ele>
			</trkpt>
			<trkpt lat="49.090316" lon="18.856509">
				<ele>898.000000</ele>
			</trkpt>
			<trkpt lat="49.090251" lon="18.856715">
				<ele>897.000000</ele>
			</trkpt>
			<trkpt lat="49.090151" lon="18.856967">
				<ele>895.000000</ele>
			</trkpt>
			<trkpt lat="49.090063" lon="18.857111">
				<ele>894.000000</ele>
			</trkpt>
			<trkpt lat="49.089992" lon="18.857220">
				<ele>893.000000</ele>
			</trkpt>
			<trkpt lat="49.089934" lon="18.857308">
				<ele>892.000000</ele>
			</trkpt>
			<trkpt lat="49.089951" lon="18.857363">
				<ele>891.000000</ele>
			</trkpt>
			<trkpt lat="49.089992" lon="18.857380">
				<ele>890.000000</ele>
			</trkpt>
			<trkpt lat="49.090051" lon="18.857336">
				<ele>889.000000</ele>
			</trkpt>
			<trkpt lat="49.090151" lon="18.857228">
				<ele>889.000000</ele>
			</trkpt>
			<trkpt lat="49.090327" lon="18.857067">
				<ele>886.000000</ele>
			</trkpt>
			<trkpt lat="49.090545" lon="18.856742">
				<ele>882.000000</ele>
			</trkpt>
			<trkpt lat="49.090575" lon="18.856635">
				<ele>882.000000</ele>
			</trkpt>
			<trkpt lat="49.090622" lon="18.856599">
				<ele>882.000000</ele>
			</trkpt>
			<trkpt lat="49.090645" lon="18.856644">
				<ele>881.000000</ele>
			</trkpt>
			<trkpt lat="49.090639" lon="18.856725">
				<ele>880.000000</ele>
			</trkpt>
			<trkpt lat="49.090616" lon="18.856761">
				<ele>880.000000</ele>
			</trkpt>
			<trkpt lat="49.090516" lon="18.857067">
				<ele>877.000000</ele>
			</trkpt>
			<trkpt lat="49.090469" lon="18.857291">
				<ele>875.000000</ele>
			</trkpt>
			<trkpt lat="49.090428" lon="18.857524">
				<ele>873.000000</ele>
			</trkpt>
			<trkpt lat="49.090339" lon="18.857722">
				<ele>872.000000</ele>
			</trkpt>
			<trkpt lat="49.090257" lon="18.857847">
				<ele>871.000000</ele>
			</trkpt>
			<trkpt lat="49.090110" lon="18.858072">
				<ele>869.000000</ele>
			</trkpt>
			<trkpt lat="49.090010" lon="18.858243">
				<ele>868.000000</ele>
			</trkpt>
			<trkpt lat="49.089816" lon="18.858638">
				<ele>865.000000</ele>
			</trkpt>
			<trkpt lat="49.089675" lon="18.858962">
				<ele>862.000000</ele>
			</trkpt>
			<trkpt lat="49.089551" lon="18.859178">
				<ele>860.000000</ele>
			</trkpt>
			<trkpt lat="49.089398" lon="18.859357">
				<ele>858.000000</ele>
			</trkpt>
			<trkpt lat="49.089286" lon="18.859365">
				<ele>857.000000</ele>
			</trkpt>
			<trkpt lat="49.089221" lon="18.859401">
				<ele>856.000000</ele>
			</trkpt>
			<trkpt lat="49.089063" lon="18.859896">
				<ele>848.000000</ele>
			</trkpt>
			<trkpt lat="49.088939" lon="18.860094">
				<ele>842.000000</ele>
			</trkpt>
			<trkpt lat="49.088939" lon="18.860094">
				<ele>842.000000</ele>
			</trkpt>
			<trkpt lat="49.088910" lon="18.860147">
				<ele>841.000000</ele>
			</trkpt>
			<trkpt lat="49.088833" lon="18.860283">
				<ele>836.000000</ele>
			</trkpt>
			<trkpt lat="49.088716" lon="18.860533">
				<ele>827.000000</ele>
			</trkpt>
			<trkpt lat="49.088704" lon="18.860560">
				<ele>827.000000</ele>
			</trkpt>
			<trkpt lat="49.088686" lon="18.860587">
				<ele>826.000000</ele>
			</trkpt>
			<trkpt lat="49.088586" lon="18.860713">
				<ele>820.000000</ele>
			</trkpt>
			<trkpt lat="49.088539" lon="18.860830">
				<ele>816.000000</ele>
			</trkpt>
			<trkpt lat="49.088462" lon="18.861109">
				<ele>806.000000</ele>
			</trkpt>
			<trkpt lat="49.088362" lon="18.861180">
				<ele>803.000000</ele>
			</trkpt>
			<trkpt lat="49.088180" lon="18.861449">
				<ele>791.000000</ele>
			</trkpt>
			<trkpt lat="49.087963" lon="18.861738">
				<ele>777.000000</ele>
			</trkpt>
			<trkpt lat="49.087963" lon="18.861738">
				<ele>777.000000</ele>
			</trkpt>
			<trkpt lat="49.087915" lon="18.861801">
				<ele>774.000000</ele>
			</trkpt>
			<trkpt lat="49.087586" lon="18.861980">
				<ele>757.000000</ele>
			</trkpt>
			<trkpt lat="49.087327" lon="18.862231">
				<ele>741.000000</ele>
			</trkpt>
			<trkpt lat="49.087157" lon="18.862520">
				<ele>729.000000</ele>
			</trkpt>
			<trkpt lat="49.087086" lon="18.862627">
				<ele>725.000000</ele>
			</trkpt>
			<trkpt lat="49.086992" lon="18.862734">
				<ele>723.000000</ele>
			</trkpt>
			<trkpt lat="49.086868" lon="18.863040">
				<ele>713.000000</ele>
			</trkpt>
			<trkpt lat="49.086697" lon="18.863300">
				<ele>705.000000</ele>
			</trkpt>
			<trkpt lat="49.086697" lon="18.863300">
				<ele>705.000000</ele>
			</trkpt>
			<trkpt lat="49.086657" lon="18.863354">
				<ele>703.000000</ele>
			</trkpt>
			<trkpt lat="49.086515" lon="18.863803">
				<ele>691.000000</ele>
			</trkpt>
			<trkpt lat="49.086510" lon="18.863839">
				<ele>690.000000</ele>
			</trkpt>
			<trkpt lat="49.086521" lon="18.863875">
				<ele>690.000000</ele>
			</trkpt>
			<trkpt lat="49.086533" lon="18.863912">
				<ele>690.000000</ele>
			</trkpt>
			<trkpt lat="49.086568" lon="18.863948">
				<ele>689.000000</ele>
			</trkpt>
			<trkpt lat="49.086621" lon="18.863956">
				<ele>688.000000</ele>
			</trkpt>
			<trkpt lat="49.086739" lon="18.863912">
				<ele>687.000000</ele>
			</trkpt>
			<trkpt lat="49.086839" lon="18.863875">
				<ele>685.000000</ele>
			</trkpt>
			<trkpt lat="49.086921" lon="18.863866">
				<ele>684.000000</ele>
			</trkpt>
			<trkpt lat="49.086968" lon="18.863875">
				<ele>684.000000</ele>
			</trkpt>
			<trkpt lat="49.086998" lon="18.863948">
				<ele>682.000000</ele>
			</trkpt>
			<trkpt lat="49.087027" lon="18.864055">
				<ele>681.000000</ele>
			</trkpt>
			<trkpt lat="49.087092" lon="18.864271">
				<ele>678.000000</ele>
			</trkpt>
			<trkpt lat="49.087127" lon="18.864378">
				<ele>676.000000</ele>
			</trkpt>
			<trkpt lat="49.087174" lon="18.864424">
				<ele>675.000000</ele>
			</trkpt>
			<trkpt lat="49.087274" lon="18.864612">
				<ele>672.000000</ele>
			</trkpt>
			<trkpt lat="49.087410" lon="18.864872">
				<ele>669.000000</ele>
			</trkpt>
			<trkpt lat="49.087492" lon="18.865044">
				<ele>666.000000</ele>
			</trkpt>
			<trkpt lat="49.087586" lon="18.865133">
				<ele>665.000000</ele>
			</trkpt>
			<trkpt lat="49.087662" lon="18.865151">
				<ele>664.000000</ele>
			</trkpt>
			<trkpt lat="49.087727" lon="18.865124">
				<ele>663.000000</ele>
			</trkpt>
			<trkpt lat="49.087815" lon="18.865061">
				<ele>662.000000</ele>
			</trkpt>
			<trkpt lat="49.087915" lon="18.864935">
				<ele>660.000000</ele>
			</trkpt>
			<trkpt lat="49.088016" lon="18.864810">
				<ele>661.000000</ele>
			</trkpt>
			<trkpt lat="49.088074" lon="18.864818">
				<ele>661.000000</ele>
			</trkpt>
			<trkpt lat="49.088092" lon="18.864891">
				<ele>660.000000</ele>
			</trkpt>
			<trkpt lat="49.088063" lon="18.864962">
				<ele>659.000000</ele>
			</trkpt>
			<trkpt lat="49.087980" lon="18.865080">
				<ele>657.000000</ele>
			</trkpt>
			<trkpt lat="49.087868" lon="18.865286">
				<ele>654.000000</ele>
			</trkpt>
			<trkpt lat="49.087798" lon="18.865457">
				<ele>652.000000</ele>
			</trkpt>
			<trkpt lat="49.087727" lon="18.865627">
				<ele>649.000000</ele>
			</trkpt>
			<trkpt lat="49.087651" lon="18.865753">
				<ele>647.000000</ele>
			</trkpt>
			<trkpt lat="49.087556" lon="18.865852">
				<ele>645.000000</ele>
			</trkpt>
			<trkpt lat="49.087439" lon="18.865923">
				<ele>643.000000</ele>
			</trkpt>
			<trkpt lat="49.087339" lon="18.865950">
				<ele>641.000000</ele>
			</trkpt>
			<trkpt lat="49.087210" lon="18.865942">
				<ele>640.000000</ele>
			</trkpt>
			<trkpt lat="49.087104" lon="18.865852">
				<ele>638.000000</ele>
			</trkpt>
			<trkpt lat="49.087027" lon="18.865762">
				<ele>636.000000</ele>
			</trkpt>
			<trkpt lat="49.086968" lon="18.865707">
				<ele>636.000000</ele>
			</trkpt>
			<trkpt lat="49.086909" lon="18.865717">
				<ele>635.000000</ele>
			</trkpt>
			<trkpt lat="49.086862" lon="18.865762">
				<ele>633.000000</ele>
			</trkpt>
			<trkpt lat="49.086797" lon="18.865860">
				<ele>632.000000</ele>
			</trkpt>
			<trkpt lat="49.086574" lon="18.866049">
				<ele>627.000000</ele>
			</trkpt>
			<trkpt lat="49.086421" lon="18.866076">
				<ele>624.000000</ele>
			</trkpt>
			<trkpt lat="49.086186" lon="18.866049">
				<ele>621.000000</ele>
			</trkpt>
			<trkpt lat="49.086050" lon="18.866032">
				<ele>619.000000</ele>
			</trkpt>
			<trkpt lat="49.085862" lon="18.865996">
				<ele>616.000000</ele>
			</trkpt>
			<trkpt lat="49.085762" lon="18.865942">
				<ele>615.000000</ele>
			</trkpt>
			<trkpt lat="49.085651" lon="18.865870">
				<ele>613.000000</ele>
			</trkpt>
			<trkpt lat="49.085545" lon="18.865736">
				<ele>612.000000</ele>
			</trkpt>
			<trkpt lat="49.085439" lon="18.865627">
				<ele>610.000000</ele>
			</trkpt>
			<trkpt lat="49.085339" lon="18.865510">
				<ele>608.000000</ele>
			</trkpt>
			<trkpt lat="49.085238" lon="18.865376">
				<ele>607.000000</ele>
			</trkpt>
			<trkpt lat="49.085185" lon="18.865231">
				<ele>605.000000</ele>
			</trkpt>
			<trkpt lat="49.085180" lon="18.865007">
				<ele>604.000000</ele>
			</trkpt>
			<trkpt lat="49.085180" lon="18.864728">
				<ele>602.000000</ele>
			</trkpt>
			<trkpt lat="49.085180" lon="18.864441">
				<ele>601.000000</ele>
			</trkpt>
			<trkpt lat="49.085203" lon="18.864162">
				<ele>599.000000</ele>
			</trkpt>
			<trkpt lat="49.085215" lon="18.863956">
				<ele>597.000000</ele>
			</trkpt>
			<trkpt lat="49.085215" lon="18.863795">
				<ele>596.000000</ele>
			</trkpt>
			<trkpt lat="49.085180" lon="18.863740">
				<ele>596.000000</ele>
			</trkpt>
			<trkpt lat="49.085127" lon="18.863696">
				<ele>595.000000</ele>
			</trkpt>
			<trkpt lat="49.085098" lon="18.863669">
				<ele>595.000000</ele>
			</trkpt>
			<trkpt lat="49.085045" lon="18.863795">
				<ele>593.000000</ele>
			</trkpt>
			<trkpt lat="49.084992" lon="18.863902">
				<ele>592.000000</ele>
			</trkpt>
			<trkpt lat="49.084927" lon="18.864001">
				<ele>591.000000</ele>
			</trkpt>
			<trkpt lat="49.083915" lon="18.865681">
				<ele>569.000000</ele>
			</trkpt>
			<trkpt lat="49.082485" lon="18.868133">
				<ele>539.000000</ele>
			</trkpt>
			<trkpt lat="49.082320" lon="18.868394">
				<ele>536.000000</ele>
			</trkpt>
			<trkpt lat="49.081691" lon="18.869409">
				<ele>525.000000</ele>
			</trkpt>
			<trkpt lat="49.081838" lon="18.869472">
				<ele>526.000000</ele>
			</trkpt>
			<trkpt lat="49.081938" lon="18.869517">
				<ele>527.000000</ele>
			</trkpt>
			<trkpt lat="49.082332" lon="18.869615">
				<ele>531.000000</ele>
			</trkpt>
			<trkpt lat="49.082479" lon="18.869642">
				<ele>531.000000</ele>
			</trkpt>
			<trkpt lat="49.082568" lon="18.869669">
				<ele>532.000000</ele>
			</trkpt>
			<trkpt lat="49.082627" lon="18.869705">
				<ele>533.000000</ele>
			</trkpt>
		</trkseg>
	</trk>
</gpx>

