<?xml version="1.0" encoding="utf-8"?>
<gpx xmlns="http://www.topografix.com/GPX/1/1" version="1.1" creator="https://mapy.com/">
	<trk>
		<name>Ördög-szakadék - Čertová roklina</name>
		<trkseg>
			<trkpt lat="48.744553" lon="19.853155">
				<ele>742.000000</ele>
			</trkpt>
			<trkpt lat="48.744559" lon="19.853100">
				<ele>742.000000</ele>
			</trkpt>
			<trkpt lat="48.744594" lon="19.852803">
				<ele>742.000000</ele>
			</trkpt>
			<trkpt lat="48.744624" lon="19.852507">
				<ele>741.000000</ele>
			</trkpt>
			<trkpt lat="48.744630" lon="19.852310">
				<ele>741.000000</ele>
			</trkpt>
			<trkpt lat="48.744624" lon="19.852076">
				<ele>740.000000</ele>
			</trkpt>
			<trkpt lat="48.744612" lon="19.851816">
				<ele>740.000000</ele>
			</trkpt>
			<trkpt lat="48.744541" lon="19.851591">
				<ele>738.000000</ele>
			</trkpt>
			<trkpt lat="48.744458" lon="19.851411">
				<ele>736.000000</ele>
			</trkpt>
			<trkpt lat="48.744363" lon="19.851241">
				<ele>734.000000</ele>
			</trkpt>
			<trkpt lat="48.744287" lon="19.851132">
				<ele>732.000000</ele>
			</trkpt>
			<trkpt lat="48.744245" lon="19.851097">
				<ele>731.000000</ele>
			</trkpt>
			<trkpt lat="48.744185" lon="19.851044">
				<ele>730.000000</ele>
			</trkpt>
			<trkpt lat="48.744156" lon="19.851025">
				<ele>730.000000</ele>
			</trkpt>
			<trkpt lat="48.744091" lon="19.851007">
				<ele>730.000000</ele>
			</trkpt>
			<trkpt lat="48.744061" lon="19.850998">
				<ele>730.000000</ele>
			</trkpt>
			<trkpt lat="48.744002" lon="19.850981">
				<ele>730.000000</ele>
			</trkpt>
			<trkpt lat="48.743895" lon="19.850971">
				<ele>730.000000</ele>
			</trkpt>
			<trkpt lat="48.743854" lon="19.850962">
				<ele>730.000000</ele>
			</trkpt>
			<trkpt lat="48.743830" lon="19.850954">
				<ele>730.000000</ele>
			</trkpt>
			<trkpt lat="48.743819" lon="19.850954">
				<ele>730.000000</ele>
			</trkpt>
			<trkpt lat="48.743694" lon="19.850918">
				<ele>730.000000</ele>
			</trkpt>
			<trkpt lat="48.743570" lon="19.850891">
				<ele>730.000000</ele>
			</trkpt>
			<trkpt lat="48.743516" lon="19.850891">
				<ele>731.000000</ele>
			</trkpt>
			<trkpt lat="48.743439" lon="19.850899">
				<ele>732.000000</ele>
			</trkpt>
			<trkpt lat="48.743226" lon="19.850935">
				<ele>736.000000</ele>
			</trkpt>
			<trkpt lat="48.743155" lon="19.850944">
				<ele>737.000000</ele>
			</trkpt>
			<trkpt lat="48.743078" lon="19.850962">
				<ele>738.000000</ele>
			</trkpt>
			<trkpt lat="48.743019" lon="19.850971">
				<ele>739.000000</ele>
			</trkpt>
			<trkpt lat="48.742924" lon="19.850954">
				<ele>740.000000</ele>
			</trkpt>
			<trkpt lat="48.742811" lon="19.850918">
				<ele>742.000000</ele>
			</trkpt>
			<trkpt lat="48.742651" lon="19.850872">
				<ele>744.000000</ele>
			</trkpt>
			<trkpt lat="48.742480" lon="19.850801">
				<ele>746.000000</ele>
			</trkpt>
			<trkpt lat="48.742219" lon="19.850702">
				<ele>750.000000</ele>
			</trkpt>
			<trkpt lat="48.742219" lon="19.850702">
				<ele>751.000000</ele>
			</trkpt>
			<trkpt lat="48.742219" lon="19.850702">
				<ele>751.000000</ele>
			</trkpt>
			<trkpt lat="48.742118" lon="19.850656">
				<ele>751.000000</ele>
			</trkpt>
			<trkpt lat="48.742036" lon="19.850602">
				<ele>752.000000</ele>
			</trkpt>
			<trkpt lat="48.741994" lon="19.850549">
				<ele>752.000000</ele>
			</trkpt>
			<trkpt lat="48.741840" lon="19.850360">
				<ele>755.000000</ele>
			</trkpt>
			<trkpt lat="48.741692" lon="19.850172">
				<ele>757.000000</ele>
			</trkpt>
			<trkpt lat="48.741597" lon="19.850063">
				<ele>758.000000</ele>
			</trkpt>
			<trkpt lat="48.741556" lon="19.850002">
				<ele>758.000000</ele>
			</trkpt>
			<trkpt lat="48.741455" lon="19.849839">
				<ele>760.000000</ele>
			</trkpt>
			<trkpt lat="48.741372" lon="19.849696">
				<ele>761.000000</ele>
			</trkpt>
			<trkpt lat="48.741259" lon="19.849524">
				<ele>761.000000</ele>
			</trkpt>
			<trkpt lat="48.741171" lon="19.849408">
				<ele>762.000000</ele>
			</trkpt>
			<trkpt lat="48.741058" lon="19.849291">
				<ele>762.000000</ele>
			</trkpt>
			<trkpt lat="48.740880" lon="19.849147">
				<ele>763.000000</ele>
			</trkpt>
			<trkpt lat="48.740785" lon="19.849067">
				<ele>763.000000</ele>
			</trkpt>
			<trkpt lat="48.740625" lon="19.848923">
				<ele>764.000000</ele>
			</trkpt>
			<trkpt lat="48.740448" lon="19.848815">
				<ele>765.000000</ele>
			</trkpt>
			<trkpt lat="48.740235" lon="19.848734">
				<ele>766.000000</ele>
			</trkpt>
			<trkpt lat="48.740074" lon="19.848690">
				<ele>766.000000</ele>
			</trkpt>
			<trkpt lat="48.739992" lon="19.848681">
				<ele>767.000000</ele>
			</trkpt>
			<trkpt lat="48.739861" lon="19.848671">
				<ele>767.000000</ele>
			</trkpt>
			<trkpt lat="48.739494" lon="19.848698">
				<ele>768.000000</ele>
			</trkpt>
			<trkpt lat="48.739304" lon="19.848690">
				<ele>769.000000</ele>
			</trkpt>
			<trkpt lat="48.739144" lon="19.848635">
				<ele>770.000000</ele>
			</trkpt>
			<trkpt lat="48.738943" lon="19.848555">
				<ele>771.000000</ele>
			</trkpt>
			<trkpt lat="48.738759" lon="19.848501">
				<ele>772.000000</ele>
			</trkpt>
			<trkpt lat="48.738629" lon="19.848455">
				<ele>773.000000</ele>
			</trkpt>
			<trkpt lat="48.738534" lon="19.848411">
				<ele>774.000000</ele>
			</trkpt>
			<trkpt lat="48.738511" lon="19.848394">
				<ele>774.000000</ele>
			</trkpt>
			<trkpt lat="48.738487" lon="19.848357">
				<ele>774.000000</ele>
			</trkpt>
			<trkpt lat="48.738475" lon="19.848312">
				<ele>774.000000</ele>
			</trkpt>
			<trkpt lat="48.738333" lon="19.848581">
				<ele>770.000000</ele>
			</trkpt>
			<trkpt lat="48.738202" lon="19.848707">
				<ele>770.000000</ele>
			</trkpt>
			<trkpt lat="48.738066" lon="19.848905">
				<ele>770.000000</ele>
			</trkpt>
			<trkpt lat="48.738013" lon="19.848958">
				<ele>770.000000</ele>
			</trkpt>
			<trkpt lat="48.737811" lon="19.849147">
				<ele>770.000000</ele>
			</trkpt>
			<trkpt lat="48.737717" lon="19.849210">
				<ele>770.000000</ele>
			</trkpt>
			<trkpt lat="48.737587" lon="19.849363">
				<ele>770.000000</ele>
			</trkpt>
			<trkpt lat="48.737456" lon="19.849463">
				<ele>770.000000</ele>
			</trkpt>
			<trkpt lat="48.737302" lon="19.849480">
				<ele>770.000000</ele>
			</trkpt>
			<trkpt lat="48.737165" lon="19.849507">
				<ele>770.000000</ele>
			</trkpt>
			<trkpt lat="48.736994" lon="19.849471">
				<ele>770.000000</ele>
			</trkpt>
			<trkpt lat="48.736834" lon="19.849463">
				<ele>770.000000</ele>
			</trkpt>
			<trkpt lat="48.736697" lon="19.849516">
				<ele>770.000000</ele>
			</trkpt>
			<trkpt lat="48.736579" lon="19.849534">
				<ele>769.000000</ele>
			</trkpt>
			<trkpt lat="48.736478" lon="19.849534">
				<ele>767.000000</ele>
			</trkpt>
			<trkpt lat="48.736378" lon="19.849597">
				<ele>766.000000</ele>
			</trkpt>
			<trkpt lat="48.736188" lon="19.849839">
				<ele>761.000000</ele>
			</trkpt>
			<trkpt lat="48.736277" lon="19.849507">
				<ele>758.000000</ele>
			</trkpt>
			<trkpt lat="48.736342" lon="19.849363">
				<ele>756.000000</ele>
			</trkpt>
			<trkpt lat="48.736384" lon="19.849237">
				<ele>754.000000</ele>
			</trkpt>
			<trkpt lat="48.736490" lon="19.848950">
				<ele>751.000000</ele>
			</trkpt>
			<trkpt lat="48.736502" lon="19.848780">
				<ele>749.000000</ele>
			</trkpt>
			<trkpt lat="48.736514" lon="19.848654">
				<ele>747.000000</ele>
			</trkpt>
			<trkpt lat="48.736478" lon="19.848411">
				<ele>744.000000</ele>
			</trkpt>
			<trkpt lat="48.736294" lon="19.848384">
				<ele>740.000000</ele>
			</trkpt>
			<trkpt lat="48.736218" lon="19.848375">
				<ele>739.000000</ele>
			</trkpt>
			<trkpt lat="48.736247" lon="19.848249">
				<ele>738.000000</ele>
			</trkpt>
			<trkpt lat="48.736235" lon="19.848115">
				<ele>736.000000</ele>
			</trkpt>
			<trkpt lat="48.736182" lon="19.848006">
				<ele>735.000000</ele>
			</trkpt>
			<trkpt lat="48.736046" lon="19.847916">
				<ele>733.000000</ele>
			</trkpt>
			<trkpt lat="48.735939" lon="19.847935">
				<ele>732.000000</ele>
			</trkpt>
			<trkpt lat="48.735856" lon="19.847962">
				<ele>730.000000</ele>
			</trkpt>
			<trkpt lat="48.735761" lon="19.848052">
				<ele>729.000000</ele>
			</trkpt>
			<trkpt lat="48.735702" lon="19.848078">
				<ele>728.000000</ele>
			</trkpt>
			<trkpt lat="48.735608" lon="19.848052">
				<ele>726.000000</ele>
			</trkpt>
			<trkpt lat="48.735566" lon="19.847998">
				<ele>726.000000</ele>
			</trkpt>
			<trkpt lat="48.735483" lon="19.847971">
				<ele>724.000000</ele>
			</trkpt>
			<trkpt lat="48.735418" lon="19.848052">
				<ele>723.000000</ele>
			</trkpt>
			<trkpt lat="48.735394" lon="19.848115">
				<ele>722.000000</ele>
			</trkpt>
			<trkpt lat="48.735453" lon="19.848304">
				<ele>720.000000</ele>
			</trkpt>
			<trkpt lat="48.735506" lon="19.848501">
				<ele>719.000000</ele>
			</trkpt>
			<trkpt lat="48.735512" lon="19.848717">
				<ele>717.000000</ele>
			</trkpt>
			<trkpt lat="48.735394" lon="19.849606">
				<ele>710.000000</ele>
			</trkpt>
			<trkpt lat="48.735323" lon="19.849893">
				<ele>707.000000</ele>
			</trkpt>
			<trkpt lat="48.735181" lon="19.850585">
				<ele>699.000000</ele>
			</trkpt>
			<trkpt lat="48.735033" lon="19.851231">
				<ele>693.000000</ele>
			</trkpt>
			<trkpt lat="48.734932" lon="19.851501">
				<ele>690.000000</ele>
			</trkpt>
			<trkpt lat="48.734802" lon="19.851734">
				<ele>687.000000</ele>
			</trkpt>
			<trkpt lat="48.734677" lon="19.851878">
				<ele>684.000000</ele>
			</trkpt>
			<trkpt lat="48.734624" lon="19.851996">
				<ele>683.000000</ele>
			</trkpt>
			<trkpt lat="48.734588" lon="19.852157">
				<ele>681.000000</ele>
			</trkpt>
			<trkpt lat="48.734541" lon="19.852310">
				<ele>680.000000</ele>
			</trkpt>
			<trkpt lat="48.734434" lon="19.852552">
				<ele>677.000000</ele>
			</trkpt>
			<trkpt lat="48.734310" lon="19.852795">
				<ele>674.000000</ele>
			</trkpt>
			<trkpt lat="48.734244" lon="19.852948">
				<ele>672.000000</ele>
			</trkpt>
			<trkpt lat="48.734192" lon="19.853109">
				<ele>670.000000</ele>
			</trkpt>
			<trkpt lat="48.734162" lon="19.853298">
				<ele>668.000000</ele>
			</trkpt>
			<trkpt lat="48.734120" lon="19.853459">
				<ele>666.000000</ele>
			</trkpt>
			<trkpt lat="48.734049" lon="19.853568">
				<ele>665.000000</ele>
			</trkpt>
			<trkpt lat="48.734020" lon="19.853694">
				<ele>663.000000</ele>
			</trkpt>
			<trkpt lat="48.733990" lon="19.853755">
				<ele>663.000000</ele>
			</trkpt>
			<trkpt lat="48.733931" lon="19.853755">
				<ele>662.000000</ele>
			</trkpt>
			<trkpt lat="48.733889" lon="19.853801">
				<ele>661.000000</ele>
			</trkpt>
			<trkpt lat="48.733830" lon="19.853927">
				<ele>660.000000</ele>
			</trkpt>
			<trkpt lat="48.733776" lon="19.854034">
				<ele>659.000000</ele>
			</trkpt>
			<trkpt lat="48.733599" lon="19.854421">
				<ele>654.000000</ele>
			</trkpt>
			<trkpt lat="48.733451" lon="19.854700">
				<ele>651.000000</ele>
			</trkpt>
			<trkpt lat="48.733350" lon="19.854879">
				<ele>649.000000</ele>
			</trkpt>
			<trkpt lat="48.733308" lon="19.854887">
				<ele>649.000000</ele>
			</trkpt>
			<trkpt lat="48.733172" lon="19.854942">
				<ele>647.000000</ele>
			</trkpt>
			<trkpt lat="48.733012" lon="19.855032">
				<ele>646.000000</ele>
			</trkpt>
			<trkpt lat="48.732941" lon="19.855122">
				<ele>645.000000</ele>
			</trkpt>
			<trkpt lat="48.732905" lon="19.855256">
				<ele>644.000000</ele>
			</trkpt>
			<trkpt lat="48.732852" lon="19.855355">
				<ele>643.000000</ele>
			</trkpt>
			<trkpt lat="48.732799" lon="19.855598">
				<ele>641.000000</ele>
			</trkpt>
			<trkpt lat="48.732758" lon="19.855831">
				<ele>640.000000</ele>
			</trkpt>
			<trkpt lat="48.732704" lon="19.855992">
				<ele>638.000000</ele>
			</trkpt>
			<trkpt lat="48.732675" lon="19.856271">
				<ele>636.000000</ele>
			</trkpt>
			<trkpt lat="48.732610" lon="19.856379">
				<ele>634.000000</ele>
			</trkpt>
			<trkpt lat="48.732556" lon="19.856495">
				<ele>633.000000</ele>
			</trkpt>
			<trkpt lat="48.732491" lon="19.856585">
				<ele>632.000000</ele>
			</trkpt>
			<trkpt lat="48.732426" lon="19.856828">
				<ele>630.000000</ele>
			</trkpt>
			<trkpt lat="48.732414" lon="19.856864">
				<ele>630.000000</ele>
			</trkpt>
			<trkpt lat="48.732426" lon="19.857008">
				<ele>629.000000</ele>
			</trkpt>
			<trkpt lat="48.732414" lon="19.857080">
				<ele>629.000000</ele>
			</trkpt>
			<trkpt lat="48.732355" lon="19.857250">
				<ele>628.000000</ele>
			</trkpt>
			<trkpt lat="48.732295" lon="19.857376">
				<ele>627.000000</ele>
			</trkpt>
			<trkpt lat="48.732260" lon="19.857484">
				<ele>626.000000</ele>
			</trkpt>
			<trkpt lat="48.732213" lon="19.857592">
				<ele>626.000000</ele>
			</trkpt>
			<trkpt lat="48.732165" lon="19.857700">
				<ele>625.000000</ele>
			</trkpt>
			<trkpt lat="48.732023" lon="19.857924">
				<ele>623.000000</ele>
			</trkpt>
			<trkpt lat="48.731964" lon="19.858013">
				<ele>623.000000</ele>
			</trkpt>
			<trkpt lat="48.731964" lon="19.858013">
				<ele>623.000000</ele>
			</trkpt>
			<trkpt lat="48.731934" lon="19.858050">
				<ele>623.000000</ele>
			</trkpt>
			<trkpt lat="48.731881" lon="19.858158">
				<ele>622.000000</ele>
			</trkpt>
			<trkpt lat="48.731810" lon="19.858329">
				<ele>621.000000</ele>
			</trkpt>
			<trkpt lat="48.731762" lon="19.858409">
				<ele>620.000000</ele>
			</trkpt>
			<trkpt lat="48.731750" lon="19.858455">
				<ele>620.000000</ele>
			</trkpt>
			<trkpt lat="48.731727" lon="19.858508">
				<ele>620.000000</ele>
			</trkpt>
			<trkpt lat="48.731745" lon="19.858642">
				<ele>620.000000</ele>
			</trkpt>
			<trkpt lat="48.731774" lon="19.858751">
				<ele>620.000000</ele>
			</trkpt>
			<trkpt lat="48.731774" lon="19.858768">
				<ele>620.000000</ele>
			</trkpt>
			<trkpt lat="48.731792" lon="19.858876">
				<ele>621.000000</ele>
			</trkpt>
			<trkpt lat="48.731750" lon="19.859047">
				<ele>624.000000</ele>
			</trkpt>
			<trkpt lat="48.731709" lon="19.859227">
				<ele>627.000000</ele>
			</trkpt>
			<trkpt lat="48.731786" lon="19.859388">
				<ele>633.000000</ele>
			</trkpt>
			<trkpt lat="48.731816" lon="19.859497">
				<ele>639.000000</ele>
			</trkpt>
			<trkpt lat="48.731839" lon="19.859325">
				<ele>636.000000</ele>
			</trkpt>
			<trkpt lat="48.731958" lon="19.858768">
				<ele>630.000000</ele>
			</trkpt>
			<trkpt lat="48.732011" lon="19.858589">
				<ele>630.000000</ele>
			</trkpt>
			<trkpt lat="48.732065" lon="19.858472">
				<ele>630.000000</ele>
			</trkpt>
			<trkpt lat="48.732082" lon="19.858392">
				<ele>630.000000</ele>
			</trkpt>
			<trkpt lat="48.732088" lon="19.858338">
				<ele>630.000000</ele>
			</trkpt>
			<trkpt lat="48.732111" lon="19.858266">
				<ele>630.000000</ele>
			</trkpt>
			<trkpt lat="48.732165" lon="19.858229">
				<ele>630.000000</ele>
			</trkpt>
			<trkpt lat="48.732224" lon="19.858202">
				<ele>630.000000</ele>
			</trkpt>
			<trkpt lat="48.732301" lon="19.858212">
				<ele>630.000000</ele>
			</trkpt>
			<trkpt lat="48.732402" lon="19.858256">
				<ele>630.000000</ele>
			</trkpt>
			<trkpt lat="48.732455" lon="19.858248">
				<ele>630.000000</ele>
			</trkpt>
			<trkpt lat="48.732556" lon="19.858202">
				<ele>630.000000</ele>
			</trkpt>
			<trkpt lat="48.732627" lon="19.858166">
				<ele>630.000000</ele>
			</trkpt>
			<trkpt lat="48.732681" lon="19.858202">
				<ele>630.000000</ele>
			</trkpt>
			<trkpt lat="48.732734" lon="19.858283">
				<ele>630.000000</ele>
			</trkpt>
			<trkpt lat="48.732787" lon="19.858346">
				<ele>630.000000</ele>
			</trkpt>
			<trkpt lat="48.732870" lon="19.858338">
				<ele>630.000000</ele>
			</trkpt>
			<trkpt lat="48.732941" lon="19.858275">
				<ele>630.000000</ele>
			</trkpt>
			<trkpt lat="48.733024" lon="19.858239">
				<ele>630.000000</ele>
			</trkpt>
			<trkpt lat="48.733231" lon="19.858302">
				<ele>631.000000</ele>
			</trkpt>
			<trkpt lat="48.733297" lon="19.858275">
				<ele>632.000000</ele>
			</trkpt>
			<trkpt lat="48.733333" lon="19.858256">
				<ele>632.000000</ele>
			</trkpt>
			<trkpt lat="48.733433" lon="19.858292">
				<ele>634.000000</ele>
			</trkpt>
			<trkpt lat="48.733510" lon="19.858418">
				<ele>635.000000</ele>
			</trkpt>
			<trkpt lat="48.733581" lon="19.858499">
				<ele>636.000000</ele>
			</trkpt>
			<trkpt lat="48.733623" lon="19.858535">
				<ele>636.000000</ele>
			</trkpt>
			<trkpt lat="48.733670" lon="19.858553">
				<ele>637.000000</ele>
			</trkpt>
			<trkpt lat="48.733676" lon="19.858571">
				<ele>637.000000</ele>
			</trkpt>
			<trkpt lat="48.733694" lon="19.858589">
				<ele>637.000000</ele>
			</trkpt>
			<trkpt lat="48.733717" lon="19.858579">
				<ele>637.000000</ele>
			</trkpt>
			<trkpt lat="48.733747" lon="19.858589">
				<ele>638.000000</ele>
			</trkpt>
			<trkpt lat="48.733770" lon="19.858606">
				<ele>638.000000</ele>
			</trkpt>
			<trkpt lat="48.733795" lon="19.858606">
				<ele>638.000000</ele>
			</trkpt>
			<trkpt lat="48.733801" lon="19.858571">
				<ele>638.000000</ele>
			</trkpt>
			<trkpt lat="48.733842" lon="19.858571">
				<ele>639.000000</ele>
			</trkpt>
			<trkpt lat="48.733866" lon="19.858589">
				<ele>639.000000</ele>
			</trkpt>
			<trkpt lat="48.733901" lon="19.858589">
				<ele>640.000000</ele>
			</trkpt>
			<trkpt lat="48.733960" lon="19.858571">
				<ele>640.000000</ele>
			</trkpt>
			<trkpt lat="48.734020" lon="19.858571">
				<ele>641.000000</ele>
			</trkpt>
			<trkpt lat="48.734073" lon="19.858616">
				<ele>641.000000</ele>
			</trkpt>
			<trkpt lat="48.734173" lon="19.858705">
				<ele>643.000000</ele>
			</trkpt>
			<trkpt lat="48.734239" lon="19.858732">
				<ele>643.000000</ele>
			</trkpt>
			<trkpt lat="48.734316" lon="19.858732">
				<ele>644.000000</ele>
			</trkpt>
			<trkpt lat="48.734357" lon="19.858751">
				<ele>645.000000</ele>
			</trkpt>
			<trkpt lat="48.734464" lon="19.858751">
				<ele>646.000000</ele>
			</trkpt>
			<trkpt lat="48.734517" lon="19.858715">
				<ele>647.000000</ele>
			</trkpt>
			<trkpt lat="48.734564" lon="19.858742">
				<ele>647.000000</ele>
			</trkpt>
			<trkpt lat="48.734630" lon="19.858705">
				<ele>648.000000</ele>
			</trkpt>
			<trkpt lat="48.734654" lon="19.858732">
				<ele>648.000000</ele>
			</trkpt>
			<trkpt lat="48.734707" lon="19.858724">
				<ele>649.000000</ele>
			</trkpt>
			<trkpt lat="48.734743" lon="19.858715">
				<ele>649.000000</ele>
			</trkpt>
			<trkpt lat="48.734808" lon="19.858742">
				<ele>650.000000</ele>
			</trkpt>
			<trkpt lat="48.735027" lon="19.858696">
				<ele>652.000000</ele>
			</trkpt>
			<trkpt lat="48.735104" lon="19.858688">
				<ele>653.000000</ele>
			</trkpt>
			<trkpt lat="48.735258" lon="19.858732">
				<ele>655.000000</ele>
			</trkpt>
			<trkpt lat="48.735460" lon="19.858732">
				<ele>657.000000</ele>
			</trkpt>
			<trkpt lat="48.735501" lon="19.858688">
				<ele>658.000000</ele>
			</trkpt>
			<trkpt lat="48.735537" lon="19.858661">
				<ele>658.000000</ele>
			</trkpt>
			<trkpt lat="48.735590" lon="19.858606">
				<ele>659.000000</ele>
			</trkpt>
			<trkpt lat="48.735714" lon="19.858589">
				<ele>660.000000</ele>
			</trkpt>
			<trkpt lat="48.735744" lon="19.858625">
				<ele>660.000000</ele>
			</trkpt>
			<trkpt lat="48.735755" lon="19.858642">
				<ele>660.000000</ele>
			</trkpt>
			<trkpt lat="48.735791" lon="19.858642">
				<ele>661.000000</ele>
			</trkpt>
			<trkpt lat="48.735803" lon="19.858625">
				<ele>661.000000</ele>
			</trkpt>
			<trkpt lat="48.735809" lon="19.858606">
				<ele>661.000000</ele>
			</trkpt>
			<trkpt lat="48.735856" lon="19.858598">
				<ele>661.000000</ele>
			</trkpt>
			<trkpt lat="48.736040" lon="19.858544">
				<ele>663.000000</ele>
			</trkpt>
			<trkpt lat="48.736147" lon="19.858508">
				<ele>664.000000</ele>
			</trkpt>
			<trkpt lat="48.736152" lon="19.858481">
				<ele>664.000000</ele>
			</trkpt>
			<trkpt lat="48.736170" lon="19.858463">
				<ele>665.000000</ele>
			</trkpt>
			<trkpt lat="48.736212" lon="19.858463">
				<ele>665.000000</ele>
			</trkpt>
			<trkpt lat="48.736212" lon="19.858472">
				<ele>665.000000</ele>
			</trkpt>
			<trkpt lat="48.736229" lon="19.858481">
				<ele>665.000000</ele>
			</trkpt>
			<trkpt lat="48.736247" lon="19.858463">
				<ele>665.000000</ele>
			</trkpt>
			<trkpt lat="48.736277" lon="19.858428">
				<ele>666.000000</ele>
			</trkpt>
			<trkpt lat="48.736300" lon="19.858418">
				<ele>666.000000</ele>
			</trkpt>
			<trkpt lat="48.736330" lon="19.858418">
				<ele>666.000000</ele>
			</trkpt>
			<trkpt lat="48.736354" lon="19.858428">
				<ele>667.000000</ele>
			</trkpt>
			<trkpt lat="48.736437" lon="19.858338">
				<ele>668.000000</ele>
			</trkpt>
			<trkpt lat="48.736508" lon="19.858283">
				<ele>668.000000</ele>
			</trkpt>
			<trkpt lat="48.736662" lon="19.858176">
				<ele>670.000000</ele>
			</trkpt>
			<trkpt lat="48.736828" lon="19.858050">
				<ele>672.000000</ele>
			</trkpt>
			<trkpt lat="48.736988" lon="19.857889">
				<ele>674.000000</ele>
			</trkpt>
			<trkpt lat="48.737154" lon="19.857834">
				<ele>675.000000</ele>
			</trkpt>
			<trkpt lat="48.737278" lon="19.857753">
				<ele>676.000000</ele>
			</trkpt>
			<trkpt lat="48.737420" lon="19.857619">
				<ele>678.000000</ele>
			</trkpt>
			<trkpt lat="48.737497" lon="19.857619">
				<ele>679.000000</ele>
			</trkpt>
			<trkpt lat="48.737705" lon="19.857610">
				<ele>685.000000</ele>
			</trkpt>
			<trkpt lat="48.737811" lon="19.857583">
				<ele>691.000000</ele>
			</trkpt>
			<trkpt lat="48.737888" lon="19.857537">
				<ele>694.000000</ele>
			</trkpt>
			<trkpt lat="48.737995" lon="19.857340">
				<ele>700.000000</ele>
			</trkpt>
			<trkpt lat="48.738042" lon="19.857556">
				<ele>707.000000</ele>
			</trkpt>
			<trkpt lat="48.738090" lon="19.857574">
				<ele>709.000000</ele>
			</trkpt>
			<trkpt lat="48.738238" lon="19.857493">
				<ele>715.000000</ele>
			</trkpt>
			<trkpt lat="48.738350" lon="19.857457">
				<ele>719.000000</ele>
			</trkpt>
			<trkpt lat="48.738504" lon="19.857520">
				<ele>723.000000</ele>
			</trkpt>
			<trkpt lat="48.738943" lon="19.857816">
				<ele>731.000000</ele>
			</trkpt>
			<trkpt lat="48.739298" lon="19.858068">
				<ele>734.000000</ele>
			</trkpt>
			<trkpt lat="48.739311" lon="19.858042">
				<ele>734.000000</ele>
			</trkpt>
			<trkpt lat="48.739334" lon="19.858013">
				<ele>734.000000</ele>
			</trkpt>
			<trkpt lat="48.739387" lon="19.857987">
				<ele>734.000000</ele>
			</trkpt>
			<trkpt lat="48.739541" lon="19.857979">
				<ele>735.000000</ele>
			</trkpt>
			<trkpt lat="48.739814" lon="19.857969">
				<ele>737.000000</ele>
			</trkpt>
			<trkpt lat="48.739879" lon="19.857979">
				<ele>738.000000</ele>
			</trkpt>
			<trkpt lat="48.739956" lon="19.858005">
				<ele>738.000000</ele>
			</trkpt>
			<trkpt lat="48.740039" lon="19.858068">
				<ele>739.000000</ele>
			</trkpt>
			<trkpt lat="48.740128" lon="19.858149">
				<ele>739.000000</ele>
			</trkpt>
			<trkpt lat="48.740341" lon="19.858346">
				<ele>741.000000</ele>
			</trkpt>
			<trkpt lat="48.740619" lon="19.858589">
				<ele>742.000000</ele>
			</trkpt>
			<trkpt lat="48.740845" lon="19.858778">
				<ele>744.000000</ele>
			</trkpt>
			<trkpt lat="48.741070" lon="19.858939">
				<ele>745.000000</ele>
			</trkpt>
			<trkpt lat="48.741526" lon="19.858994">
				<ele>747.000000</ele>
			</trkpt>
			<trkpt lat="48.741721" lon="19.859101">
				<ele>748.000000</ele>
			</trkpt>
			<trkpt lat="48.742154" lon="19.859550">
				<ele>751.000000</ele>
			</trkpt>
			<trkpt lat="48.742616" lon="19.860000">
				<ele>754.000000</ele>
			</trkpt>
			<trkpt lat="48.742811" lon="19.860160">
				<ele>755.000000</ele>
			</trkpt>
			<trkpt lat="48.742870" lon="19.860179">
				<ele>755.000000</ele>
			</trkpt>
			<trkpt lat="48.742918" lon="19.860160">
				<ele>755.000000</ele>
			</trkpt>
			<trkpt lat="48.742971" lon="19.860107">
				<ele>756.000000</ele>
			</trkpt>
			<trkpt lat="48.743054" lon="19.859973">
				<ele>756.000000</ele>
			</trkpt>
			<trkpt lat="48.743096" lon="19.859784">
				<ele>757.000000</ele>
			</trkpt>
			<trkpt lat="48.743119" lon="19.859613">
				<ele>758.000000</ele>
			</trkpt>
			<trkpt lat="48.743137" lon="19.859451">
				<ele>758.000000</ele>
			</trkpt>
			<trkpt lat="48.743173" lon="19.859361">
				<ele>759.000000</ele>
			</trkpt>
			<trkpt lat="48.743208" lon="19.859281">
				<ele>759.000000</ele>
			</trkpt>
			<trkpt lat="48.743392" lon="19.859011">
				<ele>760.000000</ele>
			</trkpt>
			<trkpt lat="48.743428" lon="19.858885">
				<ele>759.000000</ele>
			</trkpt>
			<trkpt lat="48.743439" lon="19.858751">
				<ele>758.000000</ele>
			</trkpt>
			<trkpt lat="48.743457" lon="19.858589">
				<ele>757.000000</ele>
			</trkpt>
			<trkpt lat="48.743481" lon="19.858409">
				<ele>756.000000</ele>
			</trkpt>
			<trkpt lat="48.743540" lon="19.858158">
				<ele>755.000000</ele>
			</trkpt>
			<trkpt lat="48.743558" lon="19.858042">
				<ele>754.000000</ele>
			</trkpt>
			<trkpt lat="48.743564" lon="19.857942">
				<ele>754.000000</ele>
			</trkpt>
			<trkpt lat="48.743552" lon="19.857834">
				<ele>753.000000</ele>
			</trkpt>
			<trkpt lat="48.743522" lon="19.857646">
				<ele>752.000000</ele>
			</trkpt>
			<trkpt lat="48.743504" lon="19.857457">
				<ele>751.000000</ele>
			</trkpt>
			<trkpt lat="48.743510" lon="19.857277">
				<ele>750.000000</ele>
			</trkpt>
			<trkpt lat="48.743534" lon="19.857080">
				<ele>750.000000</ele>
			</trkpt>
			<trkpt lat="48.743522" lon="19.856881">
				<ele>749.000000</ele>
			</trkpt>
			<trkpt lat="48.743540" lon="19.856684">
				<ele>749.000000</ele>
			</trkpt>
			<trkpt lat="48.743605" lon="19.856442">
				<ele>749.000000</ele>
			</trkpt>
			<trkpt lat="48.743670" lon="19.856281">
				<ele>748.000000</ele>
			</trkpt>
			<trkpt lat="48.743742" lon="19.856164">
				<ele>748.000000</ele>
			</trkpt>
			<trkpt lat="48.743854" lon="19.856055">
				<ele>748.000000</ele>
			</trkpt>
			<trkpt lat="48.743961" lon="19.855975">
				<ele>747.000000</ele>
			</trkpt>
			<trkpt lat="48.744061" lon="19.855966">
				<ele>747.000000</ele>
			</trkpt>
			<trkpt lat="48.744138" lon="19.855929">
				<ele>747.000000</ele>
			</trkpt>
			<trkpt lat="48.744162" lon="19.855912">
				<ele>747.000000</ele>
			</trkpt>
			<trkpt lat="48.744197" lon="19.855868">
				<ele>747.000000</ele>
			</trkpt>
			<trkpt lat="48.744233" lon="19.855805">
				<ele>747.000000</ele>
			</trkpt>
			<trkpt lat="48.744256" lon="19.855696">
				<ele>747.000000</ele>
			</trkpt>
			<trkpt lat="48.744334" lon="19.855526">
				<ele>746.000000</ele>
			</trkpt>
			<trkpt lat="48.744464" lon="19.855346">
				<ele>746.000000</ele>
			</trkpt>
			<trkpt lat="48.744505" lon="19.855220">
				<ele>746.000000</ele>
			</trkpt>
			<trkpt lat="48.744541" lon="19.854879">
				<ele>745.000000</ele>
			</trkpt>
			<trkpt lat="48.744553" lon="19.854690">
				<ele>745.000000</ele>
			</trkpt>
			<trkpt lat="48.744612" lon="19.854331">
				<ele>744.000000</ele>
			</trkpt>
			<trkpt lat="48.744630" lon="19.854160">
				<ele>744.000000</ele>
			</trkpt>
			<trkpt lat="48.744612" lon="19.854071">
				<ele>744.000000</ele>
			</trkpt>
			<trkpt lat="48.744582" lon="19.854017">
				<ele>744.000000</ele>
			</trkpt>
			<trkpt lat="48.744541" lon="19.853755">
				<ele>743.000000</ele>
			</trkpt>
			<trkpt lat="48.744529" lon="19.853621">
				<ele>743.000000</ele>
			</trkpt>
			<trkpt lat="48.744535" lon="19.853478">
				<ele>743.000000</ele>
			</trkpt>
			<trkpt lat="48.744559" lon="19.853100">
				<ele>742.000000</ele>
			</trkpt>
			<trkpt lat="48.744565" lon="19.853038">
				<ele>742.000000</ele>
			</trkpt>
		</trkseg>
	</trk>
</gpx>

