<?xml version="1.0" encoding="utf-8"?>
<gpx xmlns="http://www.topografix.com/GPX/1/1" version="1.1" creator="https://mapy.com/">
	<trk>
		<name>Poprádi-tó túra - idő 3:15 óra :: táv 9.6 km :: szint 316 m</name>
		<trkseg>
			<trkpt lat="49.122860" lon="20.064141">
				<ele>1351.000000</ele>
			</trkpt>
			<trkpt lat="49.122925" lon="20.064168">
				<ele>1351.000000</ele>
			</trkpt>
			<trkpt lat="49.123037" lon="20.064187">
				<ele>1351.000000</ele>
			</trkpt>
			<trkpt lat="49.123084" lon="20.064177">
				<ele>1351.000000</ele>
			</trkpt>
			<trkpt lat="49.123107" lon="20.064258">
				<ele>1351.000000</ele>
			</trkpt>
			<trkpt lat="49.123125" lon="20.064357">
				<ele>1351.000000</ele>
			</trkpt>
			<trkpt lat="49.123360" lon="20.064617">
				<ele>1352.000000</ele>
			</trkpt>
			<trkpt lat="49.123430" lon="20.064698">
				<ele>1351.000000</ele>
			</trkpt>
			<trkpt lat="49.123984" lon="20.065300">
				<ele>1352.000000</ele>
			</trkpt>
			<trkpt lat="49.124042" lon="20.065417">
				<ele>1353.000000</ele>
			</trkpt>
			<trkpt lat="49.124112" lon="20.065462">
				<ele>1353.000000</ele>
			</trkpt>
			<trkpt lat="49.124165" lon="20.065462">
				<ele>1352.000000</ele>
			</trkpt>
			<trkpt lat="49.124207" lon="20.065443">
				<ele>1352.000000</ele>
			</trkpt>
			<trkpt lat="49.124260" lon="20.065399">
				<ele>1352.000000</ele>
			</trkpt>
			<trkpt lat="49.124301" lon="20.065399">
				<ele>1353.000000</ele>
			</trkpt>
			<trkpt lat="49.124413" lon="20.065309">
				<ele>1355.000000</ele>
			</trkpt>
			<trkpt lat="49.124566" lon="20.065210">
				<ele>1357.000000</ele>
			</trkpt>
			<trkpt lat="49.124636" lon="20.065193">
				<ele>1357.000000</ele>
			</trkpt>
			<trkpt lat="49.124659" lon="20.065229">
				<ele>1357.000000</ele>
			</trkpt>
			<trkpt lat="49.124671" lon="20.065292">
				<ele>1357.000000</ele>
			</trkpt>
			<trkpt lat="49.124706" lon="20.065345">
				<ele>1358.000000</ele>
			</trkpt>
			<trkpt lat="49.124700" lon="20.065382">
				<ele>1358.000000</ele>
			</trkpt>
			<trkpt lat="49.124812" lon="20.065615">
				<ele>1361.000000</ele>
			</trkpt>
			<trkpt lat="49.124906" lon="20.065606">
				<ele>1363.000000</ele>
			</trkpt>
			<trkpt lat="49.125018" lon="20.065642">
				<ele>1364.000000</ele>
			</trkpt>
			<trkpt lat="49.125247" lon="20.065650">
				<ele>1368.000000</ele>
			</trkpt>
			<trkpt lat="49.125606" lon="20.065713">
				<ele>1374.000000</ele>
			</trkpt>
			<trkpt lat="49.125994" lon="20.065812">
				<ele>1380.000000</ele>
			</trkpt>
			<trkpt lat="49.126353" lon="20.065822">
				<ele>1385.000000</ele>
			</trkpt>
			<trkpt lat="49.126811" lon="20.065722">
				<ele>1390.000000</ele>
			</trkpt>
			<trkpt lat="49.127299" lon="20.065623">
				<ele>1396.000000</ele>
			</trkpt>
			<trkpt lat="49.127840" lon="20.065480">
				<ele>1404.000000</ele>
			</trkpt>
			<trkpt lat="49.128293" lon="20.065309">
				<ele>1410.000000</ele>
			</trkpt>
			<trkpt lat="49.128998" lon="20.065120">
				<ele>1421.000000</ele>
			</trkpt>
			<trkpt lat="49.129398" lon="20.065049">
				<ele>1428.000000</ele>
			</trkpt>
			<trkpt lat="49.129556" lon="20.065040">
				<ele>1431.000000</ele>
			</trkpt>
			<trkpt lat="49.129621" lon="20.065049">
				<ele>1432.000000</ele>
			</trkpt>
			<trkpt lat="49.129721" lon="20.065022">
				<ele>1433.000000</ele>
			</trkpt>
			<trkpt lat="49.129791" lon="20.065022">
				<ele>1435.000000</ele>
			</trkpt>
			<trkpt lat="49.129868" lon="20.064994">
				<ele>1436.000000</ele>
			</trkpt>
			<trkpt lat="49.130255" lon="20.064816">
				<ele>1443.000000</ele>
			</trkpt>
			<trkpt lat="49.130320" lon="20.064770">
				<ele>1443.000000</ele>
			</trkpt>
			<trkpt lat="49.130467" lon="20.064770">
				<ele>1446.000000</ele>
			</trkpt>
			<trkpt lat="49.130808" lon="20.064671">
				<ele>1450.000000</ele>
			</trkpt>
			<trkpt lat="49.131008" lon="20.064554">
				<ele>1453.000000</ele>
			</trkpt>
			<trkpt lat="49.131255" lon="20.064384">
				<ele>1455.000000</ele>
			</trkpt>
			<trkpt lat="49.131596" lon="20.064258">
				<ele>1458.000000</ele>
			</trkpt>
			<trkpt lat="49.131836" lon="20.064204">
				<ele>1461.000000</ele>
			</trkpt>
			<trkpt lat="49.132066" lon="20.064187">
				<ele>1464.000000</ele>
			</trkpt>
			<trkpt lat="49.132184" lon="20.064151">
				<ele>1466.000000</ele>
			</trkpt>
			<trkpt lat="49.132337" lon="20.064078">
				<ele>1467.000000</ele>
			</trkpt>
			<trkpt lat="49.132571" lon="20.064015">
				<ele>1470.000000</ele>
			</trkpt>
			<trkpt lat="49.132842" lon="20.063952">
				<ele>1473.000000</ele>
			</trkpt>
			<trkpt lat="49.133065" lon="20.063935">
				<ele>1476.000000</ele>
			</trkpt>
			<trkpt lat="49.133394" lon="20.063898">
				<ele>1479.000000</ele>
			</trkpt>
			<trkpt lat="49.133471" lon="20.063898">
				<ele>1479.000000</ele>
			</trkpt>
			<trkpt lat="49.133617" lon="20.063881">
				<ele>1481.000000</ele>
			</trkpt>
			<trkpt lat="49.133712" lon="20.063890">
				<ele>1482.000000</ele>
			</trkpt>
			<trkpt lat="49.133953" lon="20.064114">
				<ele>1484.000000</ele>
			</trkpt>
			<trkpt lat="49.134053" lon="20.064114">
				<ele>1484.000000</ele>
			</trkpt>
			<trkpt lat="49.134252" lon="20.064105">
				<ele>1487.000000</ele>
			</trkpt>
			<trkpt lat="49.134346" lon="20.064105">
				<ele>1487.000000</ele>
			</trkpt>
			<trkpt lat="49.134593" lon="20.064340">
				<ele>1488.000000</ele>
			</trkpt>
			<trkpt lat="49.134734" lon="20.064429">
				<ele>1487.000000</ele>
			</trkpt>
			<trkpt lat="49.134958" lon="20.064671">
				<ele>1486.000000</ele>
			</trkpt>
			<trkpt lat="49.135064" lon="20.064833">
				<ele>1487.000000</ele>
			</trkpt>
			<trkpt lat="49.135328" lon="20.065417">
				<ele>1487.000000</ele>
			</trkpt>
			<trkpt lat="49.135816" lon="20.066468">
				<ele>1489.000000</ele>
			</trkpt>
			<trkpt lat="49.135921" lon="20.066630">
				<ele>1489.000000</ele>
			</trkpt>
			<trkpt lat="49.135980" lon="20.066720">
				<ele>1489.000000</ele>
			</trkpt>
			<trkpt lat="49.136051" lon="20.066791">
				<ele>1490.000000</ele>
			</trkpt>
			<trkpt lat="49.136239" lon="20.066900">
				<ele>1492.000000</ele>
			</trkpt>
			<trkpt lat="49.136380" lon="20.067034">
				<ele>1494.000000</ele>
			</trkpt>
			<trkpt lat="49.136562" lon="20.067124">
				<ele>1496.000000</ele>
			</trkpt>
			<trkpt lat="49.136644" lon="20.067187">
				<ele>1498.000000</ele>
			</trkpt>
			<trkpt lat="49.136709" lon="20.067240">
				<ele>1498.000000</ele>
			</trkpt>
			<trkpt lat="49.136850" lon="20.067294">
				<ele>1499.000000</ele>
			</trkpt>
			<trkpt lat="49.137020" lon="20.067321">
				<ele>1500.000000</ele>
			</trkpt>
			<trkpt lat="49.137179" lon="20.067321">
				<ele>1501.000000</ele>
			</trkpt>
			<trkpt lat="49.137362" lon="20.067277">
				<ele>1500.000000</ele>
			</trkpt>
			<trkpt lat="49.137509" lon="20.067250">
				<ele>1500.000000</ele>
			</trkpt>
			<trkpt lat="49.137626" lon="20.067196">
				<ele>1501.000000</ele>
			</trkpt>
			<trkpt lat="49.137896" lon="20.067133">
				<ele>1503.000000</ele>
			</trkpt>
			<trkpt lat="49.138032" lon="20.067133">
				<ele>1506.000000</ele>
			</trkpt>
			<trkpt lat="49.138155" lon="20.067151">
				<ele>1507.000000</ele>
			</trkpt>
			<trkpt lat="49.138231" lon="20.067214">
				<ele>1508.000000</ele>
			</trkpt>
			<trkpt lat="49.138314" lon="20.067303">
				<ele>1509.000000</ele>
			</trkpt>
			<trkpt lat="49.138402" lon="20.067357">
				<ele>1511.000000</ele>
			</trkpt>
			<trkpt lat="49.138714" lon="20.067376">
				<ele>1514.000000</ele>
			</trkpt>
			<trkpt lat="49.138890" lon="20.067403">
				<ele>1516.000000</ele>
			</trkpt>
			<trkpt lat="49.139131" lon="20.067438">
				<ele>1519.000000</ele>
			</trkpt>
			<trkpt lat="49.139248" lon="20.067438">
				<ele>1519.000000</ele>
			</trkpt>
			<trkpt lat="49.139307" lon="20.067456">
				<ele>1520.000000</ele>
			</trkpt>
			<trkpt lat="49.139354" lon="20.067546">
				<ele>1519.000000</ele>
			</trkpt>
			<trkpt lat="49.139430" lon="20.067663">
				<ele>1519.000000</ele>
			</trkpt>
			<trkpt lat="49.139501" lon="20.067717">
				<ele>1520.000000</ele>
			</trkpt>
			<trkpt lat="49.139554" lon="20.067753">
				<ele>1522.000000</ele>
			</trkpt>
			<trkpt lat="49.139607" lon="20.067824">
				<ele>1521.000000</ele>
			</trkpt>
			<trkpt lat="49.139660" lon="20.067860">
				<ele>1521.000000</ele>
			</trkpt>
			<trkpt lat="49.139777" lon="20.067824">
				<ele>1522.000000</ele>
			</trkpt>
			<trkpt lat="49.139836" lon="20.067797">
				<ele>1522.000000</ele>
			</trkpt>
			<trkpt lat="49.139936" lon="20.067843">
				<ele>1522.000000</ele>
			</trkpt>
			<trkpt lat="49.140171" lon="20.067923">
				<ele>1521.000000</ele>
			</trkpt>
			<trkpt lat="49.140400" lon="20.067959">
				<ele>1522.000000</ele>
			</trkpt>
			<trkpt lat="49.140488" lon="20.067986">
				<ele>1524.000000</ele>
			</trkpt>
			<trkpt lat="49.140653" lon="20.068103">
				<ele>1523.000000</ele>
			</trkpt>
			<trkpt lat="49.140794" lon="20.068166">
				<ele>1523.000000</ele>
			</trkpt>
			<trkpt lat="49.140923" lon="20.068210">
				<ele>1524.000000</ele>
			</trkpt>
			<trkpt lat="49.141058" lon="20.068238">
				<ele>1526.000000</ele>
			</trkpt>
			<trkpt lat="49.141146" lon="20.068282">
				<ele>1526.000000</ele>
			</trkpt>
			<trkpt lat="49.141493" lon="20.068508">
				<ele>1526.000000</ele>
			</trkpt>
			<trkpt lat="49.141769" lon="20.068615">
				<ele>1526.000000</ele>
			</trkpt>
			<trkpt lat="49.142105" lon="20.068714">
				<ele>1526.000000</ele>
			</trkpt>
			<trkpt lat="49.142269" lon="20.068696">
				<ele>1526.000000</ele>
			</trkpt>
			<trkpt lat="49.142363" lon="20.068678">
				<ele>1527.000000</ele>
			</trkpt>
			<trkpt lat="49.142492" lon="20.068687">
				<ele>1527.000000</ele>
			</trkpt>
			<trkpt lat="49.142586" lon="20.068732">
				<ele>1527.000000</ele>
			</trkpt>
			<trkpt lat="49.142786" lon="20.068831">
				<ele>1527.000000</ele>
			</trkpt>
			<trkpt lat="49.142945" lon="20.068848">
				<ele>1528.000000</ele>
			</trkpt>
			<trkpt lat="49.143068" lon="20.068875">
				<ele>1529.000000</ele>
			</trkpt>
			<trkpt lat="49.143185" lon="20.068902">
				<ele>1531.000000</ele>
			</trkpt>
			<trkpt lat="49.143379" lon="20.068965">
				<ele>1530.000000</ele>
			</trkpt>
			<trkpt lat="49.143597" lon="20.068938">
				<ele>1533.000000</ele>
			</trkpt>
			<trkpt lat="49.143691" lon="20.068956">
				<ele>1532.000000</ele>
			</trkpt>
			<trkpt lat="49.143826" lon="20.068956">
				<ele>1533.000000</ele>
			</trkpt>
			<trkpt lat="49.143949" lon="20.068956">
				<ele>1534.000000</ele>
			</trkpt>
			<trkpt lat="49.144044" lon="20.069011">
				<ele>1535.000000</ele>
			</trkpt>
			<trkpt lat="49.144114" lon="20.069074">
				<ele>1535.000000</ele>
			</trkpt>
			<trkpt lat="49.144208" lon="20.069127">
				<ele>1534.000000</ele>
			</trkpt>
			<trkpt lat="49.144331" lon="20.069181">
				<ele>1534.000000</ele>
			</trkpt>
			<trkpt lat="49.144467" lon="20.069235">
				<ele>1533.000000</ele>
			</trkpt>
			<trkpt lat="49.144537" lon="20.069235">
				<ele>1533.000000</ele>
			</trkpt>
			<trkpt lat="49.144625" lon="20.069225">
				<ele>1532.000000</ele>
			</trkpt>
			<trkpt lat="49.144667" lon="20.069198">
				<ele>1532.000000</ele>
			</trkpt>
			<trkpt lat="49.144702" lon="20.069154">
				<ele>1533.000000</ele>
			</trkpt>
			<trkpt lat="49.144731" lon="20.069135">
				<ele>1534.000000</ele>
			</trkpt>
			<trkpt lat="49.144942" lon="20.069118">
				<ele>1534.000000</ele>
			</trkpt>
			<trkpt lat="49.145078" lon="20.069127">
				<ele>1534.000000</ele>
			</trkpt>
			<trkpt lat="49.145113" lon="20.069145">
				<ele>1533.000000</ele>
			</trkpt>
			<trkpt lat="49.145318" lon="20.069127">
				<ele>1535.000000</ele>
			</trkpt>
			<trkpt lat="49.145430" lon="20.069127">
				<ele>1535.000000</ele>
			</trkpt>
			<trkpt lat="49.145695" lon="20.069190">
				<ele>1535.000000</ele>
			</trkpt>
			<trkpt lat="49.145901" lon="20.069315">
				<ele>1534.000000</ele>
			</trkpt>
			<trkpt lat="49.146000" lon="20.069298">
				<ele>1534.000000</ele>
			</trkpt>
			<trkpt lat="49.146077" lon="20.069253">
				<ele>1534.000000</ele>
			</trkpt>
			<trkpt lat="49.146118" lon="20.069235">
				<ele>1535.000000</ele>
			</trkpt>
			<trkpt lat="49.146147" lon="20.069235">
				<ele>1536.000000</ele>
			</trkpt>
			<trkpt lat="49.146194" lon="20.069288">
				<ele>1536.000000</ele>
			</trkpt>
			<trkpt lat="49.146271" lon="20.069334">
				<ele>1537.000000</ele>
			</trkpt>
			<trkpt lat="49.146371" lon="20.069334">
				<ele>1537.000000</ele>
			</trkpt>
			<trkpt lat="49.146541" lon="20.069198">
				<ele>1536.000000</ele>
			</trkpt>
			<trkpt lat="49.146611" lon="20.069127">
				<ele>1537.000000</ele>
			</trkpt>
			<trkpt lat="49.146670" lon="20.069101">
				<ele>1540.000000</ele>
			</trkpt>
			<trkpt lat="49.146741" lon="20.069101">
				<ele>1540.000000</ele>
			</trkpt>
			<trkpt lat="49.146894" lon="20.069198">
				<ele>1537.000000</ele>
			</trkpt>
			<trkpt lat="49.146958" lon="20.069253">
				<ele>1537.000000</ele>
			</trkpt>
			<trkpt lat="49.146987" lon="20.069298">
				<ele>1536.000000</ele>
			</trkpt>
			<trkpt lat="49.147117" lon="20.069451">
				<ele>1537.000000</ele>
			</trkpt>
			<trkpt lat="49.147287" lon="20.069567">
				<ele>1538.000000</ele>
			</trkpt>
			<trkpt lat="49.147405" lon="20.069630">
				<ele>1538.000000</ele>
			</trkpt>
			<trkpt lat="49.147575" lon="20.069657">
				<ele>1538.000000</ele>
			</trkpt>
			<trkpt lat="49.147675" lon="20.069657">
				<ele>1538.000000</ele>
			</trkpt>
			<trkpt lat="49.147740" lon="20.069630">
				<ele>1538.000000</ele>
			</trkpt>
			<trkpt lat="49.147869" lon="20.069603">
				<ele>1538.000000</ele>
			</trkpt>
			<trkpt lat="49.148115" lon="20.069640">
				<ele>1538.000000</ele>
			</trkpt>
			<trkpt lat="49.148492" lon="20.069612">
				<ele>1538.000000</ele>
			</trkpt>
			<trkpt lat="49.148533" lon="20.069612">
				<ele>1538.000000</ele>
			</trkpt>
			<trkpt lat="49.148557" lon="20.069630">
				<ele>1538.000000</ele>
			</trkpt>
			<trkpt lat="49.148604" lon="20.069667">
				<ele>1539.000000</ele>
			</trkpt>
			<trkpt lat="49.148638" lon="20.069738">
				<ele>1538.000000</ele>
			</trkpt>
			<trkpt lat="49.148662" lon="20.069827">
				<ele>1537.000000</ele>
			</trkpt>
			<trkpt lat="49.148668" lon="20.069944">
				<ele>1536.000000</ele>
			</trkpt>
			<trkpt lat="49.148691" lon="20.070026">
				<ele>1537.000000</ele>
			</trkpt>
			<trkpt lat="49.148833" lon="20.070357">
				<ele>1537.000000</ele>
			</trkpt>
			<trkpt lat="49.149015" lon="20.070699">
				<ele>1537.000000</ele>
			</trkpt>
			<trkpt lat="49.149068" lon="20.070743">
				<ele>1537.000000</ele>
			</trkpt>
			<trkpt lat="49.149155" lon="20.070825">
				<ele>1537.000000</ele>
			</trkpt>
			<trkpt lat="49.149244" lon="20.070888">
				<ele>1537.000000</ele>
			</trkpt>
			<trkpt lat="49.149314" lon="20.070915">
				<ele>1538.000000</ele>
			</trkpt>
			<trkpt lat="49.149379" lon="20.070959">
				<ele>1537.000000</ele>
			</trkpt>
			<trkpt lat="49.149473" lon="20.070969">
				<ele>1538.000000</ele>
			</trkpt>
			<trkpt lat="49.149650" lon="20.070978">
				<ele>1538.000000</ele>
			</trkpt>
			<trkpt lat="49.149814" lon="20.070888">
				<ele>1537.000000</ele>
			</trkpt>
			<trkpt lat="49.149925" lon="20.070825">
				<ele>1537.000000</ele>
			</trkpt>
			<trkpt lat="49.150049" lon="20.070789">
				<ele>1536.000000</ele>
			</trkpt>
			<trkpt lat="49.150195" lon="20.070762">
				<ele>1535.000000</ele>
			</trkpt>
			<trkpt lat="49.150390" lon="20.070690">
				<ele>1533.000000</ele>
			</trkpt>
			<trkpt lat="49.150431" lon="20.070663">
				<ele>1533.000000</ele>
			</trkpt>
			<trkpt lat="49.150525" lon="20.070654">
				<ele>1533.000000</ele>
			</trkpt>
			<trkpt lat="49.150619" lon="20.070646">
				<ele>1534.000000</ele>
			</trkpt>
			<trkpt lat="49.150690" lon="20.070690">
				<ele>1534.000000</ele>
			</trkpt>
			<trkpt lat="49.150731" lon="20.070726">
				<ele>1534.000000</ele>
			</trkpt>
			<trkpt lat="49.150731" lon="20.070726">
				<ele>1534.000000</ele>
			</trkpt>
			<trkpt lat="49.150971" lon="20.070933">
				<ele>1532.000000</ele>
			</trkpt>
			<trkpt lat="49.151124" lon="20.071148">
				<ele>1529.000000</ele>
			</trkpt>
			<trkpt lat="49.151195" lon="20.071265">
				<ele>1527.000000</ele>
			</trkpt>
			<trkpt lat="49.151271" lon="20.071481">
				<ele>1527.000000</ele>
			</trkpt>
			<trkpt lat="49.151394" lon="20.071642">
				<ele>1530.000000</ele>
			</trkpt>
			<trkpt lat="49.151418" lon="20.071678">
				<ele>1530.000000</ele>
			</trkpt>
			<trkpt lat="49.151471" lon="20.071785">
				<ele>1529.000000</ele>
			</trkpt>
			<trkpt lat="49.151518" lon="20.071965">
				<ele>1529.000000</ele>
			</trkpt>
			<trkpt lat="49.151577" lon="20.072091">
				<ele>1529.000000</ele>
			</trkpt>
			<trkpt lat="49.151624" lon="20.072164">
				<ele>1529.000000</ele>
			</trkpt>
			<trkpt lat="49.151641" lon="20.072217">
				<ele>1529.000000</ele>
			</trkpt>
			<trkpt lat="49.151718" lon="20.072370">
				<ele>1527.000000</ele>
			</trkpt>
			<trkpt lat="49.151752" lon="20.072496">
				<ele>1527.000000</ele>
			</trkpt>
			<trkpt lat="49.151805" lon="20.072621">
				<ele>1526.000000</ele>
			</trkpt>
			<trkpt lat="49.151858" lon="20.072783">
				<ele>1524.000000</ele>
			</trkpt>
			<trkpt lat="49.151935" lon="20.073043">
				<ele>1522.000000</ele>
			</trkpt>
			<trkpt lat="49.152211" lon="20.073646">
				<ele>1514.000000</ele>
			</trkpt>
			<trkpt lat="49.152481" lon="20.074301">
				<ele>1507.000000</ele>
			</trkpt>
			<trkpt lat="49.152575" lon="20.074517">
				<ele>1505.000000</ele>
			</trkpt>
			<trkpt lat="49.152752" lon="20.074678">
				<ele>1502.000000</ele>
			</trkpt>
			<trkpt lat="49.152939" lon="20.074795">
				<ele>1500.000000</ele>
			</trkpt>
			<trkpt lat="49.153004" lon="20.074840">
				<ele>1498.000000</ele>
			</trkpt>
			<trkpt lat="49.153075" lon="20.074930">
				<ele>1498.000000</ele>
			</trkpt>
			<trkpt lat="49.153092" lon="20.074940">
				<ele>1498.000000</ele>
			</trkpt>
			<trkpt lat="49.153116" lon="20.074967">
				<ele>1499.000000</ele>
			</trkpt>
			<trkpt lat="49.153122" lon="20.075020">
				<ele>1500.000000</ele>
			</trkpt>
			<trkpt lat="49.153069" lon="20.075146">
				<ele>1499.000000</ele>
			</trkpt>
			<trkpt lat="49.153022" lon="20.075353">
				<ele>1500.000000</ele>
			</trkpt>
			<trkpt lat="49.153010" lon="20.075451">
				<ele>1501.000000</ele>
			</trkpt>
			<trkpt lat="49.153016" lon="20.075514">
				<ele>1501.000000</ele>
			</trkpt>
			<trkpt lat="49.153039" lon="20.075577">
				<ele>1502.000000</ele>
			</trkpt>
			<trkpt lat="49.153128" lon="20.075730">
				<ele>1503.000000</ele>
			</trkpt>
			<trkpt lat="49.153245" lon="20.075900">
				<ele>1505.000000</ele>
			</trkpt>
			<trkpt lat="49.153309" lon="20.075936">
				<ele>1506.000000</ele>
			</trkpt>
			<trkpt lat="49.153421" lon="20.075972">
				<ele>1508.000000</ele>
			</trkpt>
			<trkpt lat="49.153509" lon="20.076043">
				<ele>1510.000000</ele>
			</trkpt>
			<trkpt lat="49.153545" lon="20.076106">
				<ele>1510.000000</ele>
			</trkpt>
			<trkpt lat="49.153715" lon="20.076296">
				<ele>1513.000000</ele>
			</trkpt>
			<trkpt lat="49.153803" lon="20.076368">
				<ele>1513.000000</ele>
			</trkpt>
			<trkpt lat="49.153950" lon="20.076439">
				<ele>1514.000000</ele>
			</trkpt>
			<trkpt lat="49.154079" lon="20.076485">
				<ele>1515.000000</ele>
			</trkpt>
			<trkpt lat="49.154138" lon="20.076475">
				<ele>1515.000000</ele>
			</trkpt>
			<trkpt lat="49.154197" lon="20.076512">
				<ele>1516.000000</ele>
			</trkpt>
			<trkpt lat="49.154232" lon="20.076548">
				<ele>1516.000000</ele>
			</trkpt>
			<trkpt lat="49.154238" lon="20.076565">
				<ele>1516.000000</ele>
			</trkpt>
			<trkpt lat="49.154232" lon="20.076619">
				<ele>1516.000000</ele>
			</trkpt>
			<trkpt lat="49.154191" lon="20.076718">
				<ele>1516.000000</ele>
			</trkpt>
			<trkpt lat="49.154121" lon="20.076835">
				<ele>1517.000000</ele>
			</trkpt>
			<trkpt lat="49.154073" lon="20.076969">
				<ele>1520.000000</ele>
			</trkpt>
			<trkpt lat="49.154068" lon="20.077059">
				<ele>1521.000000</ele>
			</trkpt>
			<trkpt lat="49.154079" lon="20.077185">
				<ele>1521.000000</ele>
			</trkpt>
			<trkpt lat="49.154121" lon="20.077355">
				<ele>1521.000000</ele>
			</trkpt>
			<trkpt lat="49.154191" lon="20.077517">
				<ele>1521.000000</ele>
			</trkpt>
			<trkpt lat="49.154221" lon="20.077634">
				<ele>1520.000000</ele>
			</trkpt>
			<trkpt lat="49.154291" lon="20.077867">
				<ele>1519.000000</ele>
			</trkpt>
			<trkpt lat="49.154614" lon="20.078389">
				<ele>1520.000000</ele>
			</trkpt>
			<trkpt lat="49.154773" lon="20.078739">
				<ele>1518.000000</ele>
			</trkpt>
			<trkpt lat="49.154849" lon="20.079072">
				<ele>1513.000000</ele>
			</trkpt>
			<trkpt lat="49.154879" lon="20.079251">
				<ele>1512.000000</ele>
			</trkpt>
			<trkpt lat="49.154873" lon="20.079439">
				<ele>1509.000000</ele>
			</trkpt>
			<trkpt lat="49.154861" lon="20.079449">
				<ele>1509.000000</ele>
			</trkpt>
			<trkpt lat="49.154802" lon="20.079494">
				<ele>1508.000000</ele>
			</trkpt>
			<trkpt lat="49.154779" lon="20.079521">
				<ele>1507.000000</ele>
			</trkpt>
			<trkpt lat="49.154837" lon="20.079799">
				<ele>1506.000000</ele>
			</trkpt>
			<trkpt lat="49.154855" lon="20.079880">
				<ele>1506.000000</ele>
			</trkpt>
			<trkpt lat="49.154937" lon="20.080177">
				<ele>1506.000000</ele>
			</trkpt>
			<trkpt lat="49.154996" lon="20.080330">
				<ele>1507.000000</ele>
			</trkpt>
			<trkpt lat="49.155019" lon="20.080391">
				<ele>1507.000000</ele>
			</trkpt>
			<trkpt lat="49.155043" lon="20.080419">
				<ele>1507.000000</ele>
			</trkpt>
			<trkpt lat="49.155043" lon="20.080464">
				<ele>1507.000000</ele>
			</trkpt>
			<trkpt lat="49.155202" lon="20.080787">
				<ele>1508.000000</ele>
			</trkpt>
			<trkpt lat="49.155243" lon="20.080949">
				<ele>1507.000000</ele>
			</trkpt>
			<trkpt lat="49.155243" lon="20.080967">
				<ele>1507.000000</ele>
			</trkpt>
			<trkpt lat="49.155237" lon="20.080993">
				<ele>1506.000000</ele>
			</trkpt>
			<trkpt lat="49.155237" lon="20.081003">
				<ele>1506.000000</ele>
			</trkpt>
			<trkpt lat="49.155231" lon="20.081012">
				<ele>1506.000000</ele>
			</trkpt>
			<trkpt lat="49.155184" lon="20.081057">
				<ele>1504.000000</ele>
			</trkpt>
			<trkpt lat="49.155113" lon="20.081110">
				<ele>1504.000000</ele>
			</trkpt>
			<trkpt lat="49.155066" lon="20.081129">
				<ele>1504.000000</ele>
			</trkpt>
			<trkpt lat="49.155049" lon="20.081156">
				<ele>1504.000000</ele>
			</trkpt>
			<trkpt lat="49.155025" lon="20.081192">
				<ele>1504.000000</ele>
			</trkpt>
			<trkpt lat="49.154985" lon="20.081272">
				<ele>1504.000000</ele>
			</trkpt>
			<trkpt lat="49.154972" lon="20.081353">
				<ele>1505.000000</ele>
			</trkpt>
			<trkpt lat="49.154985" lon="20.081506">
				<ele>1505.000000</ele>
			</trkpt>
			<trkpt lat="49.154972" lon="20.081605">
				<ele>1505.000000</ele>
			</trkpt>
			<trkpt lat="49.154925" lon="20.081802">
				<ele>1506.000000</ele>
			</trkpt>
			<trkpt lat="49.154879" lon="20.081856">
				<ele>1505.000000</ele>
			</trkpt>
			<trkpt lat="49.154866" lon="20.081883">
				<ele>1505.000000</ele>
			</trkpt>
			<trkpt lat="49.154785" lon="20.081946">
				<ele>1505.000000</ele>
			</trkpt>
			<trkpt lat="49.154720" lon="20.081955">
				<ele>1506.000000</ele>
			</trkpt>
			<trkpt lat="49.154632" lon="20.081901">
				<ele>1505.000000</ele>
			</trkpt>
			<trkpt lat="49.154549" lon="20.081892">
				<ele>1504.000000</ele>
			</trkpt>
			<trkpt lat="49.154502" lon="20.081901">
				<ele>1504.000000</ele>
			</trkpt>
			<trkpt lat="49.154461" lon="20.081955">
				<ele>1504.000000</ele>
			</trkpt>
			<trkpt lat="49.154420" lon="20.082045">
				<ele>1504.000000</ele>
			</trkpt>
			<trkpt lat="49.154368" lon="20.082135">
				<ele>1505.000000</ele>
			</trkpt>
			<trkpt lat="49.154332" lon="20.082179">
				<ele>1505.000000</ele>
			</trkpt>
			<trkpt lat="49.154279" lon="20.082162">
				<ele>1505.000000</ele>
			</trkpt>
			<trkpt lat="49.154226" lon="20.082162">
				<ele>1504.000000</ele>
			</trkpt>
			<trkpt lat="49.154191" lon="20.082188">
				<ele>1504.000000</ele>
			</trkpt>
			<trkpt lat="49.154032" lon="20.082108">
				<ele>1504.000000</ele>
			</trkpt>
			<trkpt lat="49.153868" lon="20.082072">
				<ele>1504.000000</ele>
			</trkpt>
			<trkpt lat="49.153674" lon="20.081829">
				<ele>1504.000000</ele>
			</trkpt>
			<trkpt lat="49.153674" lon="20.081829">
				<ele>1504.000000</ele>
			</trkpt>
			<trkpt lat="49.153486" lon="20.081586">
				<ele>1504.000000</ele>
			</trkpt>
			<trkpt lat="49.153063" lon="20.081282">
				<ele>1505.000000</ele>
			</trkpt>
			<trkpt lat="49.152792" lon="20.081183">
				<ele>1506.000000</ele>
			</trkpt>
			<trkpt lat="49.152599" lon="20.081236">
				<ele>1505.000000</ele>
			</trkpt>
			<trkpt lat="49.152152" lon="20.081083">
				<ele>1504.000000</ele>
			</trkpt>
			<trkpt lat="49.151941" lon="20.080724">
				<ele>1505.000000</ele>
			</trkpt>
			<trkpt lat="49.151482" lon="20.080311">
				<ele>1503.000000</ele>
			</trkpt>
			<trkpt lat="49.151294" lon="20.080167">
				<ele>1503.000000</ele>
			</trkpt>
			<trkpt lat="49.151235" lon="20.080141">
				<ele>1504.000000</ele>
			</trkpt>
			<trkpt lat="49.150865" lon="20.079915">
				<ele>1506.000000</ele>
			</trkpt>
			<trkpt lat="49.150718" lon="20.079862">
				<ele>1508.000000</ele>
			</trkpt>
			<trkpt lat="49.150384" lon="20.079862">
				<ele>1508.000000</ele>
			</trkpt>
			<trkpt lat="49.150272" lon="20.079817">
				<ele>1508.000000</ele>
			</trkpt>
			<trkpt lat="49.150096" lon="20.079592">
				<ele>1504.000000</ele>
			</trkpt>
			<trkpt lat="49.149908" lon="20.079251">
				<ele>1500.000000</ele>
			</trkpt>
			<trkpt lat="49.149773" lon="20.079143">
				<ele>1500.000000</ele>
			</trkpt>
			<trkpt lat="49.149620" lon="20.078972">
				<ele>1497.000000</ele>
			</trkpt>
			<trkpt lat="49.149502" lon="20.078990">
				<ele>1497.000000</ele>
			</trkpt>
			<trkpt lat="49.149438" lon="20.079116">
				<ele>1499.000000</ele>
			</trkpt>
			<trkpt lat="49.149438" lon="20.079116">
				<ele>1499.000000</ele>
			</trkpt>
			<trkpt lat="49.149420" lon="20.079162">
				<ele>1500.000000</ele>
			</trkpt>
			<trkpt lat="49.149373" lon="20.079225">
				<ele>1502.000000</ele>
			</trkpt>
			<trkpt lat="49.149367" lon="20.079332">
				<ele>1505.000000</ele>
			</trkpt>
			<trkpt lat="49.149185" lon="20.079332">
				<ele>1509.000000</ele>
			</trkpt>
			<trkpt lat="49.149197" lon="20.079466">
				<ele>1511.000000</ele>
			</trkpt>
			<trkpt lat="49.149220" lon="20.079565">
				<ele>1513.000000</ele>
			</trkpt>
			<trkpt lat="49.149255" lon="20.079718">
				<ele>1516.000000</ele>
			</trkpt>
			<trkpt lat="49.149250" lon="20.079791">
				<ele>1518.000000</ele>
			</trkpt>
			<trkpt lat="49.149232" lon="20.079854">
				<ele>1520.000000</ele>
			</trkpt>
			<trkpt lat="49.149173" lon="20.079888">
				<ele>1521.000000</ele>
			</trkpt>
			<trkpt lat="49.149132" lon="20.079898">
				<ele>1521.000000</ele>
			</trkpt>
			<trkpt lat="49.149085" lon="20.079907">
				<ele>1522.000000</ele>
			</trkpt>
			<trkpt lat="49.149032" lon="20.079943">
				<ele>1523.000000</ele>
			</trkpt>
			<trkpt lat="49.148944" lon="20.079961">
				<ele>1524.000000</ele>
			</trkpt>
			<trkpt lat="49.148897" lon="20.079817">
				<ele>1520.000000</ele>
			</trkpt>
			<trkpt lat="49.148780" lon="20.079664">
				<ele>1516.000000</ele>
			</trkpt>
			<trkpt lat="49.148838" lon="20.079646">
				<ele>1516.000000</ele>
			</trkpt>
			<trkpt lat="49.148903" lon="20.079611">
				<ele>1515.000000</ele>
			</trkpt>
			<trkpt lat="49.148909" lon="20.079548">
				<ele>1513.000000</ele>
			</trkpt>
			<trkpt lat="49.148903" lon="20.079475">
				<ele>1512.000000</ele>
			</trkpt>
			<trkpt lat="49.148874" lon="20.079431">
				<ele>1511.000000</ele>
			</trkpt>
			<trkpt lat="49.148797" lon="20.079404">
				<ele>1510.000000</ele>
			</trkpt>
			<trkpt lat="49.148633" lon="20.079485">
				<ele>1510.000000</ele>
			</trkpt>
			<trkpt lat="49.148515" lon="20.079485">
				<ele>1507.000000</ele>
			</trkpt>
			<trkpt lat="49.148427" lon="20.079431">
				<ele>1502.000000</ele>
			</trkpt>
			<trkpt lat="49.148451" lon="20.079368">
				<ele>1500.000000</ele>
			</trkpt>
			<trkpt lat="49.148486" lon="20.079225">
				<ele>1496.000000</ele>
			</trkpt>
			<trkpt lat="49.148721" lon="20.078712">
				<ele>1491.000000</ele>
			</trkpt>
			<trkpt lat="49.148721" lon="20.078550">
				<ele>1492.000000</ele>
			</trkpt>
			<trkpt lat="49.148638" lon="20.078443">
				<ele>1496.000000</ele>
			</trkpt>
			<trkpt lat="49.148557" lon="20.078362">
				<ele>1497.000000</ele>
			</trkpt>
			<trkpt lat="49.148504" lon="20.078047">
				<ele>1498.000000</ele>
			</trkpt>
			<trkpt lat="49.148533" lon="20.077921">
				<ele>1497.000000</ele>
			</trkpt>
			<trkpt lat="49.148662" lon="20.077661">
				<ele>1499.000000</ele>
			</trkpt>
			<trkpt lat="49.148657" lon="20.077562">
				<ele>1500.000000</ele>
			</trkpt>
			<trkpt lat="49.148638" lon="20.077464">
				<ele>1500.000000</ele>
			</trkpt>
			<trkpt lat="49.148568" lon="20.077328">
				<ele>1501.000000</ele>
			</trkpt>
			<trkpt lat="49.148533" lon="20.077175">
				<ele>1501.000000</ele>
			</trkpt>
			<trkpt lat="49.148480" lon="20.077041">
				<ele>1500.000000</ele>
			</trkpt>
			<trkpt lat="49.149279" lon="20.077014">
				<ele>1507.000000</ele>
			</trkpt>
			<trkpt lat="49.149485" lon="20.076978">
				<ele>1509.000000</ele>
			</trkpt>
			<trkpt lat="49.149614" lon="20.076934">
				<ele>1510.000000</ele>
			</trkpt>
			<trkpt lat="49.149955" lon="20.076798">
				<ele>1511.000000</ele>
			</trkpt>
			<trkpt lat="49.150248" lon="20.076735">
				<ele>1513.000000</ele>
			</trkpt>
			<trkpt lat="49.150648" lon="20.076565">
				<ele>1518.000000</ele>
			</trkpt>
			<trkpt lat="49.150871" lon="20.076520">
				<ele>1519.000000</ele>
			</trkpt>
			<trkpt lat="49.151065" lon="20.076502">
				<ele>1519.000000</ele>
			</trkpt>
			<trkpt lat="49.151459" lon="20.076512">
				<ele>1520.000000</ele>
			</trkpt>
			<trkpt lat="49.151647" lon="20.076575">
				<ele>1520.000000</ele>
			</trkpt>
			<trkpt lat="49.151794" lon="20.076628">
				<ele>1520.000000</ele>
			</trkpt>
			<trkpt lat="49.151752" lon="20.076575">
				<ele>1519.000000</ele>
			</trkpt>
			<trkpt lat="49.151712" lon="20.076502">
				<ele>1518.000000</ele>
			</trkpt>
			<trkpt lat="49.151600" lon="20.076368">
				<ele>1516.000000</ele>
			</trkpt>
			<trkpt lat="49.151394" lon="20.076233">
				<ele>1512.000000</ele>
			</trkpt>
			<trkpt lat="49.151083" lon="20.075999">
				<ele>1508.000000</ele>
			</trkpt>
			<trkpt lat="49.150742" lon="20.075667">
				<ele>1503.000000</ele>
			</trkpt>
			<trkpt lat="49.150513" lon="20.075469">
				<ele>1501.000000</ele>
			</trkpt>
			<trkpt lat="49.150214" lon="20.075227">
				<ele>1498.000000</ele>
			</trkpt>
			<trkpt lat="49.149914" lon="20.074975">
				<ele>1492.000000</ele>
			</trkpt>
			<trkpt lat="49.149438" lon="20.074642">
				<ele>1485.000000</ele>
			</trkpt>
			<trkpt lat="49.149273" lon="20.074508">
				<ele>1483.000000</ele>
			</trkpt>
			<trkpt lat="49.149127" lon="20.074418">
				<ele>1481.000000</ele>
			</trkpt>
			<trkpt lat="49.149015" lon="20.074401">
				<ele>1480.000000</ele>
			</trkpt>
			<trkpt lat="49.148915" lon="20.074409">
				<ele>1480.000000</ele>
			</trkpt>
			<trkpt lat="49.148727" lon="20.074355">
				<ele>1477.000000</ele>
			</trkpt>
			<trkpt lat="49.148574" lon="20.074346">
				<ele>1475.000000</ele>
			</trkpt>
			<trkpt lat="49.148515" lon="20.074374">
				<ele>1475.000000</ele>
			</trkpt>
			<trkpt lat="49.148321" lon="20.074292">
				<ele>1470.000000</ele>
			</trkpt>
			<trkpt lat="49.148121" lon="20.074301">
				<ele>1468.000000</ele>
			</trkpt>
			<trkpt lat="49.147957" lon="20.074194">
				<ele>1466.000000</ele>
			</trkpt>
			<trkpt lat="49.147763" lon="20.074041">
				<ele>1462.000000</ele>
			</trkpt>
			<trkpt lat="49.147710" lon="20.073959">
				<ele>1460.000000</ele>
			</trkpt>
			<trkpt lat="49.147440" lon="20.073745">
				<ele>1454.000000</ele>
			</trkpt>
			<trkpt lat="49.147370" lon="20.073663">
				<ele>1452.000000</ele>
			</trkpt>
			<trkpt lat="49.147240" lon="20.073600">
				<ele>1450.000000</ele>
			</trkpt>
			<trkpt lat="49.147187" lon="20.073546">
				<ele>1449.000000</ele>
			</trkpt>
			<trkpt lat="49.147146" lon="20.073456">
				<ele>1448.000000</ele>
			</trkpt>
			<trkpt lat="49.147140" lon="20.073340">
				<ele>1446.000000</ele>
			</trkpt>
			<trkpt lat="49.147181" lon="20.073206">
				<ele>1447.000000</ele>
			</trkpt>
			<trkpt lat="49.147158" lon="20.072972">
				<ele>1450.000000</ele>
			</trkpt>
			<trkpt lat="49.147087" lon="20.072801">
				<ele>1450.000000</ele>
			</trkpt>
			<trkpt lat="49.146958" lon="20.072640">
				<ele>1449.000000</ele>
			</trkpt>
			<trkpt lat="49.146823" lon="20.072540">
				<ele>1447.000000</ele>
			</trkpt>
			<trkpt lat="49.146600" lon="20.072523">
				<ele>1444.000000</ele>
			</trkpt>
			<trkpt lat="49.146471" lon="20.072531">
				<ele>1444.000000</ele>
			</trkpt>
			<trkpt lat="49.146300" lon="20.072567">
				<ele>1443.000000</ele>
			</trkpt>
			<trkpt lat="49.146088" lon="20.072558">
				<ele>1441.000000</ele>
			</trkpt>
			<trkpt lat="49.146018" lon="20.072531">
				<ele>1441.000000</ele>
			</trkpt>
			<trkpt lat="49.145865" lon="20.072477">
				<ele>1440.000000</ele>
			</trkpt>
			<trkpt lat="49.145689" lon="20.072361">
				<ele>1439.000000</ele>
			</trkpt>
			<trkpt lat="49.145571" lon="20.072271">
				<ele>1441.000000</ele>
			</trkpt>
			<trkpt lat="49.145384" lon="20.072172">
				<ele>1441.000000</ele>
			</trkpt>
			<trkpt lat="49.145172" lon="20.072145">
				<ele>1441.000000</ele>
			</trkpt>
			<trkpt lat="49.144919" lon="20.072164">
				<ele>1443.000000</ele>
			</trkpt>
			<trkpt lat="49.144619" lon="20.072064">
				<ele>1443.000000</ele>
			</trkpt>
			<trkpt lat="49.144355" lon="20.072028">
				<ele>1441.000000</ele>
			</trkpt>
			<trkpt lat="49.144185" lon="20.072001">
				<ele>1440.000000</ele>
			</trkpt>
			<trkpt lat="49.144008" lon="20.072011">
				<ele>1439.000000</ele>
			</trkpt>
			<trkpt lat="49.143926" lon="20.072055">
				<ele>1438.000000</ele>
			</trkpt>
			<trkpt lat="49.143855" lon="20.072101">
				<ele>1437.000000</ele>
			</trkpt>
			<trkpt lat="49.143738" lon="20.072082">
				<ele>1435.000000</ele>
			</trkpt>
			<trkpt lat="49.143609" lon="20.072118">
				<ele>1434.000000</ele>
			</trkpt>
			<trkpt lat="49.143456" lon="20.072227">
				<ele>1432.000000</ele>
			</trkpt>
			<trkpt lat="49.143251" lon="20.072190">
				<ele>1427.000000</ele>
			</trkpt>
			<trkpt lat="49.143074" lon="20.072154">
				<ele>1427.000000</ele>
			</trkpt>
			<trkpt lat="49.142927" lon="20.072074">
				<ele>1425.000000</ele>
			</trkpt>
			<trkpt lat="49.142751" lon="20.071948">
				<ele>1424.000000</ele>
			</trkpt>
			<trkpt lat="49.142598" lon="20.071885">
				<ele>1425.000000</ele>
			</trkpt>
			<trkpt lat="49.142451" lon="20.071867">
				<ele>1425.000000</ele>
			</trkpt>
			<trkpt lat="49.142239" lon="20.071804">
				<ele>1426.000000</ele>
			</trkpt>
			<trkpt lat="49.141957" lon="20.071705">
				<ele>1427.000000</ele>
			</trkpt>
			<trkpt lat="49.141734" lon="20.071615">
				<ele>1425.000000</ele>
			</trkpt>
			<trkpt lat="49.141693" lon="20.071561">
				<ele>1424.000000</ele>
			</trkpt>
			<trkpt lat="49.141628" lon="20.071418">
				<ele>1425.000000</ele>
			</trkpt>
			<trkpt lat="49.141582" lon="20.071265">
				<ele>1426.000000</ele>
			</trkpt>
			<trkpt lat="49.141575" lon="20.071103">
				<ele>1427.000000</ele>
			</trkpt>
			<trkpt lat="49.141563" lon="20.070986">
				<ele>1428.000000</ele>
			</trkpt>
			<trkpt lat="49.141529" lon="20.070869">
				<ele>1429.000000</ele>
			</trkpt>
			<trkpt lat="49.141487" lon="20.070709">
				<ele>1431.000000</ele>
			</trkpt>
			<trkpt lat="49.141487" lon="20.070493">
				<ele>1433.000000</ele>
			</trkpt>
			<trkpt lat="49.141429" lon="20.070304">
				<ele>1436.000000</ele>
			</trkpt>
			<trkpt lat="49.141370" lon="20.070206">
				<ele>1439.000000</ele>
			</trkpt>
			<trkpt lat="49.141287" lon="20.070097">
				<ele>1441.000000</ele>
			</trkpt>
			<trkpt lat="49.141135" lon="20.069881">
				<ele>1447.000000</ele>
			</trkpt>
			<trkpt lat="49.141035" lon="20.069747">
				<ele>1450.000000</ele>
			</trkpt>
			<trkpt lat="49.140953" lon="20.069657">
				<ele>1451.000000</ele>
			</trkpt>
			<trkpt lat="49.140853" lon="20.069567">
				<ele>1454.000000</ele>
			</trkpt>
			<trkpt lat="49.140647" lon="20.069451">
				<ele>1457.000000</ele>
			</trkpt>
			<trkpt lat="49.140582" lon="20.069370">
				<ele>1458.000000</ele>
			</trkpt>
			<trkpt lat="49.140506" lon="20.069217">
				<ele>1458.000000</ele>
			</trkpt>
			<trkpt lat="49.140429" lon="20.069118">
				<ele>1459.000000</ele>
			</trkpt>
			<trkpt lat="49.140153" lon="20.068938">
				<ele>1461.000000</ele>
			</trkpt>
			<trkpt lat="49.139906" lon="20.068822">
				<ele>1461.000000</ele>
			</trkpt>
			<trkpt lat="49.139354" lon="20.068696">
				<ele>1457.000000</ele>
			</trkpt>
			<trkpt lat="49.139160" lon="20.068659">
				<ele>1456.000000</ele>
			</trkpt>
			<trkpt lat="49.138948" lon="20.068579">
				<ele>1458.000000</ele>
			</trkpt>
			<trkpt lat="49.138860" lon="20.068516">
				<ele>1460.000000</ele>
			</trkpt>
			<trkpt lat="49.138631" lon="20.068300">
				<ele>1464.000000</ele>
			</trkpt>
			<trkpt lat="49.138091" lon="20.068022">
				<ele>1470.000000</ele>
			</trkpt>
			<trkpt lat="49.137855" lon="20.067914">
				<ele>1471.000000</ele>
			</trkpt>
			<trkpt lat="49.137297" lon="20.067762">
				<ele>1480.000000</ele>
			</trkpt>
			<trkpt lat="49.137050" lon="20.067663">
				<ele>1485.000000</ele>
			</trkpt>
			<trkpt lat="49.136774" lon="20.067474">
				<ele>1492.000000</ele>
			</trkpt>
			<trkpt lat="49.136674" lon="20.067420">
				<ele>1493.000000</ele>
			</trkpt>
			<trkpt lat="49.136603" lon="20.067357">
				<ele>1493.000000</ele>
			</trkpt>
			<trkpt lat="49.136533" lon="20.067250">
				<ele>1494.000000</ele>
			</trkpt>
			<trkpt lat="49.136469" lon="20.067160">
				<ele>1495.000000</ele>
			</trkpt>
			<trkpt lat="49.136380" lon="20.067034">
				<ele>1494.000000</ele>
			</trkpt>
			<trkpt lat="49.136239" lon="20.066900">
				<ele>1492.000000</ele>
			</trkpt>
			<trkpt lat="49.136051" lon="20.066791">
				<ele>1490.000000</ele>
			</trkpt>
			<trkpt lat="49.135980" lon="20.066720">
				<ele>1489.000000</ele>
			</trkpt>
			<trkpt lat="49.135921" lon="20.066630">
				<ele>1489.000000</ele>
			</trkpt>
			<trkpt lat="49.135816" lon="20.066468">
				<ele>1489.000000</ele>
			</trkpt>
			<trkpt lat="49.135328" lon="20.065417">
				<ele>1487.000000</ele>
			</trkpt>
			<trkpt lat="49.135064" lon="20.064833">
				<ele>1487.000000</ele>
			</trkpt>
			<trkpt lat="49.134958" lon="20.064671">
				<ele>1486.000000</ele>
			</trkpt>
			<trkpt lat="49.134734" lon="20.064429">
				<ele>1487.000000</ele>
			</trkpt>
			<trkpt lat="49.134593" lon="20.064340">
				<ele>1488.000000</ele>
			</trkpt>
			<trkpt lat="49.134346" lon="20.064105">
				<ele>1487.000000</ele>
			</trkpt>
			<trkpt lat="49.134252" lon="20.064105">
				<ele>1487.000000</ele>
			</trkpt>
			<trkpt lat="49.134053" lon="20.064114">
				<ele>1484.000000</ele>
			</trkpt>
			<trkpt lat="49.133953" lon="20.064114">
				<ele>1484.000000</ele>
			</trkpt>
			<trkpt lat="49.133712" lon="20.063890">
				<ele>1482.000000</ele>
			</trkpt>
			<trkpt lat="49.133617" lon="20.063881">
				<ele>1481.000000</ele>
			</trkpt>
			<trkpt lat="49.133471" lon="20.063898">
				<ele>1479.000000</ele>
			</trkpt>
			<trkpt lat="49.133394" lon="20.063898">
				<ele>1479.000000</ele>
			</trkpt>
			<trkpt lat="49.133065" lon="20.063935">
				<ele>1476.000000</ele>
			</trkpt>
			<trkpt lat="49.132842" lon="20.063952">
				<ele>1473.000000</ele>
			</trkpt>
			<trkpt lat="49.132571" lon="20.064015">
				<ele>1470.000000</ele>
			</trkpt>
			<trkpt lat="49.132337" lon="20.064078">
				<ele>1467.000000</ele>
			</trkpt>
			<trkpt lat="49.132184" lon="20.064151">
				<ele>1466.000000</ele>
			</trkpt>
			<trkpt lat="49.132066" lon="20.064187">
				<ele>1464.000000</ele>
			</trkpt>
			<trkpt lat="49.131836" lon="20.064204">
				<ele>1461.000000</ele>
			</trkpt>
			<trkpt lat="49.131596" lon="20.064258">
				<ele>1458.000000</ele>
			</trkpt>
			<trkpt lat="49.131255" lon="20.064384">
				<ele>1455.000000</ele>
			</trkpt>
			<trkpt lat="49.131008" lon="20.064554">
				<ele>1453.000000</ele>
			</trkpt>
			<trkpt lat="49.130808" lon="20.064671">
				<ele>1450.000000</ele>
			</trkpt>
			<trkpt lat="49.130467" lon="20.064770">
				<ele>1446.000000</ele>
			</trkpt>
			<trkpt lat="49.130320" lon="20.064770">
				<ele>1443.000000</ele>
			</trkpt>
			<trkpt lat="49.130255" lon="20.064816">
				<ele>1443.000000</ele>
			</trkpt>
			<trkpt lat="49.129868" lon="20.064994">
				<ele>1436.000000</ele>
			</trkpt>
			<trkpt lat="49.129791" lon="20.065022">
				<ele>1435.000000</ele>
			</trkpt>
			<trkpt lat="49.129721" lon="20.065022">
				<ele>1433.000000</ele>
			</trkpt>
			<trkpt lat="49.129621" lon="20.065049">
				<ele>1432.000000</ele>
			</trkpt>
			<trkpt lat="49.129556" lon="20.065040">
				<ele>1431.000000</ele>
			</trkpt>
			<trkpt lat="49.129398" lon="20.065049">
				<ele>1428.000000</ele>
			</trkpt>
			<trkpt lat="49.128998" lon="20.065120">
				<ele>1421.000000</ele>
			</trkpt>
			<trkpt lat="49.128293" lon="20.065309">
				<ele>1410.000000</ele>
			</trkpt>
			<trkpt lat="49.127840" lon="20.065480">
				<ele>1404.000000</ele>
			</trkpt>
			<trkpt lat="49.127299" lon="20.065623">
				<ele>1396.000000</ele>
			</trkpt>
			<trkpt lat="49.126811" lon="20.065722">
				<ele>1390.000000</ele>
			</trkpt>
			<trkpt lat="49.126353" lon="20.065822">
				<ele>1385.000000</ele>
			</trkpt>
			<trkpt lat="49.125994" lon="20.065812">
				<ele>1380.000000</ele>
			</trkpt>
			<trkpt lat="49.125606" lon="20.065713">
				<ele>1374.000000</ele>
			</trkpt>
			<trkpt lat="49.125247" lon="20.065650">
				<ele>1368.000000</ele>
			</trkpt>
			<trkpt lat="49.125018" lon="20.065642">
				<ele>1364.000000</ele>
			</trkpt>
			<trkpt lat="49.124906" lon="20.065606">
				<ele>1363.000000</ele>
			</trkpt>
			<trkpt lat="49.124812" lon="20.065615">
				<ele>1361.000000</ele>
			</trkpt>
			<trkpt lat="49.124700" lon="20.065382">
				<ele>1358.000000</ele>
			</trkpt>
			<trkpt lat="49.124706" lon="20.065345">
				<ele>1358.000000</ele>
			</trkpt>
			<trkpt lat="49.124671" lon="20.065292">
				<ele>1357.000000</ele>
			</trkpt>
			<trkpt lat="49.124659" lon="20.065229">
				<ele>1357.000000</ele>
			</trkpt>
			<trkpt lat="49.124636" lon="20.065193">
				<ele>1357.000000</ele>
			</trkpt>
			<trkpt lat="49.124566" lon="20.065210">
				<ele>1357.000000</ele>
			</trkpt>
			<trkpt lat="49.124413" lon="20.065309">
				<ele>1355.000000</ele>
			</trkpt>
			<trkpt lat="49.124301" lon="20.065399">
				<ele>1353.000000</ele>
			</trkpt>
			<trkpt lat="49.124260" lon="20.065399">
				<ele>1352.000000</ele>
			</trkpt>
			<trkpt lat="49.124207" lon="20.065443">
				<ele>1352.000000</ele>
			</trkpt>
			<trkpt lat="49.124165" lon="20.065462">
				<ele>1352.000000</ele>
			</trkpt>
			<trkpt lat="49.124112" lon="20.065462">
				<ele>1353.000000</ele>
			</trkpt>
			<trkpt lat="49.124042" lon="20.065417">
				<ele>1353.000000</ele>
			</trkpt>
			<trkpt lat="49.123984" lon="20.065300">
				<ele>1352.000000</ele>
			</trkpt>
			<trkpt lat="49.123430" lon="20.064698">
				<ele>1351.000000</ele>
			</trkpt>
			<trkpt lat="49.123360" lon="20.064617">
				<ele>1352.000000</ele>
			</trkpt>
			<trkpt lat="49.123125" lon="20.064357">
				<ele>1351.000000</ele>
			</trkpt>
			<trkpt lat="49.123107" lon="20.064258">
				<ele>1351.000000</ele>
			</trkpt>
			<trkpt lat="49.123084" lon="20.064177">
				<ele>1351.000000</ele>
			</trkpt>
			<trkpt lat="49.123037" lon="20.064187">
				<ele>1351.000000</ele>
			</trkpt>
			<trkpt lat="49.122966" lon="20.064177">
				<ele>1351.000000</ele>
			</trkpt>
		</trkseg>
	</trk>
</gpx>

