<?xml version="1.0" encoding="utf-8"?>
<gpx xmlns="http://www.topografix.com/GPX/1/1" version="1.1" creator="https://mapy.cz/">
	<trk>
		<name>Piecky-szurdok - idő 4óra :: táv 11.2km :: szint 453m</name>
		<trkseg>
			<trkpt lat="48.945246" lon="20.347183">
				<ele>587.000000</ele>
			</trkpt>
			<trkpt lat="48.945135" lon="20.347183">
				<ele>588.000000</ele>
			</trkpt>
			<trkpt lat="48.945064" lon="20.347183">
				<ele>588.000000</ele>
			</trkpt>
			<trkpt lat="48.944917" lon="20.347173">
				<ele>588.000000</ele>
			</trkpt>
			<trkpt lat="48.944456" lon="20.347156">
				<ele>590.000000</ele>
			</trkpt>
			<trkpt lat="48.944326" lon="20.347137">
				<ele>591.000000</ele>
			</trkpt>
			<trkpt lat="48.944184" lon="20.347110">
				<ele>591.000000</ele>
			</trkpt>
			<trkpt lat="48.944084" lon="20.347083">
				<ele>591.000000</ele>
			</trkpt>
			<trkpt lat="48.943990" lon="20.347039">
				<ele>592.000000</ele>
			</trkpt>
			<trkpt lat="48.943854" lon="20.346949">
				<ele>592.000000</ele>
			</trkpt>
			<trkpt lat="48.943370" lon="20.346554">
				<ele>593.000000</ele>
			</trkpt>
			<trkpt lat="48.943111" lon="20.347282">
				<ele>595.000000</ele>
			</trkpt>
			<trkpt lat="48.943058" lon="20.347380">
				<ele>595.000000</ele>
			</trkpt>
			<trkpt lat="48.942987" lon="20.347479">
				<ele>595.000000</ele>
			</trkpt>
			<trkpt lat="48.942881" lon="20.347551">
				<ele>596.000000</ele>
			</trkpt>
			<trkpt lat="48.942804" lon="20.347632">
				<ele>596.000000</ele>
			</trkpt>
			<trkpt lat="48.942757" lon="20.347676">
				<ele>596.000000</ele>
			</trkpt>
			<trkpt lat="48.942698" lon="20.347703">
				<ele>598.000000</ele>
			</trkpt>
			<trkpt lat="48.942657" lon="20.347749">
				<ele>599.000000</ele>
			</trkpt>
			<trkpt lat="48.942592" lon="20.347812">
				<ele>597.000000</ele>
			</trkpt>
			<trkpt lat="48.942651" lon="20.347883">
				<ele>595.000000</ele>
			</trkpt>
			<trkpt lat="48.942592" lon="20.348215">
				<ele>596.000000</ele>
			</trkpt>
			<trkpt lat="48.942556" lon="20.348422">
				<ele>597.000000</ele>
			</trkpt>
			<trkpt lat="48.942556" lon="20.348808">
				<ele>597.000000</ele>
			</trkpt>
			<trkpt lat="48.942503" lon="20.349051">
				<ele>598.000000</ele>
			</trkpt>
			<trkpt lat="48.942367" lon="20.349366">
				<ele>600.000000</ele>
			</trkpt>
			<trkpt lat="48.942267" lon="20.349662">
				<ele>600.000000</ele>
			</trkpt>
			<trkpt lat="48.942249" lon="20.349779">
				<ele>599.000000</ele>
			</trkpt>
			<trkpt lat="48.942261" lon="20.350093">
				<ele>600.000000</ele>
			</trkpt>
			<trkpt lat="48.942285" lon="20.350236">
				<ele>600.000000</ele>
			</trkpt>
			<trkpt lat="48.942326" lon="20.350372">
				<ele>600.000000</ele>
			</trkpt>
			<trkpt lat="48.942397" lon="20.350488">
				<ele>600.000000</ele>
			</trkpt>
			<trkpt lat="48.942438" lon="20.350632">
				<ele>601.000000</ele>
			</trkpt>
			<trkpt lat="48.942432" lon="20.350739">
				<ele>602.000000</ele>
			</trkpt>
			<trkpt lat="48.942409" lon="20.350821">
				<ele>602.000000</ele>
			</trkpt>
			<trkpt lat="48.942344" lon="20.350865">
				<ele>603.000000</ele>
			</trkpt>
			<trkpt lat="48.942285" lon="20.350901">
				<ele>605.000000</ele>
			</trkpt>
			<trkpt lat="48.942273" lon="20.350938">
				<ele>605.000000</ele>
			</trkpt>
			<trkpt lat="48.942297" lon="20.351054">
				<ele>602.000000</ele>
			</trkpt>
			<trkpt lat="48.942226" lon="20.351144">
				<ele>603.000000</ele>
			</trkpt>
			<trkpt lat="48.942167" lon="20.351270">
				<ele>603.000000</ele>
			</trkpt>
			<trkpt lat="48.942126" lon="20.351404">
				<ele>604.000000</ele>
			</trkpt>
			<trkpt lat="48.942108" lon="20.351504">
				<ele>604.000000</ele>
			</trkpt>
			<trkpt lat="48.942108" lon="20.351854">
				<ele>605.000000</ele>
			</trkpt>
			<trkpt lat="48.942078" lon="20.351980">
				<ele>604.000000</ele>
			</trkpt>
			<trkpt lat="48.942031" lon="20.352106">
				<ele>605.000000</ele>
			</trkpt>
			<trkpt lat="48.941978" lon="20.352249">
				<ele>606.000000</ele>
			</trkpt>
			<trkpt lat="48.941937" lon="20.352357">
				<ele>605.000000</ele>
			</trkpt>
			<trkpt lat="48.941890" lon="20.352429">
				<ele>605.000000</ele>
			</trkpt>
			<trkpt lat="48.941836" lon="20.352500">
				<ele>605.000000</ele>
			</trkpt>
			<trkpt lat="48.941736" lon="20.352699">
				<ele>606.000000</ele>
			</trkpt>
			<trkpt lat="48.941683" lon="20.352878">
				<ele>607.000000</ele>
			</trkpt>
			<trkpt lat="48.941630" lon="20.353012">
				<ele>606.000000</ele>
			</trkpt>
			<trkpt lat="48.941571" lon="20.353093">
				<ele>606.000000</ele>
			</trkpt>
			<trkpt lat="48.941530" lon="20.353093">
				<ele>607.000000</ele>
			</trkpt>
			<trkpt lat="48.941406" lon="20.353085">
				<ele>610.000000</ele>
			</trkpt>
			<trkpt lat="48.941264" lon="20.353129">
				<ele>610.000000</ele>
			</trkpt>
			<trkpt lat="48.941129" lon="20.353255">
				<ele>608.000000</ele>
			</trkpt>
			<trkpt lat="48.941028" lon="20.353336">
				<ele>608.000000</ele>
			</trkpt>
			<trkpt lat="48.940893" lon="20.353354">
				<ele>608.000000</ele>
			</trkpt>
			<trkpt lat="48.940822" lon="20.353362">
				<ele>608.000000</ele>
			</trkpt>
			<trkpt lat="48.940763" lon="20.353354">
				<ele>609.000000</ele>
			</trkpt>
			<trkpt lat="48.940733" lon="20.353318">
				<ele>610.000000</ele>
			</trkpt>
			<trkpt lat="48.940716" lon="20.353246">
				<ele>610.000000</ele>
			</trkpt>
			<trkpt lat="48.940674" lon="20.353211">
				<ele>612.000000</ele>
			</trkpt>
			<trkpt lat="48.940621" lon="20.353201">
				<ele>611.000000</ele>
			</trkpt>
			<trkpt lat="48.940562" lon="20.353192">
				<ele>611.000000</ele>
			</trkpt>
			<trkpt lat="48.940503" lon="20.353228">
				<ele>611.000000</ele>
			</trkpt>
			<trkpt lat="48.940432" lon="20.353301">
				<ele>611.000000</ele>
			</trkpt>
			<trkpt lat="48.940349" lon="20.353362">
				<ele>611.000000</ele>
			</trkpt>
			<trkpt lat="48.940267" lon="20.353444">
				<ele>611.000000</ele>
			</trkpt>
			<trkpt lat="48.940214" lon="20.353507">
				<ele>612.000000</ele>
			</trkpt>
			<trkpt lat="48.940096" lon="20.353605">
				<ele>612.000000</ele>
			</trkpt>
			<trkpt lat="48.940031" lon="20.353659">
				<ele>613.000000</ele>
			</trkpt>
			<trkpt lat="48.939983" lon="20.353794">
				<ele>611.000000</ele>
			</trkpt>
			<trkpt lat="48.939972" lon="20.353920">
				<ele>612.000000</ele>
			</trkpt>
			<trkpt lat="48.939978" lon="20.354010">
				<ele>612.000000</ele>
			</trkpt>
			<trkpt lat="48.940007" lon="20.354073">
				<ele>613.000000</ele>
			</trkpt>
			<trkpt lat="48.940019" lon="20.354154">
				<ele>613.000000</ele>
			</trkpt>
			<trkpt lat="48.940001" lon="20.354234">
				<ele>613.000000</ele>
			</trkpt>
			<trkpt lat="48.939972" lon="20.354280">
				<ele>613.000000</ele>
			</trkpt>
			<trkpt lat="48.939901" lon="20.354370">
				<ele>613.000000</ele>
			</trkpt>
			<trkpt lat="48.939806" lon="20.354423">
				<ele>613.000000</ele>
			</trkpt>
			<trkpt lat="48.939724" lon="20.354467">
				<ele>613.000000</ele>
			</trkpt>
			<trkpt lat="48.939647" lon="20.354531">
				<ele>613.000000</ele>
			</trkpt>
			<trkpt lat="48.939553" lon="20.354584">
				<ele>613.000000</ele>
			</trkpt>
			<trkpt lat="48.939452" lon="20.354611">
				<ele>613.000000</ele>
			</trkpt>
			<trkpt lat="48.939358" lon="20.354647">
				<ele>614.000000</ele>
			</trkpt>
			<trkpt lat="48.939270" lon="20.354639">
				<ele>616.000000</ele>
			</trkpt>
			<trkpt lat="48.939228" lon="20.354666">
				<ele>615.000000</ele>
			</trkpt>
			<trkpt lat="48.939169" lon="20.354773">
				<ele>615.000000</ele>
			</trkpt>
			<trkpt lat="48.939134" lon="20.354827">
				<ele>615.000000</ele>
			</trkpt>
			<trkpt lat="48.939087" lon="20.354881">
				<ele>615.000000</ele>
			</trkpt>
			<trkpt lat="48.939040" lon="20.354917">
				<ele>615.000000</ele>
			</trkpt>
			<trkpt lat="48.938975" lon="20.355025">
				<ele>616.000000</ele>
			</trkpt>
			<trkpt lat="48.938927" lon="20.355213">
				<ele>616.000000</ele>
			</trkpt>
			<trkpt lat="48.938880" lon="20.355393">
				<ele>617.000000</ele>
			</trkpt>
			<trkpt lat="48.938892" lon="20.355483">
				<ele>616.000000</ele>
			</trkpt>
			<trkpt lat="48.938904" lon="20.355573">
				<ele>617.000000</ele>
			</trkpt>
			<trkpt lat="48.938892" lon="20.355653">
				<ele>617.000000</ele>
			</trkpt>
			<trkpt lat="48.938857" lon="20.355743">
				<ele>617.000000</ele>
			</trkpt>
			<trkpt lat="48.938839" lon="20.355798">
				<ele>617.000000</ele>
			</trkpt>
			<trkpt lat="48.938804" lon="20.355915">
				<ele>617.000000</ele>
			</trkpt>
			<trkpt lat="48.938768" lon="20.355995">
				<ele>618.000000</ele>
			</trkpt>
			<trkpt lat="48.938715" lon="20.356058">
				<ele>619.000000</ele>
			</trkpt>
			<trkpt lat="48.938627" lon="20.356102">
				<ele>619.000000</ele>
			</trkpt>
			<trkpt lat="48.938514" lon="20.356165">
				<ele>620.000000</ele>
			</trkpt>
			<trkpt lat="48.938485" lon="20.356175">
				<ele>621.000000</ele>
			</trkpt>
			<trkpt lat="48.938455" lon="20.356184">
				<ele>621.000000</ele>
			</trkpt>
			<trkpt lat="48.938225" lon="20.356291">
				<ele>619.000000</ele>
			</trkpt>
			<trkpt lat="48.938090" lon="20.356427">
				<ele>619.000000</ele>
			</trkpt>
			<trkpt lat="48.937960" lon="20.356552">
				<ele>620.000000</ele>
			</trkpt>
			<trkpt lat="48.937812" lon="20.356615">
				<ele>620.000000</ele>
			</trkpt>
			<trkpt lat="48.937541" lon="20.356714">
				<ele>621.000000</ele>
			</trkpt>
			<trkpt lat="48.937435" lon="20.356758">
				<ele>622.000000</ele>
			</trkpt>
			<trkpt lat="48.937382" lon="20.356813">
				<ele>622.000000</ele>
			</trkpt>
			<trkpt lat="48.937363" lon="20.356848">
				<ele>622.000000</ele>
			</trkpt>
			<trkpt lat="48.937334" lon="20.356884">
				<ele>622.000000</ele>
			</trkpt>
			<trkpt lat="48.937311" lon="20.356983">
				<ele>622.000000</ele>
			</trkpt>
			<trkpt lat="48.937323" lon="20.357091">
				<ele>623.000000</ele>
			</trkpt>
			<trkpt lat="48.937346" lon="20.357199">
				<ele>623.000000</ele>
			</trkpt>
			<trkpt lat="48.937382" lon="20.357297">
				<ele>624.000000</ele>
			</trkpt>
			<trkpt lat="48.937422" lon="20.357396">
				<ele>624.000000</ele>
			</trkpt>
			<trkpt lat="48.937464" lon="20.357450">
				<ele>625.000000</ele>
			</trkpt>
			<trkpt lat="48.937476" lon="20.357531">
				<ele>626.000000</ele>
			</trkpt>
			<trkpt lat="48.937464" lon="20.357603">
				<ele>625.000000</ele>
			</trkpt>
			<trkpt lat="48.937452" lon="20.357729">
				<ele>624.000000</ele>
			</trkpt>
			<trkpt lat="48.937470" lon="20.357846">
				<ele>626.000000</ele>
			</trkpt>
			<trkpt lat="48.937481" lon="20.357945">
				<ele>625.000000</ele>
			</trkpt>
			<trkpt lat="48.937481" lon="20.358052">
				<ele>625.000000</ele>
			</trkpt>
			<trkpt lat="48.937488" lon="20.358125">
				<ele>625.000000</ele>
			</trkpt>
			<trkpt lat="48.937511" lon="20.358186">
				<ele>625.000000</ele>
			</trkpt>
			<trkpt lat="48.937541" lon="20.358232">
				<ele>627.000000</ele>
			</trkpt>
			<trkpt lat="48.937559" lon="20.358295">
				<ele>627.000000</ele>
			</trkpt>
			<trkpt lat="48.937588" lon="20.358366">
				<ele>628.000000</ele>
			</trkpt>
			<trkpt lat="48.937629" lon="20.358438">
				<ele>628.000000</ele>
			</trkpt>
			<trkpt lat="48.937677" lon="20.358502">
				<ele>627.000000</ele>
			</trkpt>
			<trkpt lat="48.937706" lon="20.358565">
				<ele>626.000000</ele>
			</trkpt>
			<trkpt lat="48.937753" lon="20.358672">
				<ele>626.000000</ele>
			</trkpt>
			<trkpt lat="48.937842" lon="20.358842">
				<ele>626.000000</ele>
			</trkpt>
			<trkpt lat="48.937883" lon="20.358968">
				<ele>627.000000</ele>
			</trkpt>
			<trkpt lat="48.937913" lon="20.359031">
				<ele>627.000000</ele>
			</trkpt>
			<trkpt lat="48.937942" lon="20.359139">
				<ele>627.000000</ele>
			</trkpt>
			<trkpt lat="48.937995" lon="20.359247">
				<ele>627.000000</ele>
			</trkpt>
			<trkpt lat="48.938031" lon="20.359291">
				<ele>628.000000</ele>
			</trkpt>
			<trkpt lat="48.938037" lon="20.359337">
				<ele>628.000000</ele>
			</trkpt>
			<trkpt lat="48.938078" lon="20.359435">
				<ele>628.000000</ele>
			</trkpt>
			<trkpt lat="48.938107" lon="20.359471">
				<ele>628.000000</ele>
			</trkpt>
			<trkpt lat="48.938160" lon="20.359534">
				<ele>628.000000</ele>
			</trkpt>
			<trkpt lat="48.938208" lon="20.359651">
				<ele>628.000000</ele>
			</trkpt>
			<trkpt lat="48.938231" lon="20.359696">
				<ele>628.000000</ele>
			</trkpt>
			<trkpt lat="48.938261" lon="20.359741">
				<ele>629.000000</ele>
			</trkpt>
			<trkpt lat="48.938284" lon="20.359876">
				<ele>629.000000</ele>
			</trkpt>
			<trkpt lat="48.938296" lon="20.359966">
				<ele>630.000000</ele>
			</trkpt>
			<trkpt lat="48.938290" lon="20.360046">
				<ele>630.000000</ele>
			</trkpt>
			<trkpt lat="48.938278" lon="20.360091">
				<ele>629.000000</ele>
			</trkpt>
			<trkpt lat="48.938231" lon="20.360199">
				<ele>631.000000</ele>
			</trkpt>
			<trkpt lat="48.938202" lon="20.360352">
				<ele>631.000000</ele>
			</trkpt>
			<trkpt lat="48.938184" lon="20.360433">
				<ele>631.000000</ele>
			</trkpt>
			<trkpt lat="48.938125" lon="20.360505">
				<ele>633.000000</ele>
			</trkpt>
			<trkpt lat="48.938078" lon="20.360595">
				<ele>633.000000</ele>
			</trkpt>
			<trkpt lat="48.938031" lon="20.360702">
				<ele>631.000000</ele>
			</trkpt>
			<trkpt lat="48.937989" lon="20.360810">
				<ele>633.000000</ele>
			</trkpt>
			<trkpt lat="48.937936" lon="20.360909">
				<ele>634.000000</ele>
			</trkpt>
			<trkpt lat="48.937877" lon="20.360962">
				<ele>634.000000</ele>
			</trkpt>
			<trkpt lat="48.937848" lon="20.360989">
				<ele>633.000000</ele>
			</trkpt>
			<trkpt lat="48.937824" lon="20.361052">
				<ele>634.000000</ele>
			</trkpt>
			<trkpt lat="48.937824" lon="20.361098">
				<ele>634.000000</ele>
			</trkpt>
			<trkpt lat="48.937818" lon="20.361215">
				<ele>633.000000</ele>
			</trkpt>
			<trkpt lat="48.937830" lon="20.361312">
				<ele>633.000000</ele>
			</trkpt>
			<trkpt lat="48.937842" lon="20.361421">
				<ele>633.000000</ele>
			</trkpt>
			<trkpt lat="48.937865" lon="20.361555">
				<ele>634.000000</ele>
			</trkpt>
			<trkpt lat="48.937877" lon="20.361645">
				<ele>637.000000</ele>
			</trkpt>
			<trkpt lat="48.937795" lon="20.361844">
				<ele>635.000000</ele>
			</trkpt>
			<trkpt lat="48.937718" lon="20.362004">
				<ele>636.000000</ele>
			</trkpt>
			<trkpt lat="48.937635" lon="20.362194">
				<ele>636.000000</ele>
			</trkpt>
			<trkpt lat="48.937553" lon="20.362283">
				<ele>636.000000</ele>
			</trkpt>
			<trkpt lat="48.937441" lon="20.362391">
				<ele>638.000000</ele>
			</trkpt>
			<trkpt lat="48.937393" lon="20.362473">
				<ele>638.000000</ele>
			</trkpt>
			<trkpt lat="48.937323" lon="20.362544">
				<ele>639.000000</ele>
			</trkpt>
			<trkpt lat="48.937264" lon="20.362561">
				<ele>641.000000</ele>
			</trkpt>
			<trkpt lat="48.937222" lon="20.362580">
				<ele>642.000000</ele>
			</trkpt>
			<trkpt lat="48.937152" lon="20.362624">
				<ele>640.000000</ele>
			</trkpt>
			<trkpt lat="48.937140" lon="20.362633">
				<ele>640.000000</ele>
			</trkpt>
			<trkpt lat="48.937098" lon="20.362714">
				<ele>638.000000</ele>
			</trkpt>
			<trkpt lat="48.937051" lon="20.362840">
				<ele>638.000000</ele>
			</trkpt>
			<trkpt lat="48.937021" lon="20.362957">
				<ele>640.000000</ele>
			</trkpt>
			<trkpt lat="48.937009" lon="20.362993">
				<ele>640.000000</ele>
			</trkpt>
			<trkpt lat="48.937004" lon="20.363010">
				<ele>641.000000</ele>
			</trkpt>
			<trkpt lat="48.936986" lon="20.363073">
				<ele>643.000000</ele>
			</trkpt>
			<trkpt lat="48.936980" lon="20.363136">
				<ele>651.000000</ele>
			</trkpt>
			<trkpt lat="48.936975" lon="20.363182">
				<ele>656.000000</ele>
			</trkpt>
			<trkpt lat="48.936980" lon="20.363226">
				<ele>661.000000</ele>
			</trkpt>
			<trkpt lat="48.936980" lon="20.363253">
				<ele>663.000000</ele>
			</trkpt>
			<trkpt lat="48.936980" lon="20.363478">
				<ele>667.000000</ele>
			</trkpt>
			<trkpt lat="48.936975" lon="20.363595">
				<ele>669.000000</ele>
			</trkpt>
			<trkpt lat="48.936992" lon="20.363693">
				<ele>671.000000</ele>
			</trkpt>
			<trkpt lat="48.937057" lon="20.363783">
				<ele>673.000000</ele>
			</trkpt>
			<trkpt lat="48.937110" lon="20.363882">
				<ele>676.000000</ele>
			</trkpt>
			<trkpt lat="48.937127" lon="20.363945">
				<ele>677.000000</ele>
			</trkpt>
			<trkpt lat="48.937116" lon="20.364026">
				<ele>677.000000</ele>
			</trkpt>
			<trkpt lat="48.937098" lon="20.364071">
				<ele>676.000000</ele>
			</trkpt>
			<trkpt lat="48.937093" lon="20.364178">
				<ele>676.000000</ele>
			</trkpt>
			<trkpt lat="48.937146" lon="20.364205">
				<ele>678.000000</ele>
			</trkpt>
			<trkpt lat="48.937152" lon="20.364287">
				<ele>680.000000</ele>
			</trkpt>
			<trkpt lat="48.937169" lon="20.364349">
				<ele>681.000000</ele>
			</trkpt>
			<trkpt lat="48.937222" lon="20.364448">
				<ele>684.000000</ele>
			</trkpt>
			<trkpt lat="48.937264" lon="20.364502">
				<ele>686.000000</ele>
			</trkpt>
			<trkpt lat="48.937317" lon="20.364538">
				<ele>688.000000</ele>
			</trkpt>
			<trkpt lat="48.937370" lon="20.364591">
				<ele>690.000000</ele>
			</trkpt>
			<trkpt lat="48.937405" lon="20.364637">
				<ele>691.000000</ele>
			</trkpt>
			<trkpt lat="48.937417" lon="20.364664">
				<ele>690.000000</ele>
			</trkpt>
			<trkpt lat="48.937411" lon="20.364700">
				<ele>688.000000</ele>
			</trkpt>
			<trkpt lat="48.937393" lon="20.364735">
				<ele>686.000000</ele>
			</trkpt>
			<trkpt lat="48.937376" lon="20.364790">
				<ele>686.000000</ele>
			</trkpt>
			<trkpt lat="48.937370" lon="20.364834">
				<ele>686.000000</ele>
			</trkpt>
			<trkpt lat="48.937363" lon="20.364907">
				<ele>686.000000</ele>
			</trkpt>
			<trkpt lat="48.937363" lon="20.364951">
				<ele>686.000000</ele>
			</trkpt>
			<trkpt lat="48.937376" lon="20.364996">
				<ele>687.000000</ele>
			</trkpt>
			<trkpt lat="48.937417" lon="20.365050">
				<ele>690.000000</ele>
			</trkpt>
			<trkpt lat="48.937393" lon="20.365060">
				<ele>689.000000</ele>
			</trkpt>
			<trkpt lat="48.937340" lon="20.365068">
				<ele>689.000000</ele>
			</trkpt>
			<trkpt lat="48.937287" lon="20.365077">
				<ele>693.000000</ele>
			</trkpt>
			<trkpt lat="48.937228" lon="20.365086">
				<ele>697.000000</ele>
			</trkpt>
			<trkpt lat="48.937205" lon="20.365104">
				<ele>696.000000</ele>
			</trkpt>
			<trkpt lat="48.937163" lon="20.365149">
				<ele>696.000000</ele>
			</trkpt>
			<trkpt lat="48.937127" lon="20.365176">
				<ele>697.000000</ele>
			</trkpt>
			<trkpt lat="48.937087" lon="20.365176">
				<ele>698.000000</ele>
			</trkpt>
			<trkpt lat="48.937051" lon="20.365184">
				<ele>698.000000</ele>
			</trkpt>
			<trkpt lat="48.937009" lon="20.365211">
				<ele>697.000000</ele>
			</trkpt>
			<trkpt lat="48.936980" lon="20.365257">
				<ele>697.000000</ele>
			</trkpt>
			<trkpt lat="48.936916" lon="20.365347">
				<ele>698.000000</ele>
			</trkpt>
			<trkpt lat="48.936886" lon="20.365427">
				<ele>698.000000</ele>
			</trkpt>
			<trkpt lat="48.936844" lon="20.365481">
				<ele>698.000000</ele>
			</trkpt>
			<trkpt lat="48.936815" lon="20.365544">
				<ele>698.000000</ele>
			</trkpt>
			<trkpt lat="48.936779" lon="20.365570">
				<ele>697.000000</ele>
			</trkpt>
			<trkpt lat="48.936732" lon="20.365589">
				<ele>698.000000</ele>
			</trkpt>
			<trkpt lat="48.936680" lon="20.365599">
				<ele>698.000000</ele>
			</trkpt>
			<trkpt lat="48.936626" lon="20.365634">
				<ele>699.000000</ele>
			</trkpt>
			<trkpt lat="48.936561" lon="20.365625">
				<ele>701.000000</ele>
			</trkpt>
			<trkpt lat="48.936490" lon="20.365660">
				<ele>703.000000</ele>
			</trkpt>
			<trkpt lat="48.936431" lon="20.365697">
				<ele>703.000000</ele>
			</trkpt>
			<trkpt lat="48.936384" lon="20.365715">
				<ele>703.000000</ele>
			</trkpt>
			<trkpt lat="48.936366" lon="20.365733">
				<ele>703.000000</ele>
			</trkpt>
			<trkpt lat="48.936349" lon="20.365769">
				<ele>702.000000</ele>
			</trkpt>
			<trkpt lat="48.936331" lon="20.365823">
				<ele>702.000000</ele>
			</trkpt>
			<trkpt lat="48.936313" lon="20.365849">
				<ele>702.000000</ele>
			</trkpt>
			<trkpt lat="48.936254" lon="20.365859">
				<ele>702.000000</ele>
			</trkpt>
			<trkpt lat="48.936242" lon="20.365840">
				<ele>702.000000</ele>
			</trkpt>
			<trkpt lat="48.936231" lon="20.365832">
				<ele>702.000000</ele>
			</trkpt>
			<trkpt lat="48.936195" lon="20.365832">
				<ele>703.000000</ele>
			</trkpt>
			<trkpt lat="48.936166" lon="20.365813">
				<ele>704.000000</ele>
			</trkpt>
			<trkpt lat="48.936136" lon="20.365786">
				<ele>705.000000</ele>
			</trkpt>
			<trkpt lat="48.936119" lon="20.365786">
				<ele>706.000000</ele>
			</trkpt>
			<trkpt lat="48.936095" lon="20.365805">
				<ele>705.000000</ele>
			</trkpt>
			<trkpt lat="48.936083" lon="20.365832">
				<ele>705.000000</ele>
			</trkpt>
			<trkpt lat="48.936065" lon="20.365840">
				<ele>705.000000</ele>
			</trkpt>
			<trkpt lat="48.936042" lon="20.365840">
				<ele>706.000000</ele>
			</trkpt>
			<trkpt lat="48.935989" lon="20.365922">
				<ele>706.000000</ele>
			</trkpt>
			<trkpt lat="48.935965" lon="20.366012">
				<ele>705.000000</ele>
			</trkpt>
			<trkpt lat="48.935947" lon="20.366092">
				<ele>706.000000</ele>
			</trkpt>
			<trkpt lat="48.935918" lon="20.366165">
				<ele>705.000000</ele>
			</trkpt>
			<trkpt lat="48.935888" lon="20.366209">
				<ele>706.000000</ele>
			</trkpt>
			<trkpt lat="48.935853" lon="20.366254">
				<ele>707.000000</ele>
			</trkpt>
			<trkpt lat="48.935829" lon="20.366326">
				<ele>707.000000</ele>
			</trkpt>
			<trkpt lat="48.935800" lon="20.366371">
				<ele>707.000000</ele>
			</trkpt>
			<trkpt lat="48.935711" lon="20.366532">
				<ele>710.000000</ele>
			</trkpt>
			<trkpt lat="48.935688" lon="20.366622">
				<ele>709.000000</ele>
			</trkpt>
			<trkpt lat="48.935605" lon="20.366847">
				<ele>711.000000</ele>
			</trkpt>
			<trkpt lat="48.935570" lon="20.367035">
				<ele>711.000000</ele>
			</trkpt>
			<trkpt lat="48.935552" lon="20.367125">
				<ele>713.000000</ele>
			</trkpt>
			<trkpt lat="48.935523" lon="20.367197">
				<ele>713.000000</ele>
			</trkpt>
			<trkpt lat="48.935517" lon="20.367323">
				<ele>714.000000</ele>
			</trkpt>
			<trkpt lat="48.935505" lon="20.367404">
				<ele>714.000000</ele>
			</trkpt>
			<trkpt lat="48.935523" lon="20.367503">
				<ele>715.000000</ele>
			</trkpt>
			<trkpt lat="48.935517" lon="20.367565">
				<ele>714.000000</ele>
			</trkpt>
			<trkpt lat="48.935493" lon="20.367664">
				<ele>714.000000</ele>
			</trkpt>
			<trkpt lat="48.935469" lon="20.367744">
				<ele>714.000000</ele>
			</trkpt>
			<trkpt lat="48.935446" lon="20.367817">
				<ele>714.000000</ele>
			</trkpt>
			<trkpt lat="48.935440" lon="20.367870">
				<ele>715.000000</ele>
			</trkpt>
			<trkpt lat="48.935422" lon="20.367951">
				<ele>716.000000</ele>
			</trkpt>
			<trkpt lat="48.935416" lon="20.368023">
				<ele>716.000000</ele>
			</trkpt>
			<trkpt lat="48.935375" lon="20.368104">
				<ele>716.000000</ele>
			</trkpt>
			<trkpt lat="48.935346" lon="20.368149">
				<ele>716.000000</ele>
			</trkpt>
			<trkpt lat="48.935310" lon="20.368176">
				<ele>716.000000</ele>
			</trkpt>
			<trkpt lat="48.935257" lon="20.368230">
				<ele>717.000000</ele>
			</trkpt>
			<trkpt lat="48.935228" lon="20.368275">
				<ele>717.000000</ele>
			</trkpt>
			<trkpt lat="48.935186" lon="20.368383">
				<ele>718.000000</ele>
			</trkpt>
			<trkpt lat="48.935151" lon="20.368436">
				<ele>718.000000</ele>
			</trkpt>
			<trkpt lat="48.935115" lon="20.368499">
				<ele>719.000000</ele>
			</trkpt>
			<trkpt lat="48.935098" lon="20.368553">
				<ele>719.000000</ele>
			</trkpt>
			<trkpt lat="48.935074" lon="20.368679">
				<ele>721.000000</ele>
			</trkpt>
			<trkpt lat="48.935062" lon="20.368805">
				<ele>723.000000</ele>
			</trkpt>
			<trkpt lat="48.935051" lon="20.368895">
				<ele>723.000000</ele>
			</trkpt>
			<trkpt lat="48.935039" lon="20.368958">
				<ele>723.000000</ele>
			</trkpt>
			<trkpt lat="48.934986" lon="20.369083">
				<ele>724.000000</ele>
			</trkpt>
			<trkpt lat="48.934944" lon="20.369146">
				<ele>726.000000</ele>
			</trkpt>
			<trkpt lat="48.934891" lon="20.369272">
				<ele>727.000000</ele>
			</trkpt>
			<trkpt lat="48.934879" lon="20.369299">
				<ele>728.000000</ele>
			</trkpt>
			<trkpt lat="48.934862" lon="20.369318">
				<ele>728.000000</ele>
			</trkpt>
			<trkpt lat="48.934832" lon="20.369407">
				<ele>729.000000</ele>
			</trkpt>
			<trkpt lat="48.934815" lon="20.369470">
				<ele>730.000000</ele>
			</trkpt>
			<trkpt lat="48.934779" lon="20.369532">
				<ele>731.000000</ele>
			</trkpt>
			<trkpt lat="48.934756" lon="20.369622">
				<ele>733.000000</ele>
			</trkpt>
			<trkpt lat="48.934738" lon="20.369631">
				<ele>733.000000</ele>
			</trkpt>
			<trkpt lat="48.934714" lon="20.369631">
				<ele>735.000000</ele>
			</trkpt>
			<trkpt lat="48.934697" lon="20.369605">
				<ele>736.000000</ele>
			</trkpt>
			<trkpt lat="48.934673" lon="20.369578">
				<ele>739.000000</ele>
			</trkpt>
			<trkpt lat="48.934638" lon="20.369578">
				<ele>739.000000</ele>
			</trkpt>
			<trkpt lat="48.934620" lon="20.369578">
				<ele>740.000000</ele>
			</trkpt>
			<trkpt lat="48.934579" lon="20.369595">
				<ele>738.000000</ele>
			</trkpt>
			<trkpt lat="48.934555" lon="20.369614">
				<ele>737.000000</ele>
			</trkpt>
			<trkpt lat="48.934531" lon="20.369622">
				<ele>738.000000</ele>
			</trkpt>
			<trkpt lat="48.934520" lon="20.369622">
				<ele>739.000000</ele>
			</trkpt>
			<trkpt lat="48.934472" lon="20.369622">
				<ele>741.000000</ele>
			</trkpt>
			<trkpt lat="48.934466" lon="20.369631">
				<ele>741.000000</ele>
			</trkpt>
			<trkpt lat="48.934449" lon="20.369649">
				<ele>742.000000</ele>
			</trkpt>
			<trkpt lat="48.934437" lon="20.369658">
				<ele>743.000000</ele>
			</trkpt>
			<trkpt lat="48.934419" lon="20.369658">
				<ele>744.000000</ele>
			</trkpt>
			<trkpt lat="48.934402" lon="20.369649">
				<ele>745.000000</ele>
			</trkpt>
			<trkpt lat="48.934384" lon="20.369658">
				<ele>746.000000</ele>
			</trkpt>
			<trkpt lat="48.934372" lon="20.369668">
				<ele>746.000000</ele>
			</trkpt>
			<trkpt lat="48.934360" lon="20.369668">
				<ele>747.000000</ele>
			</trkpt>
			<trkpt lat="48.934331" lon="20.369668">
				<ele>748.000000</ele>
			</trkpt>
			<trkpt lat="48.934307" lon="20.369685">
				<ele>750.000000</ele>
			</trkpt>
			<trkpt lat="48.934301" lon="20.369694">
				<ele>750.000000</ele>
			</trkpt>
			<trkpt lat="48.934272" lon="20.369712">
				<ele>752.000000</ele>
			</trkpt>
			<trkpt lat="48.934254" lon="20.369731">
				<ele>753.000000</ele>
			</trkpt>
			<trkpt lat="48.934236" lon="20.369748">
				<ele>754.000000</ele>
			</trkpt>
			<trkpt lat="48.934219" lon="20.369784">
				<ele>755.000000</ele>
			</trkpt>
			<trkpt lat="48.934171" lon="20.369865">
				<ele>757.000000</ele>
			</trkpt>
			<trkpt lat="48.934130" lon="20.369947">
				<ele>757.000000</ele>
			</trkpt>
			<trkpt lat="48.934107" lon="20.369991">
				<ele>757.000000</ele>
			</trkpt>
			<trkpt lat="48.934095" lon="20.370054">
				<ele>757.000000</ele>
			</trkpt>
			<trkpt lat="48.934077" lon="20.370098">
				<ele>758.000000</ele>
			</trkpt>
			<trkpt lat="48.934065" lon="20.370153">
				<ele>760.000000</ele>
			</trkpt>
			<trkpt lat="48.934065" lon="20.370207">
				<ele>760.000000</ele>
			</trkpt>
			<trkpt lat="48.934059" lon="20.370243">
				<ele>761.000000</ele>
			</trkpt>
			<trkpt lat="48.934042" lon="20.370260">
				<ele>761.000000</ele>
			</trkpt>
			<trkpt lat="48.934012" lon="20.370287">
				<ele>761.000000</ele>
			</trkpt>
			<trkpt lat="48.933983" lon="20.370314">
				<ele>761.000000</ele>
			</trkpt>
			<trkpt lat="48.933941" lon="20.370350">
				<ele>761.000000</ele>
			</trkpt>
			<trkpt lat="48.933894" lon="20.370377">
				<ele>762.000000</ele>
			</trkpt>
			<trkpt lat="48.933871" lon="20.370394">
				<ele>763.000000</ele>
			</trkpt>
			<trkpt lat="48.933806" lon="20.370457">
				<ele>764.000000</ele>
			</trkpt>
			<trkpt lat="48.933734" lon="20.370521">
				<ele>767.000000</ele>
			</trkpt>
			<trkpt lat="48.933675" lon="20.370593">
				<ele>767.000000</ele>
			</trkpt>
			<trkpt lat="48.933605" lon="20.370700">
				<ele>764.000000</ele>
			</trkpt>
			<trkpt lat="48.933563" lon="20.370836">
				<ele>763.000000</ele>
			</trkpt>
			<trkpt lat="48.933528" lon="20.370934">
				<ele>767.000000</ele>
			</trkpt>
			<trkpt lat="48.933534" lon="20.371033">
				<ele>769.000000</ele>
			</trkpt>
			<trkpt lat="48.933522" lon="20.371105">
				<ele>769.000000</ele>
			</trkpt>
			<trkpt lat="48.933492" lon="20.371176">
				<ele>770.000000</ele>
			</trkpt>
			<trkpt lat="48.933486" lon="20.371276">
				<ele>770.000000</ele>
			</trkpt>
			<trkpt lat="48.933481" lon="20.371365">
				<ele>771.000000</ele>
			</trkpt>
			<trkpt lat="48.933475" lon="20.371419">
				<ele>771.000000</ele>
			</trkpt>
			<trkpt lat="48.933445" lon="20.371465">
				<ele>772.000000</ele>
			</trkpt>
			<trkpt lat="48.933416" lon="20.371518">
				<ele>773.000000</ele>
			</trkpt>
			<trkpt lat="48.933374" lon="20.371599">
				<ele>773.000000</ele>
			</trkpt>
			<trkpt lat="48.933315" lon="20.371698">
				<ele>774.000000</ele>
			</trkpt>
			<trkpt lat="48.933245" lon="20.371778">
				<ele>775.000000</ele>
			</trkpt>
			<trkpt lat="48.933197" lon="20.371841">
				<ele>777.000000</ele>
			</trkpt>
			<trkpt lat="48.933186" lon="20.371895">
				<ele>778.000000</ele>
			</trkpt>
			<trkpt lat="48.933144" lon="20.371968">
				<ele>780.000000</ele>
			</trkpt>
			<trkpt lat="48.933121" lon="20.372031">
				<ele>781.000000</ele>
			</trkpt>
			<trkpt lat="48.933085" lon="20.372092">
				<ele>782.000000</ele>
			</trkpt>
			<trkpt lat="48.933062" lon="20.372102">
				<ele>783.000000</ele>
			</trkpt>
			<trkpt lat="48.933050" lon="20.372111">
				<ele>783.000000</ele>
			</trkpt>
			<trkpt lat="48.933038" lon="20.372128">
				<ele>783.000000</ele>
			</trkpt>
			<trkpt lat="48.933032" lon="20.372165">
				<ele>784.000000</ele>
			</trkpt>
			<trkpt lat="48.933020" lon="20.372192">
				<ele>784.000000</ele>
			</trkpt>
			<trkpt lat="48.932985" lon="20.372218">
				<ele>784.000000</ele>
			</trkpt>
			<trkpt lat="48.932944" lon="20.372237">
				<ele>785.000000</ele>
			</trkpt>
			<trkpt lat="48.932902" lon="20.372237">
				<ele>786.000000</ele>
			</trkpt>
			<trkpt lat="48.932861" lon="20.372264">
				<ele>786.000000</ele>
			</trkpt>
			<trkpt lat="48.932826" lon="20.372308">
				<ele>785.000000</ele>
			</trkpt>
			<trkpt lat="48.932796" lon="20.372362">
				<ele>786.000000</ele>
			</trkpt>
			<trkpt lat="48.932767" lon="20.372434">
				<ele>787.000000</ele>
			</trkpt>
			<trkpt lat="48.932743" lon="20.372507">
				<ele>788.000000</ele>
			</trkpt>
			<trkpt lat="48.932708" lon="20.372560">
				<ele>789.000000</ele>
			</trkpt>
			<trkpt lat="48.932690" lon="20.372578">
				<ele>790.000000</ele>
			</trkpt>
			<trkpt lat="48.932643" lon="20.372650">
				<ele>793.000000</ele>
			</trkpt>
			<trkpt lat="48.932631" lon="20.372731">
				<ele>795.000000</ele>
			</trkpt>
			<trkpt lat="48.932666" lon="20.372820">
				<ele>798.000000</ele>
			</trkpt>
			<trkpt lat="48.932678" lon="20.372893">
				<ele>798.000000</ele>
			</trkpt>
			<trkpt lat="48.932690" lon="20.373010">
				<ele>798.000000</ele>
			</trkpt>
			<trkpt lat="48.932672" lon="20.373099">
				<ele>797.000000</ele>
			</trkpt>
			<trkpt lat="48.932643" lon="20.373144">
				<ele>797.000000</ele>
			</trkpt>
			<trkpt lat="48.932637" lon="20.373171">
				<ele>798.000000</ele>
			</trkpt>
			<trkpt lat="48.932625" lon="20.373224">
				<ele>799.000000</ele>
			</trkpt>
			<trkpt lat="48.932607" lon="20.373279">
				<ele>800.000000</ele>
			</trkpt>
			<trkpt lat="48.932607" lon="20.373306">
				<ele>801.000000</ele>
			</trkpt>
			<trkpt lat="48.932607" lon="20.373369">
				<ele>803.000000</ele>
			</trkpt>
			<trkpt lat="48.932619" lon="20.373467">
				<ele>806.000000</ele>
			</trkpt>
			<trkpt lat="48.932637" lon="20.373503">
				<ele>807.000000</ele>
			</trkpt>
			<trkpt lat="48.932643" lon="20.373566">
				<ele>809.000000</ele>
			</trkpt>
			<trkpt lat="48.932643" lon="20.373639">
				<ele>809.000000</ele>
			</trkpt>
			<trkpt lat="48.932625" lon="20.373728">
				<ele>809.000000</ele>
			</trkpt>
			<trkpt lat="48.932584" lon="20.373826">
				<ele>810.000000</ele>
			</trkpt>
			<trkpt lat="48.932542" lon="20.373907">
				<ele>812.000000</ele>
			</trkpt>
			<trkpt lat="48.932507" lon="20.373979">
				<ele>813.000000</ele>
			</trkpt>
			<trkpt lat="48.932501" lon="20.374033">
				<ele>814.000000</ele>
			</trkpt>
			<trkpt lat="48.932466" lon="20.374078">
				<ele>815.000000</ele>
			</trkpt>
			<trkpt lat="48.932442" lon="20.374141">
				<ele>816.000000</ele>
			</trkpt>
			<trkpt lat="48.932395" lon="20.374168">
				<ele>817.000000</ele>
			</trkpt>
			<trkpt lat="48.932371" lon="20.374231">
				<ele>817.000000</ele>
			</trkpt>
			<trkpt lat="48.932312" lon="20.374365">
				<ele>818.000000</ele>
			</trkpt>
			<trkpt lat="48.932271" lon="20.374419">
				<ele>820.000000</ele>
			</trkpt>
			<trkpt lat="48.932259" lon="20.374446">
				<ele>820.000000</ele>
			</trkpt>
			<trkpt lat="48.932242" lon="20.374455">
				<ele>820.000000</ele>
			</trkpt>
			<trkpt lat="48.932212" lon="20.374545">
				<ele>820.000000</ele>
			</trkpt>
			<trkpt lat="48.932177" lon="20.374608">
				<ele>821.000000</ele>
			</trkpt>
			<trkpt lat="48.932082" lon="20.374779">
				<ele>821.000000</ele>
			</trkpt>
			<trkpt lat="48.931923" lon="20.374977">
				<ele>824.000000</ele>
			</trkpt>
			<trkpt lat="48.931846" lon="20.375084">
				<ele>823.000000</ele>
			</trkpt>
			<trkpt lat="48.931775" lon="20.375157">
				<ele>825.000000</ele>
			</trkpt>
			<trkpt lat="48.931681" lon="20.375255">
				<ele>825.000000</ele>
			</trkpt>
			<trkpt lat="48.931592" lon="20.375336">
				<ele>826.000000</ele>
			</trkpt>
			<trkpt lat="48.931551" lon="20.375407">
				<ele>826.000000</ele>
			</trkpt>
			<trkpt lat="48.931480" lon="20.375570">
				<ele>827.000000</ele>
			</trkpt>
			<trkpt lat="48.931427" lon="20.375633">
				<ele>827.000000</ele>
			</trkpt>
			<trkpt lat="48.931421" lon="20.375694">
				<ele>828.000000</ele>
			</trkpt>
			<trkpt lat="48.931415" lon="20.375803">
				<ele>830.000000</ele>
			</trkpt>
			<trkpt lat="48.931433" lon="20.375910">
				<ele>830.000000</ele>
			</trkpt>
			<trkpt lat="48.931410" lon="20.376010">
				<ele>831.000000</ele>
			</trkpt>
			<trkpt lat="48.931404" lon="20.376073">
				<ele>831.000000</ele>
			</trkpt>
			<trkpt lat="48.931392" lon="20.376144">
				<ele>831.000000</ele>
			</trkpt>
			<trkpt lat="48.931356" lon="20.376270">
				<ele>832.000000</ele>
			</trkpt>
			<trkpt lat="48.931339" lon="20.376315">
				<ele>833.000000</ele>
			</trkpt>
			<trkpt lat="48.931333" lon="20.376423">
				<ele>833.000000</ele>
			</trkpt>
			<trkpt lat="48.931351" lon="20.376503">
				<ele>834.000000</ele>
			</trkpt>
			<trkpt lat="48.931351" lon="20.376629">
				<ele>835.000000</ele>
			</trkpt>
			<trkpt lat="48.931326" lon="20.376782">
				<ele>836.000000</ele>
			</trkpt>
			<trkpt lat="48.931321" lon="20.376899">
				<ele>837.000000</ele>
			</trkpt>
			<trkpt lat="48.931321" lon="20.376899">
				<ele>837.000000</ele>
			</trkpt>
			<trkpt lat="48.931315" lon="20.376979">
				<ele>837.000000</ele>
			</trkpt>
			<trkpt lat="48.931309" lon="20.377052">
				<ele>838.000000</ele>
			</trkpt>
			<trkpt lat="48.931292" lon="20.377231">
				<ele>840.000000</ele>
			</trkpt>
			<trkpt lat="48.931250" lon="20.377384">
				<ele>840.000000</ele>
			</trkpt>
			<trkpt lat="48.931162" lon="20.377635">
				<ele>842.000000</ele>
			</trkpt>
			<trkpt lat="48.931138" lon="20.377788">
				<ele>843.000000</ele>
			</trkpt>
			<trkpt lat="48.931132" lon="20.377994">
				<ele>844.000000</ele>
			</trkpt>
			<trkpt lat="48.931156" lon="20.378138">
				<ele>847.000000</ele>
			</trkpt>
			<trkpt lat="48.931162" lon="20.378228">
				<ele>847.000000</ele>
			</trkpt>
			<trkpt lat="48.931156" lon="20.378327">
				<ele>848.000000</ele>
			</trkpt>
			<trkpt lat="48.931103" lon="20.378507">
				<ele>849.000000</ele>
			</trkpt>
			<trkpt lat="48.931044" lon="20.378650">
				<ele>851.000000</ele>
			</trkpt>
			<trkpt lat="48.930996" lon="20.378767">
				<ele>852.000000</ele>
			</trkpt>
			<trkpt lat="48.930937" lon="20.378902">
				<ele>854.000000</ele>
			</trkpt>
			<trkpt lat="48.930913" lon="20.379010">
				<ele>855.000000</ele>
			</trkpt>
			<trkpt lat="48.930896" lon="20.379279">
				<ele>858.000000</ele>
			</trkpt>
			<trkpt lat="48.930860" lon="20.379423">
				<ele>859.000000</ele>
			</trkpt>
			<trkpt lat="48.930814" lon="20.379639">
				<ele>861.000000</ele>
			</trkpt>
			<trkpt lat="48.930801" lon="20.379863">
				<ele>864.000000</ele>
			</trkpt>
			<trkpt lat="48.930778" lon="20.380042">
				<ele>865.000000</ele>
			</trkpt>
			<trkpt lat="48.930748" lon="20.380205">
				<ele>867.000000</ele>
			</trkpt>
			<trkpt lat="48.930666" lon="20.380358">
				<ele>870.000000</ele>
			</trkpt>
			<trkpt lat="48.930607" lon="20.380465">
				<ele>872.000000</ele>
			</trkpt>
			<trkpt lat="48.930553" lon="20.380573">
				<ele>874.000000</ele>
			</trkpt>
			<trkpt lat="48.930483" lon="20.380671">
				<ele>876.000000</ele>
			</trkpt>
			<trkpt lat="48.930365" lon="20.380843">
				<ele>880.000000</ele>
			</trkpt>
			<trkpt lat="48.930317" lon="20.380950">
				<ele>883.000000</ele>
			</trkpt>
			<trkpt lat="48.930276" lon="20.381121">
				<ele>885.000000</ele>
			</trkpt>
			<trkpt lat="48.930264" lon="20.381237">
				<ele>886.000000</ele>
			</trkpt>
			<trkpt lat="48.930258" lon="20.381373">
				<ele>888.000000</ele>
			</trkpt>
			<trkpt lat="48.930241" lon="20.381463">
				<ele>890.000000</ele>
			</trkpt>
			<trkpt lat="48.930217" lon="20.381507">
				<ele>891.000000</ele>
			</trkpt>
			<trkpt lat="48.930176" lon="20.381543">
				<ele>892.000000</ele>
			</trkpt>
			<trkpt lat="48.930123" lon="20.381560">
				<ele>893.000000</ele>
			</trkpt>
			<trkpt lat="48.930075" lon="20.381624">
				<ele>895.000000</ele>
			</trkpt>
			<trkpt lat="48.930040" lon="20.381696">
				<ele>897.000000</ele>
			</trkpt>
			<trkpt lat="48.929999" lon="20.381740">
				<ele>899.000000</ele>
			</trkpt>
			<trkpt lat="48.929940" lon="20.381813">
				<ele>902.000000</ele>
			</trkpt>
			<trkpt lat="48.929922" lon="20.381885">
				<ele>903.000000</ele>
			</trkpt>
			<trkpt lat="48.929916" lon="20.381965">
				<ele>904.000000</ele>
			</trkpt>
			<trkpt lat="48.929940" lon="20.382055">
				<ele>906.000000</ele>
			</trkpt>
			<trkpt lat="48.930011" lon="20.382244">
				<ele>909.000000</ele>
			</trkpt>
			<trkpt lat="48.930075" lon="20.382316">
				<ele>911.000000</ele>
			</trkpt>
			<trkpt lat="48.930064" lon="20.382451">
				<ele>915.000000</ele>
			</trkpt>
			<trkpt lat="48.930064" lon="20.382513">
				<ele>917.000000</ele>
			</trkpt>
			<trkpt lat="48.930028" lon="20.382549">
				<ele>918.000000</ele>
			</trkpt>
			<trkpt lat="48.929999" lon="20.382558">
				<ele>919.000000</ele>
			</trkpt>
			<trkpt lat="48.929969" lon="20.382576">
				<ele>921.000000</ele>
			</trkpt>
			<trkpt lat="48.929952" lon="20.382621">
				<ele>923.000000</ele>
			</trkpt>
			<trkpt lat="48.929969" lon="20.382648">
				<ele>923.000000</ele>
			</trkpt>
			<trkpt lat="48.929993" lon="20.382675">
				<ele>923.000000</ele>
			</trkpt>
			<trkpt lat="48.930016" lon="20.382684">
				<ele>923.000000</ele>
			</trkpt>
			<trkpt lat="48.930040" lon="20.382692">
				<ele>923.000000</ele>
			</trkpt>
			<trkpt lat="48.930064" lon="20.382692">
				<ele>923.000000</ele>
			</trkpt>
			<trkpt lat="48.930052" lon="20.382828">
				<ele>927.000000</ele>
			</trkpt>
			<trkpt lat="48.930005" lon="20.383071">
				<ele>933.000000</ele>
			</trkpt>
			<trkpt lat="48.929934" lon="20.383313">
				<ele>940.000000</ele>
			</trkpt>
			<trkpt lat="48.929834" lon="20.383564">
				<ele>948.000000</ele>
			</trkpt>
			<trkpt lat="48.929727" lon="20.383834">
				<ele>957.000000</ele>
			</trkpt>
			<trkpt lat="48.929639" lon="20.384013">
				<ele>963.000000</ele>
			</trkpt>
			<trkpt lat="48.929515" lon="20.384300">
				<ele>972.000000</ele>
			</trkpt>
			<trkpt lat="48.929456" lon="20.384426">
				<ele>975.000000</ele>
			</trkpt>
			<trkpt lat="48.929409" lon="20.384526">
				<ele>977.000000</ele>
			</trkpt>
			<trkpt lat="48.929379" lon="20.384616">
				<ele>979.000000</ele>
			</trkpt>
			<trkpt lat="48.929373" lon="20.384723">
				<ele>981.000000</ele>
			</trkpt>
			<trkpt lat="48.929362" lon="20.384866">
				<ele>982.000000</ele>
			</trkpt>
			<trkpt lat="48.929344" lon="20.384966">
				<ele>984.000000</ele>
			</trkpt>
			<trkpt lat="48.929308" lon="20.385002">
				<ele>984.000000</ele>
			</trkpt>
			<trkpt lat="48.929273" lon="20.385019">
				<ele>985.000000</ele>
			</trkpt>
			<trkpt lat="48.929220" lon="20.385011">
				<ele>986.000000</ele>
			</trkpt>
			<trkpt lat="48.929131" lon="20.384894">
				<ele>987.000000</ele>
			</trkpt>
			<trkpt lat="48.929061" lon="20.384750">
				<ele>988.000000</ele>
			</trkpt>
			<trkpt lat="48.928996" lon="20.384642">
				<ele>989.000000</ele>
			</trkpt>
			<trkpt lat="48.928866" lon="20.384489">
				<ele>990.000000</ele>
			</trkpt>
			<trkpt lat="48.928771" lon="20.384400">
				<ele>991.000000</ele>
			</trkpt>
			<trkpt lat="48.928648" lon="20.384319">
				<ele>992.000000</ele>
			</trkpt>
			<trkpt lat="48.928482" lon="20.384247">
				<ele>994.000000</ele>
			</trkpt>
			<trkpt lat="48.928400" lon="20.384210">
				<ele>995.000000</ele>
			</trkpt>
			<trkpt lat="48.928275" lon="20.384176">
				<ele>996.000000</ele>
			</trkpt>
			<trkpt lat="48.928216" lon="20.384176">
				<ele>996.000000</ele>
			</trkpt>
			<trkpt lat="48.928145" lon="20.384184">
				<ele>996.000000</ele>
			</trkpt>
			<trkpt lat="48.928069" lon="20.384265">
				<ele>995.000000</ele>
			</trkpt>
			<trkpt lat="48.928004" lon="20.384355">
				<ele>995.000000</ele>
			</trkpt>
			<trkpt lat="48.927951" lon="20.384373">
				<ele>995.000000</ele>
			</trkpt>
			<trkpt lat="48.927957" lon="20.384499">
				<ele>995.000000</ele>
			</trkpt>
			<trkpt lat="48.927915" lon="20.384642">
				<ele>995.000000</ele>
			</trkpt>
			<trkpt lat="48.927868" lon="20.384813">
				<ele>995.000000</ele>
			</trkpt>
			<trkpt lat="48.927780" lon="20.385073">
				<ele>994.000000</ele>
			</trkpt>
			<trkpt lat="48.927673" lon="20.385262">
				<ele>994.000000</ele>
			</trkpt>
			<trkpt lat="48.927520" lon="20.385478">
				<ele>992.000000</ele>
			</trkpt>
			<trkpt lat="48.927461" lon="20.385585">
				<ele>991.000000</ele>
			</trkpt>
			<trkpt lat="48.927278" lon="20.385891">
				<ele>989.000000</ele>
			</trkpt>
			<trkpt lat="48.927219" lon="20.386017">
				<ele>988.000000</ele>
			</trkpt>
			<trkpt lat="48.927195" lon="20.386088">
				<ele>988.000000</ele>
			</trkpt>
			<trkpt lat="48.927190" lon="20.386151">
				<ele>988.000000</ele>
			</trkpt>
			<trkpt lat="48.927190" lon="20.386205">
				<ele>988.000000</ele>
			</trkpt>
			<trkpt lat="48.927190" lon="20.386260">
				<ele>988.000000</ele>
			</trkpt>
			<trkpt lat="48.927219" lon="20.386376">
				<ele>988.000000</ele>
			</trkpt>
			<trkpt lat="48.927249" lon="20.386547">
				<ele>987.000000</ele>
			</trkpt>
			<trkpt lat="48.927119" lon="20.386430">
				<ele>987.000000</ele>
			</trkpt>
			<trkpt lat="48.927036" lon="20.386384">
				<ele>987.000000</ele>
			</trkpt>
			<trkpt lat="48.926936" lon="20.386350">
				<ele>987.000000</ele>
			</trkpt>
			<trkpt lat="48.926464" lon="20.386260">
				<ele>987.000000</ele>
			</trkpt>
			<trkpt lat="48.926204" lon="20.386160">
				<ele>987.000000</ele>
			</trkpt>
			<trkpt lat="48.926116" lon="20.386071">
				<ele>986.000000</ele>
			</trkpt>
			<trkpt lat="48.926057" lon="20.385998">
				<ele>986.000000</ele>
			</trkpt>
			<trkpt lat="48.925992" lon="20.385828">
				<ele>986.000000</ele>
			</trkpt>
			<trkpt lat="48.925956" lon="20.385702">
				<ele>986.000000</ele>
			</trkpt>
			<trkpt lat="48.925874" lon="20.385487">
				<ele>985.000000</ele>
			</trkpt>
			<trkpt lat="48.925809" lon="20.385361">
				<ele>985.000000</ele>
			</trkpt>
			<trkpt lat="48.925726" lon="20.385244">
				<ele>984.000000</ele>
			</trkpt>
			<trkpt lat="48.925631" lon="20.385145">
				<ele>984.000000</ele>
			</trkpt>
			<trkpt lat="48.925490" lon="20.385065">
				<ele>984.000000</ele>
			</trkpt>
			<trkpt lat="48.925248" lon="20.384975">
				<ele>984.000000</ele>
			</trkpt>
			<trkpt lat="48.924929" lon="20.384885">
				<ele>983.000000</ele>
			</trkpt>
			<trkpt lat="48.924475" lon="20.384679">
				<ele>982.000000</ele>
			</trkpt>
			<trkpt lat="48.924050" lon="20.384489">
				<ele>981.000000</ele>
			</trkpt>
			<trkpt lat="48.923507" lon="20.384247">
				<ele>980.000000</ele>
			</trkpt>
			<trkpt lat="48.923288" lon="20.384210">
				<ele>979.000000</ele>
			</trkpt>
			<trkpt lat="48.923158" lon="20.384210">
				<ele>979.000000</ele>
			</trkpt>
			<trkpt lat="48.923081" lon="20.384229">
				<ele>979.000000</ele>
			</trkpt>
			<trkpt lat="48.922963" lon="20.384292">
				<ele>979.000000</ele>
			</trkpt>
			<trkpt lat="48.922869" lon="20.384355">
				<ele>978.000000</ele>
			</trkpt>
			<trkpt lat="48.922698" lon="20.384597">
				<ele>977.000000</ele>
			</trkpt>
			<trkpt lat="48.922373" lon="20.384992">
				<ele>976.000000</ele>
			</trkpt>
			<trkpt lat="48.922332" lon="20.385038">
				<ele>976.000000</ele>
			</trkpt>
			<trkpt lat="48.922261" lon="20.385092">
				<ele>976.000000</ele>
			</trkpt>
			<trkpt lat="48.922178" lon="20.385136">
				<ele>977.000000</ele>
			</trkpt>
			<trkpt lat="48.922273" lon="20.384948">
				<ele>975.000000</ele>
			</trkpt>
			<trkpt lat="48.922344" lon="20.384813">
				<ele>974.000000</ele>
			</trkpt>
			<trkpt lat="48.922479" lon="20.384552">
				<ele>973.000000</ele>
			</trkpt>
			<trkpt lat="48.922574" lon="20.384247">
				<ele>971.000000</ele>
			</trkpt>
			<trkpt lat="48.922668" lon="20.383879">
				<ele>969.000000</ele>
			</trkpt>
			<trkpt lat="48.922727" lon="20.383573">
				<ele>968.000000</ele>
			</trkpt>
			<trkpt lat="48.922757" lon="20.383340">
				<ele>966.000000</ele>
			</trkpt>
			<trkpt lat="48.922798" lon="20.382881">
				<ele>965.000000</ele>
			</trkpt>
			<trkpt lat="48.922828" lon="20.382541">
				<ele>963.000000</ele>
			</trkpt>
			<trkpt lat="48.922845" lon="20.382306">
				<ele>962.000000</ele>
			</trkpt>
			<trkpt lat="48.922857" lon="20.382037">
				<ele>961.000000</ele>
			</trkpt>
			<trkpt lat="48.922869" lon="20.381929">
				<ele>960.000000</ele>
			</trkpt>
			<trkpt lat="48.922887" lon="20.381849">
				<ele>960.000000</ele>
			</trkpt>
			<trkpt lat="48.922946" lon="20.381678">
				<ele>958.000000</ele>
			</trkpt>
			<trkpt lat="48.922981" lon="20.381552">
				<ele>959.000000</ele>
			</trkpt>
			<trkpt lat="48.923058" lon="20.381543">
				<ele>961.000000</ele>
			</trkpt>
			<trkpt lat="48.923117" lon="20.381499">
				<ele>964.000000</ele>
			</trkpt>
			<trkpt lat="48.923152" lon="20.381390">
				<ele>966.000000</ele>
			</trkpt>
			<trkpt lat="48.923164" lon="20.381310">
				<ele>967.000000</ele>
			</trkpt>
			<trkpt lat="48.923170" lon="20.381174">
				<ele>968.000000</ele>
			</trkpt>
			<trkpt lat="48.923164" lon="20.381040">
				<ele>969.000000</ele>
			</trkpt>
			<trkpt lat="48.923140" lon="20.380933">
				<ele>970.000000</ele>
			</trkpt>
			<trkpt lat="48.923117" lon="20.380815">
				<ele>970.000000</ele>
			</trkpt>
			<trkpt lat="48.923087" lon="20.380698">
				<ele>971.000000</ele>
			</trkpt>
			<trkpt lat="48.923075" lon="20.380555">
				<ele>972.000000</ele>
			</trkpt>
			<trkpt lat="48.923087" lon="20.380421">
				<ele>974.000000</ele>
			</trkpt>
			<trkpt lat="48.923028" lon="20.380304">
				<ele>973.000000</ele>
			</trkpt>
			<trkpt lat="48.922987" lon="20.380195">
				<ele>973.000000</ele>
			</trkpt>
			<trkpt lat="48.922946" lon="20.380052">
				<ele>972.000000</ele>
			</trkpt>
			<trkpt lat="48.922922" lon="20.379863">
				<ele>972.000000</ele>
			</trkpt>
			<trkpt lat="48.922916" lon="20.379656">
				<ele>972.000000</ele>
			</trkpt>
			<trkpt lat="48.922904" lon="20.379306">
				<ele>973.000000</ele>
			</trkpt>
			<trkpt lat="48.922893" lon="20.379055">
				<ele>973.000000</ele>
			</trkpt>
			<trkpt lat="48.922887" lon="20.378813">
				<ele>972.000000</ele>
			</trkpt>
			<trkpt lat="48.922863" lon="20.378650">
				<ele>971.000000</ele>
			</trkpt>
			<trkpt lat="48.922833" lon="20.378552">
				<ele>970.000000</ele>
			</trkpt>
			<trkpt lat="48.922822" lon="20.378507">
				<ele>970.000000</ele>
			</trkpt>
			<trkpt lat="48.922780" lon="20.378434">
				<ele>970.000000</ele>
			</trkpt>
			<trkpt lat="48.922745" lon="20.378408">
				<ele>969.000000</ele>
			</trkpt>
			<trkpt lat="48.922710" lon="20.378390">
				<ele>969.000000</ele>
			</trkpt>
			<trkpt lat="48.922662" lon="20.378399">
				<ele>970.000000</ele>
			</trkpt>
			<trkpt lat="48.922633" lon="20.378417">
				<ele>970.000000</ele>
			</trkpt>
			<trkpt lat="48.922556" lon="20.378497">
				<ele>970.000000</ele>
			</trkpt>
			<trkpt lat="48.922232" lon="20.378857">
				<ele>972.000000</ele>
			</trkpt>
			<trkpt lat="48.922173" lon="20.378884">
				<ele>973.000000</ele>
			</trkpt>
			<trkpt lat="48.922125" lon="20.378902">
				<ele>974.000000</ele>
			</trkpt>
			<trkpt lat="48.922060" lon="20.378902">
				<ele>975.000000</ele>
			</trkpt>
			<trkpt lat="48.922001" lon="20.378884">
				<ele>976.000000</ele>
			</trkpt>
			<trkpt lat="48.921942" lon="20.378849">
				<ele>978.000000</ele>
			</trkpt>
			<trkpt lat="48.921877" lon="20.378803">
				<ele>979.000000</ele>
			</trkpt>
			<trkpt lat="48.921801" lon="20.378723">
				<ele>981.000000</ele>
			</trkpt>
			<trkpt lat="48.921706" lon="20.378606">
				<ele>983.000000</ele>
			</trkpt>
			<trkpt lat="48.921588" lon="20.378444">
				<ele>984.000000</ele>
			</trkpt>
			<trkpt lat="48.921453" lon="20.378273">
				<ele>985.000000</ele>
			</trkpt>
			<trkpt lat="48.921369" lon="20.378147">
				<ele>985.000000</ele>
			</trkpt>
			<trkpt lat="48.921299" lon="20.378004">
				<ele>985.000000</ele>
			</trkpt>
			<trkpt lat="48.921234" lon="20.377842">
				<ele>986.000000</ele>
			</trkpt>
			<trkpt lat="48.921139" lon="20.377572">
				<ele>987.000000</ele>
			</trkpt>
			<trkpt lat="48.921086" lon="20.377402">
				<ele>988.000000</ele>
			</trkpt>
			<trkpt lat="48.921027" lon="20.377159">
				<ele>988.000000</ele>
			</trkpt>
			<trkpt lat="48.920980" lon="20.376836">
				<ele>988.000000</ele>
			</trkpt>
			<trkpt lat="48.920927" lon="20.376432">
				<ele>988.000000</ele>
			</trkpt>
			<trkpt lat="48.920886" lon="20.376063">
				<ele>987.000000</ele>
			</trkpt>
			<trkpt lat="48.920874" lon="20.375929">
				<ele>986.000000</ele>
			</trkpt>
			<trkpt lat="48.920850" lon="20.375813">
				<ele>985.000000</ele>
			</trkpt>
			<trkpt lat="48.920815" lon="20.375686">
				<ele>984.000000</ele>
			</trkpt>
			<trkpt lat="48.920762" lon="20.375560">
				<ele>984.000000</ele>
			</trkpt>
			<trkpt lat="48.920703" lon="20.375425">
				<ele>982.000000</ele>
			</trkpt>
			<trkpt lat="48.920649" lon="20.375255">
				<ele>981.000000</ele>
			</trkpt>
			<trkpt lat="48.920573" lon="20.375004">
				<ele>979.000000</ele>
			</trkpt>
			<trkpt lat="48.920467" lon="20.374868">
				<ele>978.000000</ele>
			</trkpt>
			<trkpt lat="48.920413" lon="20.374788">
				<ele>977.000000</ele>
			</trkpt>
			<trkpt lat="48.920396" lon="20.374671">
				<ele>977.000000</ele>
			</trkpt>
			<trkpt lat="48.920366" lon="20.374555">
				<ele>977.000000</ele>
			</trkpt>
			<trkpt lat="48.920284" lon="20.374365">
				<ele>978.000000</ele>
			</trkpt>
			<trkpt lat="48.920236" lon="20.374186">
				<ele>978.000000</ele>
			</trkpt>
			<trkpt lat="48.920213" lon="20.374115">
				<ele>978.000000</ele>
			</trkpt>
			<trkpt lat="48.920207" lon="20.374042">
				<ele>978.000000</ele>
			</trkpt>
			<trkpt lat="48.920213" lon="20.373935">
				<ele>978.000000</ele>
			</trkpt>
			<trkpt lat="48.920230" lon="20.373836">
				<ele>977.000000</ele>
			</trkpt>
			<trkpt lat="48.920254" lon="20.373665">
				<ele>977.000000</ele>
			</trkpt>
			<trkpt lat="48.920260" lon="20.373530">
				<ele>978.000000</ele>
			</trkpt>
			<trkpt lat="48.920248" lon="20.373413">
				<ele>978.000000</ele>
			</trkpt>
			<trkpt lat="48.920242" lon="20.373287">
				<ele>979.000000</ele>
			</trkpt>
			<trkpt lat="48.920230" lon="20.373073">
				<ele>979.000000</ele>
			</trkpt>
			<trkpt lat="48.920213" lon="20.372901">
				<ele>979.000000</ele>
			</trkpt>
			<trkpt lat="48.920171" lon="20.372731">
				<ele>978.000000</ele>
			</trkpt>
			<trkpt lat="48.920136" lon="20.372614">
				<ele>976.000000</ele>
			</trkpt>
			<trkpt lat="48.920118" lon="20.372507">
				<ele>974.000000</ele>
			</trkpt>
			<trkpt lat="48.920118" lon="20.372362">
				<ele>972.000000</ele>
			</trkpt>
			<trkpt lat="48.920142" lon="20.372192">
				<ele>969.000000</ele>
			</trkpt>
			<trkpt lat="48.920166" lon="20.372057">
				<ele>967.000000</ele>
			</trkpt>
			<trkpt lat="48.920166" lon="20.371905">
				<ele>965.000000</ele>
			</trkpt>
			<trkpt lat="48.920154" lon="20.371769">
				<ele>964.000000</ele>
			</trkpt>
			<trkpt lat="48.920142" lon="20.371599">
				<ele>961.000000</ele>
			</trkpt>
			<trkpt lat="48.920142" lon="20.371446">
				<ele>958.000000</ele>
			</trkpt>
			<trkpt lat="48.920154" lon="20.371329">
				<ele>956.000000</ele>
			</trkpt>
			<trkpt lat="48.920183" lon="20.371222">
				<ele>954.000000</ele>
			</trkpt>
			<trkpt lat="48.920248" lon="20.371123">
				<ele>952.000000</ele>
			</trkpt>
			<trkpt lat="48.920337" lon="20.371006">
				<ele>950.000000</ele>
			</trkpt>
			<trkpt lat="48.920402" lon="20.370889">
				<ele>949.000000</ele>
			</trkpt>
			<trkpt lat="48.920461" lon="20.370746">
				<ele>948.000000</ele>
			</trkpt>
			<trkpt lat="48.920508" lon="20.370566">
				<ele>946.000000</ele>
			</trkpt>
			<trkpt lat="48.920537" lon="20.370440">
				<ele>945.000000</ele>
			</trkpt>
			<trkpt lat="48.920567" lon="20.370350">
				<ele>944.000000</ele>
			</trkpt>
			<trkpt lat="48.920608" lon="20.370251">
				<ele>943.000000</ele>
			</trkpt>
			<trkpt lat="48.920667" lon="20.370090">
				<ele>942.000000</ele>
			</trkpt>
			<trkpt lat="48.920732" lon="20.369892">
				<ele>942.000000</ele>
			</trkpt>
			<trkpt lat="48.920785" lon="20.369658">
				<ele>943.000000</ele>
			</trkpt>
			<trkpt lat="48.920832" lon="20.369318">
				<ele>944.000000</ele>
			</trkpt>
			<trkpt lat="48.920862" lon="20.369191">
				<ele>944.000000</ele>
			</trkpt>
			<trkpt lat="48.920838" lon="20.369039">
				<ele>944.000000</ele>
			</trkpt>
			<trkpt lat="48.920838" lon="20.368966">
				<ele>944.000000</ele>
			</trkpt>
			<trkpt lat="48.920844" lon="20.368876">
				<ele>943.000000</ele>
			</trkpt>
			<trkpt lat="48.920862" lon="20.368769">
				<ele>943.000000</ele>
			</trkpt>
			<trkpt lat="48.920927" lon="20.368580">
				<ele>942.000000</ele>
			</trkpt>
			<trkpt lat="48.921063" lon="20.368212">
				<ele>939.000000</ele>
			</trkpt>
			<trkpt lat="48.921152" lon="20.367987">
				<ele>938.000000</ele>
			</trkpt>
			<trkpt lat="48.921246" lon="20.367655">
				<ele>937.000000</ele>
			</trkpt>
			<trkpt lat="48.921388" lon="20.367224">
				<ele>938.000000</ele>
			</trkpt>
			<trkpt lat="48.921476" lon="20.366972">
				<ele>939.000000</ele>
			</trkpt>
			<trkpt lat="48.921523" lon="20.366865">
				<ele>939.000000</ele>
			</trkpt>
			<trkpt lat="48.921606" lon="20.366748">
				<ele>939.000000</ele>
			</trkpt>
			<trkpt lat="48.921706" lon="20.366613">
				<ele>938.000000</ele>
			</trkpt>
			<trkpt lat="48.921765" lon="20.366541">
				<ele>937.000000</ele>
			</trkpt>
			<trkpt lat="48.921807" lon="20.366469">
				<ele>936.000000</ele>
			</trkpt>
			<trkpt lat="48.921848" lon="20.366379">
				<ele>935.000000</ele>
			</trkpt>
			<trkpt lat="48.921901" lon="20.366254">
				<ele>934.000000</ele>
			</trkpt>
			<trkpt lat="48.921936" lon="20.366119">
				<ele>934.000000</ele>
			</trkpt>
			<trkpt lat="48.921966" lon="20.365993">
				<ele>933.000000</ele>
			</trkpt>
			<trkpt lat="48.922007" lon="20.365867">
				<ele>933.000000</ele>
			</trkpt>
			<trkpt lat="48.922090" lon="20.365715">
				<ele>932.000000</ele>
			</trkpt>
			<trkpt lat="48.922202" lon="20.365517">
				<ele>932.000000</ele>
			</trkpt>
			<trkpt lat="48.922426" lon="20.365167">
				<ele>930.000000</ele>
			</trkpt>
			<trkpt lat="48.922715" lon="20.364763">
				<ele>928.000000</ele>
			</trkpt>
			<trkpt lat="48.922792" lon="20.364637">
				<ele>927.000000</ele>
			</trkpt>
			<trkpt lat="48.922839" lon="20.364547">
				<ele>926.000000</ele>
			</trkpt>
			<trkpt lat="48.922863" lon="20.364475">
				<ele>925.000000</ele>
			</trkpt>
			<trkpt lat="48.922881" lon="20.364377">
				<ele>925.000000</ele>
			</trkpt>
			<trkpt lat="48.922887" lon="20.364295">
				<ele>924.000000</ele>
			</trkpt>
			<trkpt lat="48.922893" lon="20.364152">
				<ele>924.000000</ele>
			</trkpt>
			<trkpt lat="48.922739" lon="20.363576">
				<ele>923.000000</ele>
			</trkpt>
			<trkpt lat="48.922651" lon="20.363217">
				<ele>924.000000</ele>
			</trkpt>
			<trkpt lat="48.922597" lon="20.362983">
				<ele>925.000000</ele>
			</trkpt>
			<trkpt lat="48.922592" lon="20.362949">
				<ele>925.000000</ele>
			</trkpt>
			<trkpt lat="48.922592" lon="20.362949">
				<ele>925.000000</ele>
			</trkpt>
			<trkpt lat="48.922562" lon="20.362760">
				<ele>927.000000</ele>
			</trkpt>
			<trkpt lat="48.922456" lon="20.362410">
				<ele>928.000000</ele>
			</trkpt>
			<trkpt lat="48.922391" lon="20.362211">
				<ele>928.000000</ele>
			</trkpt>
			<trkpt lat="48.922367" lon="20.362077">
				<ele>929.000000</ele>
			</trkpt>
			<trkpt lat="48.922355" lon="20.361933">
				<ele>930.000000</ele>
			</trkpt>
			<trkpt lat="48.922355" lon="20.361789">
				<ele>931.000000</ele>
			</trkpt>
			<trkpt lat="48.922373" lon="20.361672">
				<ele>931.000000</ele>
			</trkpt>
			<trkpt lat="48.922420" lon="20.361412">
				<ele>931.000000</ele>
			</trkpt>
			<trkpt lat="48.922438" lon="20.361331">
				<ele>932.000000</ele>
			</trkpt>
			<trkpt lat="48.922456" lon="20.361215">
				<ele>932.000000</ele>
			</trkpt>
			<trkpt lat="48.922462" lon="20.361089">
				<ele>933.000000</ele>
			</trkpt>
			<trkpt lat="48.922444" lon="20.360873">
				<ele>934.000000</ele>
			</trkpt>
			<trkpt lat="48.922426" lon="20.360738">
				<ele>935.000000</ele>
			</trkpt>
			<trkpt lat="48.922432" lon="20.360603">
				<ele>936.000000</ele>
			</trkpt>
			<trkpt lat="48.922456" lon="20.360450">
				<ele>937.000000</ele>
			</trkpt>
			<trkpt lat="48.922491" lon="20.360289">
				<ele>939.000000</ele>
			</trkpt>
			<trkpt lat="48.922521" lon="20.360181">
				<ele>940.000000</ele>
			</trkpt>
			<trkpt lat="48.922562" lon="20.360110">
				<ele>941.000000</ele>
			</trkpt>
			<trkpt lat="48.922621" lon="20.360046">
				<ele>942.000000</ele>
			</trkpt>
			<trkpt lat="48.922668" lon="20.360001">
				<ele>942.000000</ele>
			</trkpt>
			<trkpt lat="48.922721" lon="20.359920">
				<ele>943.000000</ele>
			</trkpt>
			<trkpt lat="48.922780" lon="20.359813">
				<ele>944.000000</ele>
			</trkpt>
			<trkpt lat="48.922822" lon="20.359678">
				<ele>945.000000</ele>
			</trkpt>
			<trkpt lat="48.922904" lon="20.359408">
				<ele>948.000000</ele>
			</trkpt>
			<trkpt lat="48.922993" lon="20.359148">
				<ele>949.000000</ele>
			</trkpt>
			<trkpt lat="48.923058" lon="20.358924">
				<ele>949.000000</ele>
			</trkpt>
			<trkpt lat="48.923081" lon="20.358691">
				<ele>949.000000</ele>
			</trkpt>
			<trkpt lat="48.923093" lon="20.358448">
				<ele>951.000000</ele>
			</trkpt>
			<trkpt lat="48.923081" lon="20.358169">
				<ele>951.000000</ele>
			</trkpt>
			<trkpt lat="48.923081" lon="20.357926">
				<ele>952.000000</ele>
			</trkpt>
			<trkpt lat="48.923093" lon="20.357810">
				<ele>952.000000</ele>
			</trkpt>
			<trkpt lat="48.923123" lon="20.357639">
				<ele>952.000000</ele>
			</trkpt>
			<trkpt lat="48.923188" lon="20.357406">
				<ele>951.000000</ele>
			</trkpt>
			<trkpt lat="48.923252" lon="20.357154">
				<ele>953.000000</ele>
			</trkpt>
			<trkpt lat="48.923288" lon="20.356875">
				<ele>955.000000</ele>
			</trkpt>
			<trkpt lat="48.923306" lon="20.356588">
				<ele>956.000000</ele>
			</trkpt>
			<trkpt lat="48.923311" lon="20.356408">
				<ele>958.000000</ele>
			</trkpt>
			<trkpt lat="48.923311" lon="20.356238">
				<ele>958.000000</ele>
			</trkpt>
			<trkpt lat="48.923317" lon="20.356094">
				<ele>958.000000</ele>
			</trkpt>
			<trkpt lat="48.923342" lon="20.355923">
				<ele>958.000000</ele>
			</trkpt>
			<trkpt lat="48.923376" lon="20.355762">
				<ele>958.000000</ele>
			</trkpt>
			<trkpt lat="48.923448" lon="20.355582">
				<ele>957.000000</ele>
			</trkpt>
			<trkpt lat="48.923507" lon="20.355446">
				<ele>956.000000</ele>
			</trkpt>
			<trkpt lat="48.923572" lon="20.355295">
				<ele>954.000000</ele>
			</trkpt>
			<trkpt lat="48.923660" lon="20.355133">
				<ele>953.000000</ele>
			</trkpt>
			<trkpt lat="48.923760" lon="20.354997">
				<ele>951.000000</ele>
			</trkpt>
			<trkpt lat="48.923861" lon="20.354899">
				<ele>950.000000</ele>
			</trkpt>
			<trkpt lat="48.923985" lon="20.354809">
				<ele>949.000000</ele>
			</trkpt>
			<trkpt lat="48.924126" lon="20.354764">
				<ele>947.000000</ele>
			</trkpt>
			<trkpt lat="48.924274" lon="20.354683">
				<ele>947.000000</ele>
			</trkpt>
			<trkpt lat="48.924374" lon="20.354639">
				<ele>946.000000</ele>
			</trkpt>
			<trkpt lat="48.924492" lon="20.354603">
				<ele>947.000000</ele>
			</trkpt>
			<trkpt lat="48.924622" lon="20.354521">
				<ele>948.000000</ele>
			</trkpt>
			<trkpt lat="48.924740" lon="20.354467">
				<ele>949.000000</ele>
			</trkpt>
			<trkpt lat="48.924817" lon="20.354450">
				<ele>949.000000</ele>
			</trkpt>
			<trkpt lat="48.924935" lon="20.354423">
				<ele>951.000000</ele>
			</trkpt>
			<trkpt lat="48.925065" lon="20.354387">
				<ele>951.000000</ele>
			</trkpt>
			<trkpt lat="48.925218" lon="20.354280">
				<ele>953.000000</ele>
			</trkpt>
			<trkpt lat="48.925436" lon="20.354045">
				<ele>952.000000</ele>
			</trkpt>
			<trkpt lat="48.925520" lon="20.353893">
				<ele>951.000000</ele>
			</trkpt>
			<trkpt lat="48.925590" lon="20.353641">
				<ele>949.000000</ele>
			</trkpt>
			<trkpt lat="48.925625" lon="20.353425">
				<ele>948.000000</ele>
			</trkpt>
			<trkpt lat="48.925667" lon="20.353265">
				<ele>947.000000</ele>
			</trkpt>
			<trkpt lat="48.925714" lon="20.353102">
				<ele>946.000000</ele>
			</trkpt>
			<trkpt lat="48.925731" lon="20.352959">
				<ele>945.000000</ele>
			</trkpt>
			<trkpt lat="48.925743" lon="20.352743">
				<ele>944.000000</ele>
			</trkpt>
			<trkpt lat="48.925767" lon="20.352546">
				<ele>943.000000</ele>
			</trkpt>
			<trkpt lat="48.925802" lon="20.352393">
				<ele>943.000000</ele>
			</trkpt>
			<trkpt lat="48.925844" lon="20.352294">
				<ele>943.000000</ele>
			</trkpt>
			<trkpt lat="48.925903" lon="20.352204">
				<ele>943.000000</ele>
			</trkpt>
			<trkpt lat="48.925992" lon="20.352141">
				<ele>943.000000</ele>
			</trkpt>
			<trkpt lat="48.926133" lon="20.352060">
				<ele>944.000000</ele>
			</trkpt>
			<trkpt lat="48.926352" lon="20.351953">
				<ele>943.000000</ele>
			</trkpt>
			<trkpt lat="48.926599" lon="20.351817">
				<ele>942.000000</ele>
			</trkpt>
			<trkpt lat="48.926717" lon="20.351781">
				<ele>943.000000</ele>
			</trkpt>
			<trkpt lat="48.926818" lon="20.351791">
				<ele>943.000000</ele>
			</trkpt>
			<trkpt lat="48.926983" lon="20.351863">
				<ele>943.000000</ele>
			</trkpt>
			<trkpt lat="48.927243" lon="20.352070">
				<ele>941.000000</ele>
			</trkpt>
			<trkpt lat="48.927467" lon="20.352249">
				<ele>939.000000</ele>
			</trkpt>
			<trkpt lat="48.927650" lon="20.352330">
				<ele>937.000000</ele>
			</trkpt>
			<trkpt lat="48.927774" lon="20.352393">
				<ele>936.000000</ele>
			</trkpt>
			<trkpt lat="48.927868" lon="20.352410">
				<ele>935.000000</ele>
			</trkpt>
			<trkpt lat="48.927986" lon="20.352410">
				<ele>934.000000</ele>
			</trkpt>
			<trkpt lat="48.928175" lon="20.352375">
				<ele>933.000000</ele>
			</trkpt>
			<trkpt lat="48.928299" lon="20.352339">
				<ele>931.000000</ele>
			</trkpt>
			<trkpt lat="48.928381" lon="20.352286">
				<ele>930.000000</ele>
			</trkpt>
			<trkpt lat="48.928453" lon="20.352204">
				<ele>929.000000</ele>
			</trkpt>
			<trkpt lat="48.928648" lon="20.351917">
				<ele>928.000000</ele>
			</trkpt>
			<trkpt lat="48.928748" lon="20.351720">
				<ele>927.000000</ele>
			</trkpt>
			<trkpt lat="48.928813" lon="20.351530">
				<ele>927.000000</ele>
			</trkpt>
			<trkpt lat="48.928872" lon="20.351324">
				<ele>927.000000</ele>
			</trkpt>
			<trkpt lat="48.928943" lon="20.351171">
				<ele>927.000000</ele>
			</trkpt>
			<trkpt lat="48.929066" lon="20.351081">
				<ele>926.000000</ele>
			</trkpt>
			<trkpt lat="48.929226" lon="20.351091">
				<ele>923.000000</ele>
			</trkpt>
			<trkpt lat="48.929362" lon="20.351091">
				<ele>921.000000</ele>
			</trkpt>
			<trkpt lat="48.929474" lon="20.351054">
				<ele>921.000000</ele>
			</trkpt>
			<trkpt lat="48.929544" lon="20.351009">
				<ele>920.000000</ele>
			</trkpt>
			<trkpt lat="48.929627" lon="20.350955">
				<ele>920.000000</ele>
			</trkpt>
			<trkpt lat="48.929845" lon="20.350865">
				<ele>920.000000</ele>
			</trkpt>
			<trkpt lat="48.929963" lon="20.350802">
				<ele>919.000000</ele>
			</trkpt>
			<trkpt lat="48.930040" lon="20.350758">
				<ele>919.000000</ele>
			</trkpt>
			<trkpt lat="48.930111" lon="20.350731">
				<ele>919.000000</ele>
			</trkpt>
			<trkpt lat="48.930211" lon="20.350731">
				<ele>919.000000</ele>
			</trkpt>
			<trkpt lat="48.930312" lon="20.350775">
				<ele>919.000000</ele>
			</trkpt>
			<trkpt lat="48.930424" lon="20.350865">
				<ele>920.000000</ele>
			</trkpt>
			<trkpt lat="48.930512" lon="20.350955">
				<ele>921.000000</ele>
			</trkpt>
			<trkpt lat="48.930553" lon="20.350982">
				<ele>921.000000</ele>
			</trkpt>
			<trkpt lat="48.930601" lon="20.351001">
				<ele>920.000000</ele>
			</trkpt>
			<trkpt lat="48.930666" lon="20.351009">
				<ele>919.000000</ele>
			</trkpt>
			<trkpt lat="48.930742" lon="20.350991">
				<ele>917.000000</ele>
			</trkpt>
			<trkpt lat="48.930884" lon="20.350865">
				<ele>915.000000</ele>
			</trkpt>
			<trkpt lat="48.931025" lon="20.350794">
				<ele>913.000000</ele>
			</trkpt>
			<trkpt lat="48.931085" lon="20.350758">
				<ele>911.000000</ele>
			</trkpt>
			<trkpt lat="48.931138" lon="20.350678">
				<ele>910.000000</ele>
			</trkpt>
			<trkpt lat="48.931185" lon="20.350506">
				<ele>908.000000</ele>
			</trkpt>
			<trkpt lat="48.931233" lon="20.350336">
				<ele>906.000000</ele>
			</trkpt>
			<trkpt lat="48.931256" lon="20.350146">
				<ele>904.000000</ele>
			</trkpt>
			<trkpt lat="48.931262" lon="20.349995">
				<ele>904.000000</ele>
			</trkpt>
			<trkpt lat="48.931274" lon="20.349833">
				<ele>903.000000</ele>
			</trkpt>
			<trkpt lat="48.931315" lon="20.349680">
				<ele>900.000000</ele>
			</trkpt>
			<trkpt lat="48.931368" lon="20.349554">
				<ele>899.000000</ele>
			</trkpt>
			<trkpt lat="48.931463" lon="20.349437">
				<ele>896.000000</ele>
			</trkpt>
			<trkpt lat="48.931592" lon="20.349320">
				<ele>893.000000</ele>
			</trkpt>
			<trkpt lat="48.931693" lon="20.349249">
				<ele>891.000000</ele>
			</trkpt>
			<trkpt lat="48.931769" lon="20.349204">
				<ele>889.000000</ele>
			</trkpt>
			<trkpt lat="48.931858" lon="20.349204">
				<ele>887.000000</ele>
			</trkpt>
			<trkpt lat="48.931970" lon="20.349213">
				<ele>885.000000</ele>
			</trkpt>
			<trkpt lat="48.932070" lon="20.349249">
				<ele>883.000000</ele>
			</trkpt>
			<trkpt lat="48.932177" lon="20.349320">
				<ele>882.000000</ele>
			</trkpt>
			<trkpt lat="48.932360" lon="20.349509">
				<ele>882.000000</ele>
			</trkpt>
			<trkpt lat="48.932454" lon="20.349580">
				<ele>882.000000</ele>
			</trkpt>
			<trkpt lat="48.932631" lon="20.349662">
				<ele>884.000000</ele>
			</trkpt>
			<trkpt lat="48.932773" lon="20.349689">
				<ele>885.000000</ele>
			</trkpt>
			<trkpt lat="48.932926" lon="20.349697">
				<ele>887.000000</ele>
			</trkpt>
			<trkpt lat="48.933085" lon="20.349662">
				<ele>887.000000</ele>
			</trkpt>
			<trkpt lat="48.933215" lon="20.349617">
				<ele>888.000000</ele>
			</trkpt>
			<trkpt lat="48.933351" lon="20.349527">
				<ele>888.000000</ele>
			</trkpt>
			<trkpt lat="48.933445" lon="20.349464">
				<ele>889.000000</ele>
			</trkpt>
			<trkpt lat="48.933528" lon="20.349410">
				<ele>888.000000</ele>
			</trkpt>
			<trkpt lat="48.933605" lon="20.349383">
				<ele>887.000000</ele>
			</trkpt>
			<trkpt lat="48.933675" lon="20.349410">
				<ele>887.000000</ele>
			</trkpt>
			<trkpt lat="48.933734" lon="20.349429">
				<ele>886.000000</ele>
			</trkpt>
			<trkpt lat="48.933852" lon="20.349446">
				<ele>883.000000</ele>
			</trkpt>
			<trkpt lat="48.933989" lon="20.349456">
				<ele>880.000000</ele>
			</trkpt>
			<trkpt lat="48.934160" lon="20.349464">
				<ele>876.000000</ele>
			</trkpt>
			<trkpt lat="48.934360" lon="20.349483">
				<ele>871.000000</ele>
			</trkpt>
			<trkpt lat="48.934573" lon="20.349483">
				<ele>867.000000</ele>
			</trkpt>
			<trkpt lat="48.934791" lon="20.349509">
				<ele>864.000000</ele>
			</trkpt>
			<trkpt lat="48.934956" lon="20.349572">
				<ele>860.000000</ele>
			</trkpt>
			<trkpt lat="48.935056" lon="20.349563">
				<ele>859.000000</ele>
			</trkpt>
			<trkpt lat="48.935127" lon="20.349563">
				<ele>858.000000</ele>
			</trkpt>
			<trkpt lat="48.935174" lon="20.349536">
				<ele>857.000000</ele>
			</trkpt>
			<trkpt lat="48.935222" lon="20.349491">
				<ele>855.000000</ele>
			</trkpt>
			<trkpt lat="48.935245" lon="20.349420">
				<ele>854.000000</ele>
			</trkpt>
			<trkpt lat="48.935269" lon="20.349303">
				<ele>853.000000</ele>
			</trkpt>
			<trkpt lat="48.935281" lon="20.349230">
				<ele>852.000000</ele>
			</trkpt>
			<trkpt lat="48.935292" lon="20.349204">
				<ele>852.000000</ele>
			</trkpt>
			<trkpt lat="48.935328" lon="20.349177">
				<ele>851.000000</ele>
			</trkpt>
			<trkpt lat="48.935405" lon="20.349141">
				<ele>849.000000</ele>
			</trkpt>
			<trkpt lat="48.935505" lon="20.349070">
				<ele>848.000000</ele>
			</trkpt>
			<trkpt lat="48.935552" lon="20.348898">
				<ele>846.000000</ele>
			</trkpt>
			<trkpt lat="48.935576" lon="20.348764">
				<ele>845.000000</ele>
			</trkpt>
			<trkpt lat="48.935587" lon="20.348638">
				<ele>843.000000</ele>
			</trkpt>
			<trkpt lat="48.935564" lon="20.348251">
				<ele>838.000000</ele>
			</trkpt>
			<trkpt lat="48.935546" lon="20.347883">
				<ele>832.000000</ele>
			</trkpt>
			<trkpt lat="48.935540" lon="20.347542">
				<ele>829.000000</ele>
			</trkpt>
			<trkpt lat="48.935517" lon="20.347192">
				<ele>825.000000</ele>
			</trkpt>
			<trkpt lat="48.935475" lon="20.346949">
				<ele>822.000000</ele>
			</trkpt>
			<trkpt lat="48.935446" lon="20.346670">
				<ele>819.000000</ele>
			</trkpt>
			<trkpt lat="48.935434" lon="20.346517">
				<ele>817.000000</ele>
			</trkpt>
			<trkpt lat="48.935446" lon="20.346123">
				<ele>815.000000</ele>
			</trkpt>
			<trkpt lat="48.935434" lon="20.345970">
				<ele>812.000000</ele>
			</trkpt>
			<trkpt lat="48.935416" lon="20.345638">
				<ele>809.000000</ele>
			</trkpt>
			<trkpt lat="48.935393" lon="20.345296">
				<ele>806.000000</ele>
			</trkpt>
			<trkpt lat="48.935357" lon="20.344982">
				<ele>803.000000</ele>
			</trkpt>
			<trkpt lat="48.935298" lon="20.344676">
				<ele>800.000000</ele>
			</trkpt>
			<trkpt lat="48.935239" lon="20.344443">
				<ele>799.000000</ele>
			</trkpt>
			<trkpt lat="48.935157" lon="20.344246">
				<ele>796.000000</ele>
			</trkpt>
			<trkpt lat="48.935074" lon="20.344056">
				<ele>793.000000</ele>
			</trkpt>
			<trkpt lat="48.934944" lon="20.343841">
				<ele>791.000000</ele>
			</trkpt>
			<trkpt lat="48.934915" lon="20.343796">
				<ele>790.000000</ele>
			</trkpt>
			<trkpt lat="48.934891" lon="20.343741">
				<ele>789.000000</ele>
			</trkpt>
			<trkpt lat="48.934879" lon="20.343688">
				<ele>788.000000</ele>
			</trkpt>
			<trkpt lat="48.934879" lon="20.343607">
				<ele>786.000000</ele>
			</trkpt>
			<trkpt lat="48.934921" lon="20.343527">
				<ele>785.000000</ele>
			</trkpt>
			<trkpt lat="48.934956" lon="20.343473">
				<ele>784.000000</ele>
			</trkpt>
			<trkpt lat="48.935021" lon="20.343418">
				<ele>782.000000</ele>
			</trkpt>
			<trkpt lat="48.935092" lon="20.343364">
				<ele>780.000000</ele>
			</trkpt>
			<trkpt lat="48.935174" lon="20.343347">
				<ele>777.000000</ele>
			</trkpt>
			<trkpt lat="48.935233" lon="20.343338">
				<ele>776.000000</ele>
			</trkpt>
			<trkpt lat="48.935298" lon="20.343338">
				<ele>775.000000</ele>
			</trkpt>
			<trkpt lat="48.935422" lon="20.343347">
				<ele>772.000000</ele>
			</trkpt>
			<trkpt lat="48.935770" lon="20.343391">
				<ele>766.000000</ele>
			</trkpt>
			<trkpt lat="48.935959" lon="20.343428">
				<ele>763.000000</ele>
			</trkpt>
			<trkpt lat="48.936030" lon="20.343445">
				<ele>762.000000</ele>
			</trkpt>
			<trkpt lat="48.936166" lon="20.343527">
				<ele>762.000000</ele>
			</trkpt>
			<trkpt lat="48.936266" lon="20.343590">
				<ele>761.000000</ele>
			</trkpt>
			<trkpt lat="48.936337" lon="20.343634">
				<ele>761.000000</ele>
			</trkpt>
			<trkpt lat="48.936402" lon="20.343706">
				<ele>760.000000</ele>
			</trkpt>
			<trkpt lat="48.936455" lon="20.343823">
				<ele>760.000000</ele>
			</trkpt>
			<trkpt lat="48.936484" lon="20.343913">
				<ele>760.000000</ele>
			</trkpt>
			<trkpt lat="48.936502" lon="20.344003">
				<ele>759.000000</ele>
			</trkpt>
			<trkpt lat="48.936502" lon="20.344120">
				<ele>758.000000</ele>
			</trkpt>
			<trkpt lat="48.936514" lon="20.344209">
				<ele>758.000000</ele>
			</trkpt>
			<trkpt lat="48.936537" lon="20.344299">
				<ele>757.000000</ele>
			</trkpt>
			<trkpt lat="48.936579" lon="20.344380">
				<ele>755.000000</ele>
			</trkpt>
			<trkpt lat="48.936638" lon="20.344460">
				<ele>755.000000</ele>
			</trkpt>
			<trkpt lat="48.936756" lon="20.344569">
				<ele>755.000000</ele>
			</trkpt>
			<trkpt lat="48.936844" lon="20.344659">
				<ele>754.000000</ele>
			</trkpt>
			<trkpt lat="48.936903" lon="20.344730">
				<ele>754.000000</ele>
			</trkpt>
			<trkpt lat="48.936950" lon="20.344785">
				<ele>753.000000</ele>
			</trkpt>
			<trkpt lat="48.937004" lon="20.344812">
				<ele>752.000000</ele>
			</trkpt>
			<trkpt lat="48.937098" lon="20.344820">
				<ele>752.000000</ele>
			</trkpt>
			<trkpt lat="48.937234" lon="20.344802">
				<ele>752.000000</ele>
			</trkpt>
			<trkpt lat="48.937299" lon="20.344793">
				<ele>751.000000</ele>
			</trkpt>
			<trkpt lat="48.937358" lon="20.344793">
				<ele>751.000000</ele>
			</trkpt>
			<trkpt lat="48.937429" lon="20.344820">
				<ele>752.000000</ele>
			</trkpt>
			<trkpt lat="48.937481" lon="20.344856">
				<ele>751.000000</ele>
			</trkpt>
			<trkpt lat="48.937529" lon="20.344909">
				<ele>751.000000</ele>
			</trkpt>
			<trkpt lat="48.937683" lon="20.345135">
				<ele>749.000000</ele>
			</trkpt>
			<trkpt lat="48.937824" lon="20.345368">
				<ele>746.000000</ele>
			</trkpt>
			<trkpt lat="48.937883" lon="20.345502">
				<ele>745.000000</ele>
			</trkpt>
			<trkpt lat="48.937924" lon="20.345638">
				<ele>745.000000</ele>
			</trkpt>
			<trkpt lat="48.937960" lon="20.345764">
				<ele>745.000000</ele>
			</trkpt>
			<trkpt lat="48.937989" lon="20.345808">
				<ele>743.000000</ele>
			</trkpt>
			<trkpt lat="48.938031" lon="20.345844">
				<ele>742.000000</ele>
			</trkpt>
			<trkpt lat="48.938090" lon="20.345844">
				<ele>741.000000</ele>
			</trkpt>
			<trkpt lat="48.938219" lon="20.345827">
				<ele>739.000000</ele>
			</trkpt>
			<trkpt lat="48.938379" lon="20.345754">
				<ele>737.000000</ele>
			</trkpt>
			<trkpt lat="48.938473" lon="20.345691">
				<ele>737.000000</ele>
			</trkpt>
			<trkpt lat="48.938568" lon="20.345628">
				<ele>737.000000</ele>
			</trkpt>
			<trkpt lat="48.938638" lon="20.345584">
				<ele>736.000000</ele>
			</trkpt>
			<trkpt lat="48.938703" lon="20.345565">
				<ele>734.000000</ele>
			</trkpt>
			<trkpt lat="48.938768" lon="20.345557">
				<ele>733.000000</ele>
			</trkpt>
			<trkpt lat="48.938815" lon="20.345557">
				<ele>732.000000</ele>
			</trkpt>
			<trkpt lat="48.938874" lon="20.345584">
				<ele>732.000000</ele>
			</trkpt>
			<trkpt lat="48.938939" lon="20.345638">
				<ele>731.000000</ele>
			</trkpt>
			<trkpt lat="48.938998" lon="20.345691">
				<ele>730.000000</ele>
			</trkpt>
			<trkpt lat="48.939152" lon="20.345907">
				<ele>728.000000</ele>
			</trkpt>
			<trkpt lat="48.939252" lon="20.346060">
				<ele>727.000000</ele>
			</trkpt>
			<trkpt lat="48.939346" lon="20.346275">
				<ele>726.000000</ele>
			</trkpt>
			<trkpt lat="48.939393" lon="20.346420">
				<ele>726.000000</ele>
			</trkpt>
			<trkpt lat="48.939447" lon="20.346599">
				<ele>726.000000</ele>
			</trkpt>
			<trkpt lat="48.939476" lon="20.346724">
				<ele>725.000000</ele>
			</trkpt>
			<trkpt lat="48.939500" lon="20.346770">
				<ele>725.000000</ele>
			</trkpt>
			<trkpt lat="48.939541" lon="20.346806">
				<ele>724.000000</ele>
			</trkpt>
			<trkpt lat="48.939606" lon="20.346841">
				<ele>722.000000</ele>
			</trkpt>
			<trkpt lat="48.939736" lon="20.346904">
				<ele>720.000000</ele>
			</trkpt>
			<trkpt lat="48.939812" lon="20.346940">
				<ele>718.000000</ele>
			</trkpt>
			<trkpt lat="48.939966" lon="20.346976">
				<ele>715.000000</ele>
			</trkpt>
			<trkpt lat="48.940090" lon="20.347039">
				<ele>713.000000</ele>
			</trkpt>
			<trkpt lat="48.940178" lon="20.347093">
				<ele>711.000000</ele>
			</trkpt>
			<trkpt lat="48.940385" lon="20.347219">
				<ele>708.000000</ele>
			</trkpt>
			<trkpt lat="48.940603" lon="20.347372">
				<ele>703.000000</ele>
			</trkpt>
			<trkpt lat="48.940697" lon="20.347515">
				<ele>701.000000</ele>
			</trkpt>
			<trkpt lat="48.940769" lon="20.347668">
				<ele>700.000000</ele>
			</trkpt>
			<trkpt lat="48.940834" lon="20.347848">
				<ele>697.000000</ele>
			</trkpt>
			<trkpt lat="48.940887" lon="20.347865">
				<ele>696.000000</ele>
			</trkpt>
			<trkpt lat="48.940927" lon="20.347848">
				<ele>695.000000</ele>
			</trkpt>
			<trkpt lat="48.940957" lon="20.347766">
				<ele>692.000000</ele>
			</trkpt>
			<trkpt lat="48.940963" lon="20.347632">
				<ele>689.000000</ele>
			</trkpt>
			<trkpt lat="48.940957" lon="20.347372">
				<ele>685.000000</ele>
			</trkpt>
			<trkpt lat="48.940927" lon="20.347093">
				<ele>679.000000</ele>
			</trkpt>
			<trkpt lat="48.940868" lon="20.346814">
				<ele>675.000000</ele>
			</trkpt>
			<trkpt lat="48.940809" lon="20.346626">
				<ele>672.000000</ele>
			</trkpt>
			<trkpt lat="48.940632" lon="20.346041">
				<ele>664.000000</ele>
			</trkpt>
			<trkpt lat="48.940573" lon="20.345970">
				<ele>664.000000</ele>
			</trkpt>
			<trkpt lat="48.940526" lon="20.345925">
				<ele>663.000000</ele>
			</trkpt>
			<trkpt lat="48.940485" lon="20.345871">
				<ele>663.000000</ele>
			</trkpt>
			<trkpt lat="48.940503" lon="20.345835">
				<ele>661.000000</ele>
			</trkpt>
			<trkpt lat="48.940539" lon="20.345799">
				<ele>660.000000</ele>
			</trkpt>
			<trkpt lat="48.940573" lon="20.345781">
				<ele>658.000000</ele>
			</trkpt>
			<trkpt lat="48.940651" lon="20.345791">
				<ele>656.000000</ele>
			</trkpt>
			<trkpt lat="48.940745" lon="20.345835">
				<ele>654.000000</ele>
			</trkpt>
			<trkpt lat="48.940916" lon="20.345898">
				<ele>649.000000</ele>
			</trkpt>
			<trkpt lat="48.941134" lon="20.346024">
				<ele>642.000000</ele>
			</trkpt>
			<trkpt lat="48.941282" lon="20.346087">
				<ele>638.000000</ele>
			</trkpt>
			<trkpt lat="48.941418" lon="20.346204">
				<ele>635.000000</ele>
			</trkpt>
			<trkpt lat="48.941530" lon="20.346267">
				<ele>632.000000</ele>
			</trkpt>
			<trkpt lat="48.941659" lon="20.346374">
				<ele>628.000000</ele>
			</trkpt>
			<trkpt lat="48.941772" lon="20.346454">
				<ele>625.000000</ele>
			</trkpt>
			<trkpt lat="48.941954" lon="20.346527">
				<ele>620.000000</ele>
			</trkpt>
			<trkpt lat="48.942108" lon="20.346617">
				<ele>615.000000</ele>
			</trkpt>
			<trkpt lat="48.942202" lon="20.346653">
				<ele>613.000000</ele>
			</trkpt>
			<trkpt lat="48.942320" lon="20.346653">
				<ele>609.000000</ele>
			</trkpt>
			<trkpt lat="48.942438" lon="20.346697">
				<ele>606.000000</ele>
			</trkpt>
			<trkpt lat="48.942544" lon="20.346724">
				<ele>603.000000</ele>
			</trkpt>
			<trkpt lat="48.942651" lon="20.346733">
				<ele>601.000000</ele>
			</trkpt>
			<trkpt lat="48.942721" lon="20.346716">
				<ele>599.000000</ele>
			</trkpt>
			<trkpt lat="48.942751" lon="20.346697">
				<ele>599.000000</ele>
			</trkpt>
			<trkpt lat="48.942780" lon="20.346670">
				<ele>598.000000</ele>
			</trkpt>
			<trkpt lat="48.942828" lon="20.346590">
				<ele>597.000000</ele>
			</trkpt>
			<trkpt lat="48.942910" lon="20.346410">
				<ele>595.000000</ele>
			</trkpt>
			<trkpt lat="48.943011" lon="20.346267">
				<ele>594.000000</ele>
			</trkpt>
			<trkpt lat="48.943058" lon="20.346213">
				<ele>593.000000</ele>
			</trkpt>
			<trkpt lat="48.943370" lon="20.346554">
				<ele>593.000000</ele>
			</trkpt>
			<trkpt lat="48.943854" lon="20.346949">
				<ele>592.000000</ele>
			</trkpt>
			<trkpt lat="48.943990" lon="20.347039">
				<ele>592.000000</ele>
			</trkpt>
			<trkpt lat="48.944084" lon="20.347083">
				<ele>591.000000</ele>
			</trkpt>
			<trkpt lat="48.944184" lon="20.347110">
				<ele>591.000000</ele>
			</trkpt>
			<trkpt lat="48.944326" lon="20.347137">
				<ele>591.000000</ele>
			</trkpt>
			<trkpt lat="48.944456" lon="20.347156">
				<ele>590.000000</ele>
			</trkpt>
			<trkpt lat="48.944917" lon="20.347173">
				<ele>588.000000</ele>
			</trkpt>
			<trkpt lat="48.945064" lon="20.347183">
				<ele>588.000000</ele>
			</trkpt>
			<trkpt lat="48.945135" lon="20.347183">
				<ele>588.000000</ele>
			</trkpt>
			<trkpt lat="48.945194" lon="20.347183">
				<ele>588.000000</ele>
			</trkpt>
		</trkseg>
	</trk>
</gpx>

