<?xml version="1.0" encoding="utf-8"?>
<gpx xmlns="http://www.topografix.com/GPX/1/1" version="1.1" creator="https://mapy.com/">
	<trk>
		<name>Szoliszkó - idő 6 óra :: táv 9.8 km :: szint 982 m</name>
		<trkseg>
			<trkpt lat="49.129468" lon="20.060296">
				<ele>1378.000000</ele>
			</trkpt>
			<trkpt lat="49.129691" lon="20.060189">
				<ele>1380.000000</ele>
			</trkpt>
			<trkpt lat="49.129815" lon="20.060126">
				<ele>1381.000000</ele>
			</trkpt>
			<trkpt lat="49.129927" lon="20.060072">
				<ele>1383.000000</ele>
			</trkpt>
			<trkpt lat="49.130103" lon="20.059982">
				<ele>1384.000000</ele>
			</trkpt>
			<trkpt lat="49.130120" lon="20.059973">
				<ele>1384.000000</ele>
			</trkpt>
			<trkpt lat="49.130308" lon="20.059874">
				<ele>1386.000000</ele>
			</trkpt>
			<trkpt lat="49.130456" lon="20.059803">
				<ele>1388.000000</ele>
			</trkpt>
			<trkpt lat="49.130603" lon="20.059722">
				<ele>1389.000000</ele>
			</trkpt>
			<trkpt lat="49.130790" lon="20.059623">
				<ele>1391.000000</ele>
			</trkpt>
			<trkpt lat="49.130920" lon="20.059577">
				<ele>1392.000000</ele>
			</trkpt>
			<trkpt lat="49.131055" lon="20.059516">
				<ele>1394.000000</ele>
			</trkpt>
			<trkpt lat="49.131225" lon="20.059380">
				<ele>1396.000000</ele>
			</trkpt>
			<trkpt lat="49.131343" lon="20.059227">
				<ele>1397.000000</ele>
			</trkpt>
			<trkpt lat="49.131478" lon="20.059066">
				<ele>1399.000000</ele>
			</trkpt>
			<trkpt lat="49.131596" lon="20.058914">
				<ele>1400.000000</ele>
			</trkpt>
			<trkpt lat="49.131813" lon="20.058680">
				<ele>1402.000000</ele>
			</trkpt>
			<trkpt lat="49.131919" lon="20.058562">
				<ele>1403.000000</ele>
			</trkpt>
			<trkpt lat="49.131954" lon="20.058527">
				<ele>1403.000000</ele>
			</trkpt>
			<trkpt lat="49.132007" lon="20.058445">
				<ele>1403.000000</ele>
			</trkpt>
			<trkpt lat="49.132037" lon="20.058411">
				<ele>1404.000000</ele>
			</trkpt>
			<trkpt lat="49.132160" lon="20.058258">
				<ele>1405.000000</ele>
			</trkpt>
			<trkpt lat="49.132284" lon="20.058105">
				<ele>1408.000000</ele>
			</trkpt>
			<trkpt lat="49.132454" lon="20.057898">
				<ele>1409.000000</ele>
			</trkpt>
			<trkpt lat="49.132513" lon="20.057835">
				<ele>1409.000000</ele>
			</trkpt>
			<trkpt lat="49.132554" lon="20.057728">
				<ele>1410.000000</ele>
			</trkpt>
			<trkpt lat="49.132648" lon="20.057369">
				<ele>1414.000000</ele>
			</trkpt>
			<trkpt lat="49.132718" lon="20.057099">
				<ele>1416.000000</ele>
			</trkpt>
			<trkpt lat="49.132742" lon="20.056964">
				<ele>1417.000000</ele>
			</trkpt>
			<trkpt lat="49.132901" lon="20.056694">
				<ele>1419.000000</ele>
			</trkpt>
			<trkpt lat="49.133094" lon="20.056380">
				<ele>1421.000000</ele>
			</trkpt>
			<trkpt lat="49.133189" lon="20.056245">
				<ele>1422.000000</ele>
			</trkpt>
			<trkpt lat="49.133383" lon="20.055948">
				<ele>1423.000000</ele>
			</trkpt>
			<trkpt lat="49.133589" lon="20.055671">
				<ele>1425.000000</ele>
			</trkpt>
			<trkpt lat="49.133753" lon="20.055508">
				<ele>1426.000000</ele>
			</trkpt>
			<trkpt lat="49.133888" lon="20.055428">
				<ele>1426.000000</ele>
			</trkpt>
			<trkpt lat="49.134047" lon="20.055356">
				<ele>1428.000000</ele>
			</trkpt>
			<trkpt lat="49.134182" lon="20.055319">
				<ele>1429.000000</ele>
			</trkpt>
			<trkpt lat="49.134258" lon="20.055176">
				<ele>1431.000000</ele>
			</trkpt>
			<trkpt lat="49.134323" lon="20.055122">
				<ele>1432.000000</ele>
			</trkpt>
			<trkpt lat="49.134382" lon="20.055032">
				<ele>1434.000000</ele>
			</trkpt>
			<trkpt lat="49.134452" lon="20.055023">
				<ele>1437.000000</ele>
			</trkpt>
			<trkpt lat="49.134511" lon="20.055069">
				<ele>1438.000000</ele>
			</trkpt>
			<trkpt lat="49.134552" lon="20.055050">
				<ele>1439.000000</ele>
			</trkpt>
			<trkpt lat="49.134582" lon="20.054898">
				<ele>1441.000000</ele>
			</trkpt>
			<trkpt lat="49.134635" lon="20.054790">
				<ele>1442.000000</ele>
			</trkpt>
			<trkpt lat="49.134722" lon="20.054637">
				<ele>1445.000000</ele>
			</trkpt>
			<trkpt lat="49.135005" lon="20.054269">
				<ele>1448.000000</ele>
			</trkpt>
			<trkpt lat="49.135105" lon="20.054071">
				<ele>1449.000000</ele>
			</trkpt>
			<trkpt lat="49.135234" lon="20.053757">
				<ele>1452.000000</ele>
			</trkpt>
			<trkpt lat="49.135416" lon="20.053487">
				<ele>1457.000000</ele>
			</trkpt>
			<trkpt lat="49.135616" lon="20.053325">
				<ele>1460.000000</ele>
			</trkpt>
			<trkpt lat="49.135775" lon="20.053308">
				<ele>1462.000000</ele>
			</trkpt>
			<trkpt lat="49.135969" lon="20.053398">
				<ele>1464.000000</ele>
			</trkpt>
			<trkpt lat="49.136127" lon="20.053451">
				<ele>1466.000000</ele>
			</trkpt>
			<trkpt lat="49.136344" lon="20.053415">
				<ele>1468.000000</ele>
			</trkpt>
			<trkpt lat="49.136574" lon="20.053290">
				<ele>1469.000000</ele>
			</trkpt>
			<trkpt lat="49.136833" lon="20.053074">
				<ele>1471.000000</ele>
			</trkpt>
			<trkpt lat="49.136968" lon="20.052885">
				<ele>1473.000000</ele>
			</trkpt>
			<trkpt lat="49.137115" lon="20.052805">
				<ele>1474.000000</ele>
			</trkpt>
			<trkpt lat="49.137244" lon="20.052778">
				<ele>1474.000000</ele>
			</trkpt>
			<trkpt lat="49.137426" lon="20.052669">
				<ele>1475.000000</ele>
			</trkpt>
			<trkpt lat="49.137562" lon="20.052553">
				<ele>1476.000000</ele>
			</trkpt>
			<trkpt lat="49.137632" lon="20.052490">
				<ele>1476.000000</ele>
			</trkpt>
			<trkpt lat="49.137779" lon="20.052400">
				<ele>1477.000000</ele>
			</trkpt>
			<trkpt lat="49.137914" lon="20.052382">
				<ele>1477.000000</ele>
			</trkpt>
			<trkpt lat="49.138149" lon="20.052365">
				<ele>1479.000000</ele>
			</trkpt>
			<trkpt lat="49.138425" lon="20.052212">
				<ele>1482.000000</ele>
			</trkpt>
			<trkpt lat="49.138690" lon="20.052050">
				<ele>1486.000000</ele>
			</trkpt>
			<trkpt lat="49.138778" lon="20.051952">
				<ele>1487.000000</ele>
			</trkpt>
			<trkpt lat="49.138807" lon="20.051807">
				<ele>1488.000000</ele>
			</trkpt>
			<trkpt lat="49.138837" lon="20.051503">
				<ele>1490.000000</ele>
			</trkpt>
			<trkpt lat="49.138831" lon="20.051250">
				<ele>1491.000000</ele>
			</trkpt>
			<trkpt lat="49.138848" lon="20.051134">
				<ele>1492.000000</ele>
			</trkpt>
			<trkpt lat="49.138890" lon="20.051061">
				<ele>1494.000000</ele>
			</trkpt>
			<trkpt lat="49.139001" lon="20.050981">
				<ele>1497.000000</ele>
			</trkpt>
			<trkpt lat="49.139066" lon="20.050945">
				<ele>1496.000000</ele>
			</trkpt>
			<trkpt lat="49.139213" lon="20.050820">
				<ele>1497.000000</ele>
			</trkpt>
			<trkpt lat="49.139301" lon="20.050702">
				<ele>1499.000000</ele>
			</trkpt>
			<trkpt lat="49.139318" lon="20.050675">
				<ele>1499.000000</ele>
			</trkpt>
			<trkpt lat="49.139513" lon="20.050424">
				<ele>1502.000000</ele>
			</trkpt>
			<trkpt lat="49.139648" lon="20.050298">
				<ele>1503.000000</ele>
			</trkpt>
			<trkpt lat="49.139801" lon="20.050191">
				<ele>1506.000000</ele>
			</trkpt>
			<trkpt lat="49.139977" lon="20.050172">
				<ele>1509.000000</ele>
			</trkpt>
			<trkpt lat="49.140124" lon="20.050182">
				<ele>1512.000000</ele>
			</trkpt>
			<trkpt lat="49.140206" lon="20.050218">
				<ele>1513.000000</ele>
			</trkpt>
			<trkpt lat="49.140300" lon="20.050254">
				<ele>1516.000000</ele>
			</trkpt>
			<trkpt lat="49.140400" lon="20.050344">
				<ele>1519.000000</ele>
			</trkpt>
			<trkpt lat="49.140482" lon="20.050461">
				<ele>1519.000000</ele>
			</trkpt>
			<trkpt lat="49.140606" lon="20.050631">
				<ele>1522.000000</ele>
			</trkpt>
			<trkpt lat="49.140670" lon="20.050711">
				<ele>1524.000000</ele>
			</trkpt>
			<trkpt lat="49.140811" lon="20.050711">
				<ele>1526.000000</ele>
			</trkpt>
			<trkpt lat="49.140894" lon="20.050730">
				<ele>1528.000000</ele>
			</trkpt>
			<trkpt lat="49.140940" lon="20.050685">
				<ele>1529.000000</ele>
			</trkpt>
			<trkpt lat="49.140917" lon="20.050522">
				<ele>1530.000000</ele>
			</trkpt>
			<trkpt lat="49.140917" lon="20.050352">
				<ele>1530.000000</ele>
			</trkpt>
			<trkpt lat="49.140976" lon="20.050082">
				<ele>1533.000000</ele>
			</trkpt>
			<trkpt lat="49.141017" lon="20.049876">
				<ele>1535.000000</ele>
			</trkpt>
			<trkpt lat="49.141093" lon="20.049840">
				<ele>1538.000000</ele>
			</trkpt>
			<trkpt lat="49.141158" lon="20.049921">
				<ele>1540.000000</ele>
			</trkpt>
			<trkpt lat="49.141187" lon="20.049958">
				<ele>1541.000000</ele>
			</trkpt>
			<trkpt lat="49.141287" lon="20.050082">
				<ele>1542.000000</ele>
			</trkpt>
			<trkpt lat="49.141399" lon="20.050145">
				<ele>1543.000000</ele>
			</trkpt>
			<trkpt lat="49.141599" lon="20.050164">
				<ele>1543.000000</ele>
			</trkpt>
			<trkpt lat="49.141746" lon="20.050208">
				<ele>1544.000000</ele>
			</trkpt>
			<trkpt lat="49.141910" lon="20.050254">
				<ele>1546.000000</ele>
			</trkpt>
			<trkpt lat="49.141993" lon="20.050308">
				<ele>1548.000000</ele>
			</trkpt>
			<trkpt lat="49.142057" lon="20.050379">
				<ele>1548.000000</ele>
			</trkpt>
			<trkpt lat="49.142210" lon="20.050505">
				<ele>1549.000000</ele>
			</trkpt>
			<trkpt lat="49.142328" lon="20.050631">
				<ele>1550.000000</ele>
			</trkpt>
			<trkpt lat="49.142375" lon="20.050685">
				<ele>1550.000000</ele>
			</trkpt>
			<trkpt lat="49.142469" lon="20.050828">
				<ele>1549.000000</ele>
			</trkpt>
			<trkpt lat="49.142656" lon="20.050918">
				<ele>1550.000000</ele>
			</trkpt>
			<trkpt lat="49.142774" lon="20.050927">
				<ele>1551.000000</ele>
			</trkpt>
			<trkpt lat="49.142886" lon="20.050882">
				<ele>1552.000000</ele>
			</trkpt>
			<trkpt lat="49.143027" lon="20.050801">
				<ele>1554.000000</ele>
			</trkpt>
			<trkpt lat="49.143174" lon="20.050730">
				<ele>1554.000000</ele>
			</trkpt>
			<trkpt lat="49.143356" lon="20.050648">
				<ele>1557.000000</ele>
			</trkpt>
			<trkpt lat="49.143450" lon="20.050612">
				<ele>1559.000000</ele>
			</trkpt>
			<trkpt lat="49.143562" lon="20.050612">
				<ele>1561.000000</ele>
			</trkpt>
			<trkpt lat="49.143597" lon="20.050658">
				<ele>1561.000000</ele>
			</trkpt>
			<trkpt lat="49.143656" lon="20.050748">
				<ele>1561.000000</ele>
			</trkpt>
			<trkpt lat="49.143702" lon="20.050774">
				<ele>1562.000000</ele>
			</trkpt>
			<trkpt lat="49.143832" lon="20.050765">
				<ele>1563.000000</ele>
			</trkpt>
			<trkpt lat="49.143855" lon="20.050757">
				<ele>1563.000000</ele>
			</trkpt>
			<trkpt lat="49.144020" lon="20.050694">
				<ele>1564.000000</ele>
			</trkpt>
			<trkpt lat="49.144073" lon="20.050702">
				<ele>1565.000000</ele>
			</trkpt>
			<trkpt lat="49.144120" lon="20.050721">
				<ele>1565.000000</ele>
			</trkpt>
			<trkpt lat="49.144232" lon="20.050730">
				<ele>1565.000000</ele>
			</trkpt>
			<trkpt lat="49.144291" lon="20.050702">
				<ele>1566.000000</ele>
			</trkpt>
			<trkpt lat="49.144344" lon="20.050658">
				<ele>1566.000000</ele>
			</trkpt>
			<trkpt lat="49.144449" lon="20.050469">
				<ele>1568.000000</ele>
			</trkpt>
			<trkpt lat="49.144584" lon="20.050281">
				<ele>1571.000000</ele>
			</trkpt>
			<trkpt lat="49.144667" lon="20.050191">
				<ele>1574.000000</ele>
			</trkpt>
			<trkpt lat="49.144731" lon="20.050155">
				<ele>1575.000000</ele>
			</trkpt>
			<trkpt lat="49.144742" lon="20.050101">
				<ele>1577.000000</ele>
			</trkpt>
			<trkpt lat="49.144725" lon="20.050065">
				<ele>1578.000000</ele>
			</trkpt>
			<trkpt lat="49.144655" lon="20.050029">
				<ele>1579.000000</ele>
			</trkpt>
			<trkpt lat="49.144555" lon="20.049984">
				<ele>1580.000000</ele>
			</trkpt>
			<trkpt lat="49.144455" lon="20.049984">
				<ele>1580.000000</ele>
			</trkpt>
			<trkpt lat="49.144331" lon="20.049975">
				<ele>1581.000000</ele>
			</trkpt>
			<trkpt lat="49.144255" lon="20.049975">
				<ele>1582.000000</ele>
			</trkpt>
			<trkpt lat="49.144126" lon="20.049958">
				<ele>1585.000000</ele>
			</trkpt>
			<trkpt lat="49.143973" lon="20.049912">
				<ele>1590.000000</ele>
			</trkpt>
			<trkpt lat="49.143885" lon="20.049832">
				<ele>1592.000000</ele>
			</trkpt>
			<trkpt lat="49.143814" lon="20.049778">
				<ele>1592.000000</ele>
			</trkpt>
			<trkpt lat="49.143791" lon="20.049759">
				<ele>1591.000000</ele>
			</trkpt>
			<trkpt lat="49.143779" lon="20.049723">
				<ele>1591.000000</ele>
			</trkpt>
			<trkpt lat="49.143791" lon="20.049598">
				<ele>1591.000000</ele>
			</trkpt>
			<trkpt lat="49.143820" lon="20.049463">
				<ele>1592.000000</ele>
			</trkpt>
			<trkpt lat="49.143855" lon="20.049400">
				<ele>1592.000000</ele>
			</trkpt>
			<trkpt lat="49.143920" lon="20.049337">
				<ele>1592.000000</ele>
			</trkpt>
			<trkpt lat="49.144008" lon="20.049329">
				<ele>1595.000000</ele>
			</trkpt>
			<trkpt lat="49.144108" lon="20.049329">
				<ele>1597.000000</ele>
			</trkpt>
			<trkpt lat="49.144196" lon="20.049274">
				<ele>1598.000000</ele>
			</trkpt>
			<trkpt lat="49.144337" lon="20.049157">
				<ele>1599.000000</ele>
			</trkpt>
			<trkpt lat="49.144443" lon="20.049077">
				<ele>1601.000000</ele>
			</trkpt>
			<trkpt lat="49.144490" lon="20.049059">
				<ele>1602.000000</ele>
			</trkpt>
			<trkpt lat="49.144637" lon="20.049023">
				<ele>1601.000000</ele>
			</trkpt>
			<trkpt lat="49.144714" lon="20.048987">
				<ele>1601.000000</ele>
			</trkpt>
			<trkpt lat="49.144790" lon="20.048906">
				<ele>1601.000000</ele>
			</trkpt>
			<trkpt lat="49.144895" lon="20.048717">
				<ele>1603.000000</ele>
			</trkpt>
			<trkpt lat="49.144972" lon="20.048610">
				<ele>1602.000000</ele>
			</trkpt>
			<trkpt lat="49.145072" lon="20.048511">
				<ele>1602.000000</ele>
			</trkpt>
			<trkpt lat="49.145172" lon="20.048411">
				<ele>1603.000000</ele>
			</trkpt>
			<trkpt lat="49.145260" lon="20.048321">
				<ele>1603.000000</ele>
			</trkpt>
			<trkpt lat="49.145365" lon="20.048197">
				<ele>1604.000000</ele>
			</trkpt>
			<trkpt lat="49.145437" lon="20.048142">
				<ele>1605.000000</ele>
			</trkpt>
			<trkpt lat="49.145483" lon="20.048151">
				<ele>1604.000000</ele>
			</trkpt>
			<trkpt lat="49.145512" lon="20.048161">
				<ele>1604.000000</ele>
			</trkpt>
			<trkpt lat="49.145565" lon="20.048115">
				<ele>1605.000000</ele>
			</trkpt>
			<trkpt lat="49.145636" lon="20.048080">
				<ele>1606.000000</ele>
			</trkpt>
			<trkpt lat="49.145724" lon="20.048044">
				<ele>1606.000000</ele>
			</trkpt>
			<trkpt lat="49.145801" lon="20.047962">
				<ele>1607.000000</ele>
			</trkpt>
			<trkpt lat="49.145859" lon="20.047918">
				<ele>1607.000000</ele>
			</trkpt>
			<trkpt lat="49.145947" lon="20.047864">
				<ele>1608.000000</ele>
			</trkpt>
			<trkpt lat="49.145994" lon="20.047811">
				<ele>1608.000000</ele>
			</trkpt>
			<trkpt lat="49.146082" lon="20.047774">
				<ele>1609.000000</ele>
			</trkpt>
			<trkpt lat="49.146182" lon="20.047738">
				<ele>1611.000000</ele>
			</trkpt>
			<trkpt lat="49.146253" lon="20.047711">
				<ele>1612.000000</ele>
			</trkpt>
			<trkpt lat="49.146394" lon="20.047595">
				<ele>1613.000000</ele>
			</trkpt>
			<trkpt lat="49.146453" lon="20.047558">
				<ele>1613.000000</ele>
			</trkpt>
			<trkpt lat="49.146529" lon="20.047558">
				<ele>1614.000000</ele>
			</trkpt>
			<trkpt lat="49.146588" lon="20.047576">
				<ele>1615.000000</ele>
			</trkpt>
			<trkpt lat="49.146647" lon="20.047604">
				<ele>1616.000000</ele>
			</trkpt>
			<trkpt lat="49.146711" lon="20.047585">
				<ele>1617.000000</ele>
			</trkpt>
			<trkpt lat="49.146829" lon="20.047595">
				<ele>1619.000000</ele>
			</trkpt>
			<trkpt lat="49.146970" lon="20.047549">
				<ele>1621.000000</ele>
			</trkpt>
			<trkpt lat="49.147070" lon="20.047486">
				<ele>1623.000000</ele>
			</trkpt>
			<trkpt lat="49.147128" lon="20.047478">
				<ele>1624.000000</ele>
			</trkpt>
			<trkpt lat="49.147170" lon="20.047432">
				<ele>1625.000000</ele>
			</trkpt>
			<trkpt lat="49.147205" lon="20.047406">
				<ele>1625.000000</ele>
			</trkpt>
			<trkpt lat="49.147299" lon="20.047388">
				<ele>1626.000000</ele>
			</trkpt>
			<trkpt lat="49.147411" lon="20.047352">
				<ele>1628.000000</ele>
			</trkpt>
			<trkpt lat="49.147587" lon="20.047271">
				<ele>1631.000000</ele>
			</trkpt>
			<trkpt lat="49.147640" lon="20.047279">
				<ele>1631.000000</ele>
			</trkpt>
			<trkpt lat="49.147728" lon="20.047289">
				<ele>1633.000000</ele>
			</trkpt>
			<trkpt lat="49.147793" lon="20.047279">
				<ele>1634.000000</ele>
			</trkpt>
			<trkpt lat="49.147828" lon="20.047279">
				<ele>1634.000000</ele>
			</trkpt>
			<trkpt lat="49.147881" lon="20.047316">
				<ele>1635.000000</ele>
			</trkpt>
			<trkpt lat="49.147940" lon="20.047415">
				<ele>1637.000000</ele>
			</trkpt>
			<trkpt lat="49.147992" lon="20.047451">
				<ele>1638.000000</ele>
			</trkpt>
			<trkpt lat="49.148021" lon="20.047442">
				<ele>1639.000000</ele>
			</trkpt>
			<trkpt lat="49.148092" lon="20.047316">
				<ele>1640.000000</ele>
			</trkpt>
			<trkpt lat="49.148145" lon="20.047190">
				<ele>1641.000000</ele>
			</trkpt>
			<trkpt lat="49.148174" lon="20.047182">
				<ele>1641.000000</ele>
			</trkpt>
			<trkpt lat="49.148210" lon="20.047190">
				<ele>1642.000000</ele>
			</trkpt>
			<trkpt lat="49.148292" lon="20.047245">
				<ele>1644.000000</ele>
			</trkpt>
			<trkpt lat="49.148339" lon="20.047226">
				<ele>1645.000000</ele>
			</trkpt>
			<trkpt lat="49.148380" lon="20.047226">
				<ele>1645.000000</ele>
			</trkpt>
			<trkpt lat="49.148474" lon="20.047271">
				<ele>1647.000000</ele>
			</trkpt>
			<trkpt lat="49.148521" lon="20.047271">
				<ele>1648.000000</ele>
			</trkpt>
			<trkpt lat="49.148574" lon="20.047271">
				<ele>1649.000000</ele>
			</trkpt>
			<trkpt lat="49.148610" lon="20.047245">
				<ele>1650.000000</ele>
			</trkpt>
			<trkpt lat="49.148774" lon="20.047199">
				<ele>1653.000000</ele>
			</trkpt>
			<trkpt lat="49.148833" lon="20.047182">
				<ele>1655.000000</ele>
			</trkpt>
			<trkpt lat="49.148874" lon="20.047145">
				<ele>1656.000000</ele>
			</trkpt>
			<trkpt lat="49.148980" lon="20.047119">
				<ele>1658.000000</ele>
			</trkpt>
			<trkpt lat="49.149132" lon="20.047109">
				<ele>1661.000000</ele>
			</trkpt>
			<trkpt lat="49.149238" lon="20.047029">
				<ele>1663.000000</ele>
			</trkpt>
			<trkpt lat="49.149326" lon="20.046920">
				<ele>1664.000000</ele>
			</trkpt>
			<trkpt lat="49.149432" lon="20.046912">
				<ele>1667.000000</ele>
			</trkpt>
			<trkpt lat="49.149514" lon="20.046912">
				<ele>1669.000000</ele>
			</trkpt>
			<trkpt lat="49.149597" lon="20.046929">
				<ele>1671.000000</ele>
			</trkpt>
			<trkpt lat="49.149667" lon="20.046903">
				<ele>1673.000000</ele>
			</trkpt>
			<trkpt lat="49.149731" lon="20.046885">
				<ele>1675.000000</ele>
			</trkpt>
			<trkpt lat="49.149808" lon="20.046912">
				<ele>1677.000000</ele>
			</trkpt>
			<trkpt lat="49.149855" lon="20.046912">
				<ele>1678.000000</ele>
			</trkpt>
			<trkpt lat="49.149902" lon="20.046912">
				<ele>1679.000000</ele>
			</trkpt>
			<trkpt lat="49.149961" lon="20.046939">
				<ele>1679.000000</ele>
			</trkpt>
			<trkpt lat="49.150049" lon="20.046992">
				<ele>1681.000000</ele>
			</trkpt>
			<trkpt lat="49.150120" lon="20.047038">
				<ele>1681.000000</ele>
			</trkpt>
			<trkpt lat="49.150231" lon="20.047046">
				<ele>1684.000000</ele>
			</trkpt>
			<trkpt lat="49.150395" lon="20.047046">
				<ele>1687.000000</ele>
			</trkpt>
			<trkpt lat="49.150548" lon="20.047073">
				<ele>1689.000000</ele>
			</trkpt>
			<trkpt lat="49.150595" lon="20.047092">
				<ele>1689.000000</ele>
			</trkpt>
			<trkpt lat="49.150672" lon="20.047109">
				<ele>1689.000000</ele>
			</trkpt>
			<trkpt lat="49.150713" lon="20.047082">
				<ele>1690.000000</ele>
			</trkpt>
			<trkpt lat="49.150830" lon="20.046966">
				<ele>1692.000000</ele>
			</trkpt>
			<trkpt lat="49.150889" lon="20.046956">
				<ele>1693.000000</ele>
			</trkpt>
			<trkpt lat="49.150942" lon="20.046920">
				<ele>1694.000000</ele>
			</trkpt>
			<trkpt lat="49.151054" lon="20.046929">
				<ele>1695.000000</ele>
			</trkpt>
			<trkpt lat="49.151165" lon="20.046912">
				<ele>1695.000000</ele>
			</trkpt>
			<trkpt lat="49.151230" lon="20.046866">
				<ele>1697.000000</ele>
			</trkpt>
			<trkpt lat="49.151347" lon="20.046830">
				<ele>1698.000000</ele>
			</trkpt>
			<trkpt lat="49.151418" lon="20.046786">
				<ele>1699.000000</ele>
			</trkpt>
			<trkpt lat="49.151494" lon="20.046759">
				<ele>1699.000000</ele>
			</trkpt>
			<trkpt lat="49.151582" lon="20.046679">
				<ele>1700.000000</ele>
			</trkpt>
			<trkpt lat="49.151682" lon="20.046534">
				<ele>1701.000000</ele>
			</trkpt>
			<trkpt lat="49.151747" lon="20.046417">
				<ele>1703.000000</ele>
			</trkpt>
			<trkpt lat="49.151811" lon="20.046337">
				<ele>1704.000000</ele>
			</trkpt>
			<trkpt lat="49.151852" lon="20.046256">
				<ele>1706.000000</ele>
			</trkpt>
			<trkpt lat="49.151882" lon="20.046229">
				<ele>1707.000000</ele>
			</trkpt>
			<trkpt lat="49.151958" lon="20.046166">
				<ele>1708.000000</ele>
			</trkpt>
			<trkpt lat="49.152052" lon="20.046067">
				<ele>1709.000000</ele>
			</trkpt>
			<trkpt lat="49.152076" lon="20.046004">
				<ele>1710.000000</ele>
			</trkpt>
			<trkpt lat="49.152094" lon="20.045960">
				<ele>1712.000000</ele>
			</trkpt>
			<trkpt lat="49.152199" lon="20.045933">
				<ele>1711.000000</ele>
			</trkpt>
			<trkpt lat="49.152264" lon="20.045878">
				<ele>1712.000000</ele>
			</trkpt>
			<trkpt lat="49.152422" lon="20.045816">
				<ele>1712.000000</ele>
			</trkpt>
			<trkpt lat="49.152458" lon="20.045771">
				<ele>1712.000000</ele>
			</trkpt>
			<trkpt lat="49.152487" lon="20.045618">
				<ele>1715.000000</ele>
			</trkpt>
			<trkpt lat="49.152558" lon="20.045402">
				<ele>1718.000000</ele>
			</trkpt>
			<trkpt lat="49.152575" lon="20.045187">
				<ele>1722.000000</ele>
			</trkpt>
			<trkpt lat="49.152546" lon="20.045115">
				<ele>1725.000000</ele>
			</trkpt>
			<trkpt lat="49.152546" lon="20.045061">
				<ele>1726.000000</ele>
			</trkpt>
			<trkpt lat="49.152517" lon="20.044935">
				<ele>1729.000000</ele>
			</trkpt>
			<trkpt lat="49.152546" lon="20.044719">
				<ele>1735.000000</ele>
			</trkpt>
			<trkpt lat="49.152575" lon="20.044656">
				<ele>1737.000000</ele>
			</trkpt>
			<trkpt lat="49.152628" lon="20.044532">
				<ele>1742.000000</ele>
			</trkpt>
			<trkpt lat="49.152716" lon="20.044513">
				<ele>1743.000000</ele>
			</trkpt>
			<trkpt lat="49.152781" lon="20.044459">
				<ele>1747.000000</ele>
			</trkpt>
			<trkpt lat="49.152858" lon="20.044478">
				<ele>1751.000000</ele>
			</trkpt>
			<trkpt lat="49.152887" lon="20.044558">
				<ele>1751.000000</ele>
			</trkpt>
			<trkpt lat="49.152922" lon="20.044595">
				<ele>1752.000000</ele>
			</trkpt>
			<trkpt lat="49.153045" lon="20.044792">
				<ele>1758.000000</ele>
			</trkpt>
			<trkpt lat="49.153128" lon="20.044962">
				<ele>1760.000000</ele>
			</trkpt>
			<trkpt lat="49.153210" lon="20.045079">
				<ele>1765.000000</ele>
			</trkpt>
			<trkpt lat="49.153281" lon="20.045115">
				<ele>1769.000000</ele>
			</trkpt>
			<trkpt lat="49.153351" lon="20.045097">
				<ele>1775.000000</ele>
			</trkpt>
			<trkpt lat="49.153415" lon="20.045106">
				<ele>1778.000000</ele>
			</trkpt>
			<trkpt lat="49.153486" lon="20.045106">
				<ele>1782.000000</ele>
			</trkpt>
			<trkpt lat="49.153556" lon="20.045061">
				<ele>1787.000000</ele>
			</trkpt>
			<trkpt lat="49.153615" lon="20.045061">
				<ele>1789.000000</ele>
			</trkpt>
			<trkpt lat="49.153656" lon="20.045097">
				<ele>1790.000000</ele>
			</trkpt>
			<trkpt lat="49.153692" lon="20.045088">
				<ele>1791.000000</ele>
			</trkpt>
			<trkpt lat="49.153739" lon="20.044989">
				<ele>1796.000000</ele>
			</trkpt>
			<trkpt lat="49.153751" lon="20.044872">
				<ele>1799.000000</ele>
			</trkpt>
			<trkpt lat="49.153803" lon="20.044675">
				<ele>1804.000000</ele>
			</trkpt>
			<trkpt lat="49.153839" lon="20.044595">
				<ele>1808.000000</ele>
			</trkpt>
			<trkpt lat="49.153879" lon="20.044568">
				<ele>1812.000000</ele>
			</trkpt>
			<trkpt lat="49.153921" lon="20.044585">
				<ele>1813.000000</ele>
			</trkpt>
			<trkpt lat="49.153956" lon="20.044621">
				<ele>1813.000000</ele>
			</trkpt>
			<trkpt lat="49.153991" lon="20.044719">
				<ele>1812.000000</ele>
			</trkpt>
			<trkpt lat="49.154032" lon="20.044746">
				<ele>1811.000000</ele>
			</trkpt>
			<trkpt lat="49.154168" lon="20.044828">
				<ele>1812.000000</ele>
			</trkpt>
			<trkpt lat="49.154262" lon="20.044855">
				<ele>1812.000000</ele>
			</trkpt>
			<trkpt lat="49.154332" lon="20.044845">
				<ele>1812.000000</ele>
			</trkpt>
			<trkpt lat="49.154449" lon="20.044738">
				<ele>1809.000000</ele>
			</trkpt>
			<trkpt lat="49.154538" lon="20.044684">
				<ele>1807.000000</ele>
			</trkpt>
			<trkpt lat="49.154673" lon="20.044576">
				<ele>1807.000000</ele>
			</trkpt>
			<trkpt lat="49.154808" lon="20.044478">
				<ele>1809.000000</ele>
			</trkpt>
			<trkpt lat="49.155025" lon="20.044505">
				<ele>1809.000000</ele>
			</trkpt>
			<trkpt lat="49.155072" lon="20.044495">
				<ele>1810.000000</ele>
			</trkpt>
			<trkpt lat="49.155219" lon="20.044595">
				<ele>1811.000000</ele>
			</trkpt>
			<trkpt lat="49.155383" lon="20.044746">
				<ele>1812.000000</ele>
			</trkpt>
			<trkpt lat="49.155449" lon="20.044792">
				<ele>1812.000000</ele>
			</trkpt>
			<trkpt lat="49.155519" lon="20.044782">
				<ele>1813.000000</ele>
			</trkpt>
			<trkpt lat="49.155595" lon="20.044755">
				<ele>1814.000000</ele>
			</trkpt>
			<trkpt lat="49.155642" lon="20.044801">
				<ele>1814.000000</ele>
			</trkpt>
			<trkpt lat="49.155666" lon="20.044872">
				<ele>1813.000000</ele>
			</trkpt>
			<trkpt lat="49.155760" lon="20.045106">
				<ele>1814.000000</ele>
			</trkpt>
			<trkpt lat="49.155795" lon="20.045161">
				<ele>1815.000000</ele>
			</trkpt>
			<trkpt lat="49.155854" lon="20.045161">
				<ele>1815.000000</ele>
			</trkpt>
			<trkpt lat="49.155907" lon="20.045214">
				<ele>1816.000000</ele>
			</trkpt>
			<trkpt lat="49.156024" lon="20.045312">
				<ele>1818.000000</ele>
			</trkpt>
			<trkpt lat="49.156124" lon="20.045457">
				<ele>1818.000000</ele>
			</trkpt>
			<trkpt lat="49.156189" lon="20.045555">
				<ele>1819.000000</ele>
			</trkpt>
			<trkpt lat="49.156259" lon="20.045708">
				<ele>1820.000000</ele>
			</trkpt>
			<trkpt lat="49.156312" lon="20.045843">
				<ele>1822.000000</ele>
			</trkpt>
			<trkpt lat="49.156365" lon="20.045878">
				<ele>1824.000000</ele>
			</trkpt>
			<trkpt lat="49.156488" lon="20.045798">
				<ele>1827.000000</ele>
			</trkpt>
			<trkpt lat="49.156594" lon="20.045717">
				<ele>1830.000000</ele>
			</trkpt>
			<trkpt lat="49.156670" lon="20.045610">
				<ele>1832.000000</ele>
			</trkpt>
			<trkpt lat="49.156758" lon="20.045582">
				<ele>1835.000000</ele>
			</trkpt>
			<trkpt lat="49.156806" lon="20.045520">
				<ele>1836.000000</ele>
			</trkpt>
			<trkpt lat="49.156906" lon="20.045447">
				<ele>1837.000000</ele>
			</trkpt>
			<trkpt lat="49.157000" lon="20.045384">
				<ele>1838.000000</ele>
			</trkpt>
			<trkpt lat="49.157058" lon="20.045321">
				<ele>1838.000000</ele>
			</trkpt>
			<trkpt lat="49.157211" lon="20.045214">
				<ele>1840.000000</ele>
			</trkpt>
			<trkpt lat="49.157352" lon="20.045134">
				<ele>1843.000000</ele>
			</trkpt>
			<trkpt lat="49.157517" lon="20.045008">
				<ele>1845.000000</ele>
			</trkpt>
			<trkpt lat="49.157681" lon="20.044872">
				<ele>1847.000000</ele>
			</trkpt>
			<trkpt lat="49.157840" lon="20.044692">
				<ele>1848.000000</ele>
			</trkpt>
			<trkpt lat="49.157915" lon="20.044629">
				<ele>1848.000000</ele>
			</trkpt>
			<trkpt lat="49.157998" lon="20.044612">
				<ele>1850.000000</ele>
			</trkpt>
			<trkpt lat="49.158086" lon="20.044595">
				<ele>1853.000000</ele>
			</trkpt>
			<trkpt lat="49.158139" lon="20.044522">
				<ele>1854.000000</ele>
			</trkpt>
			<trkpt lat="49.158215" lon="20.044432">
				<ele>1855.000000</ele>
			</trkpt>
			<trkpt lat="49.158345" lon="20.044325">
				<ele>1857.000000</ele>
			</trkpt>
			<trkpt lat="49.158462" lon="20.044270">
				<ele>1859.000000</ele>
			</trkpt>
			<trkpt lat="49.158603" lon="20.044180">
				<ele>1861.000000</ele>
			</trkpt>
			<trkpt lat="49.158679" lon="20.044163">
				<ele>1862.000000</ele>
			</trkpt>
			<trkpt lat="49.158721" lon="20.044109">
				<ele>1863.000000</ele>
			</trkpt>
			<trkpt lat="49.158797" lon="20.044073">
				<ele>1864.000000</ele>
			</trkpt>
			<trkpt lat="49.158879" lon="20.043983">
				<ele>1866.000000</ele>
			</trkpt>
			<trkpt lat="49.158949" lon="20.043983">
				<ele>1866.000000</ele>
			</trkpt>
			<trkpt lat="49.159002" lon="20.043947">
				<ele>1866.000000</ele>
			</trkpt>
			<trkpt lat="49.159067" lon="20.043947">
				<ele>1867.000000</ele>
			</trkpt>
			<trkpt lat="49.159167" lon="20.043912">
				<ele>1869.000000</ele>
			</trkpt>
			<trkpt lat="49.159255" lon="20.043893">
				<ele>1869.000000</ele>
			</trkpt>
			<trkpt lat="49.159361" lon="20.043813">
				<ele>1871.000000</ele>
			</trkpt>
			<trkpt lat="49.159473" lon="20.043759">
				<ele>1873.000000</ele>
			</trkpt>
			<trkpt lat="49.159561" lon="20.043732">
				<ele>1875.000000</ele>
			</trkpt>
			<trkpt lat="49.159613" lon="20.043650">
				<ele>1877.000000</ele>
			</trkpt>
			<trkpt lat="49.159690" lon="20.043597">
				<ele>1879.000000</ele>
			</trkpt>
			<trkpt lat="49.159778" lon="20.043436">
				<ele>1881.000000</ele>
			</trkpt>
			<trkpt lat="49.159831" lon="20.043283">
				<ele>1884.000000</ele>
			</trkpt>
			<trkpt lat="49.159872" lon="20.043193">
				<ele>1885.000000</ele>
			</trkpt>
			<trkpt lat="49.159902" lon="20.043004">
				<ele>1886.000000</ele>
			</trkpt>
			<trkpt lat="49.159890" lon="20.042851">
				<ele>1887.000000</ele>
			</trkpt>
			<trkpt lat="49.159907" lon="20.042725">
				<ele>1888.000000</ele>
			</trkpt>
			<trkpt lat="49.159983" lon="20.042555">
				<ele>1891.000000</ele>
			</trkpt>
			<trkpt lat="49.160066" lon="20.042222">
				<ele>1896.000000</ele>
			</trkpt>
			<trkpt lat="49.160107" lon="20.042079">
				<ele>1898.000000</ele>
			</trkpt>
			<trkpt lat="49.160172" lon="20.042079">
				<ele>1901.000000</ele>
			</trkpt>
			<trkpt lat="49.160242" lon="20.042034">
				<ele>1904.000000</ele>
			</trkpt>
			<trkpt lat="49.160371" lon="20.041979">
				<ele>1910.000000</ele>
			</trkpt>
			<trkpt lat="49.160454" lon="20.041918">
				<ele>1912.000000</ele>
			</trkpt>
			<trkpt lat="49.160553" lon="20.041899">
				<ele>1916.000000</ele>
			</trkpt>
			<trkpt lat="49.160618" lon="20.041855">
				<ele>1920.000000</ele>
			</trkpt>
			<trkpt lat="49.160647" lon="20.041710">
				<ele>1921.000000</ele>
			</trkpt>
			<trkpt lat="49.160706" lon="20.041549">
				<ele>1923.000000</ele>
			</trkpt>
			<trkpt lat="49.160759" lon="20.041566">
				<ele>1927.000000</ele>
			</trkpt>
			<trkpt lat="49.160830" lon="20.041476">
				<ele>1929.000000</ele>
			</trkpt>
			<trkpt lat="49.160906" lon="20.041440">
				<ele>1933.000000</ele>
			</trkpt>
			<trkpt lat="49.160964" lon="20.041440">
				<ele>1935.000000</ele>
			</trkpt>
			<trkpt lat="49.161041" lon="20.041495">
				<ele>1936.000000</ele>
			</trkpt>
			<trkpt lat="49.161117" lon="20.041558">
				<ele>1937.000000</ele>
			</trkpt>
			<trkpt lat="49.161176" lon="20.041576">
				<ele>1937.000000</ele>
			</trkpt>
			<trkpt lat="49.161241" lon="20.041566">
				<ele>1937.000000</ele>
			</trkpt>
			<trkpt lat="49.161323" lon="20.041459">
				<ele>1938.000000</ele>
			</trkpt>
			<trkpt lat="49.161475" lon="20.041253">
				<ele>1940.000000</ele>
			</trkpt>
			<trkpt lat="49.161547" lon="20.041163">
				<ele>1941.000000</ele>
			</trkpt>
			<trkpt lat="49.161711" lon="20.041046">
				<ele>1944.000000</ele>
			</trkpt>
			<trkpt lat="49.161840" lon="20.040929">
				<ele>1945.000000</ele>
			</trkpt>
			<trkpt lat="49.162057" lon="20.040696">
				<ele>1947.000000</ele>
			</trkpt>
			<trkpt lat="49.162157" lon="20.040633">
				<ele>1948.000000</ele>
			</trkpt>
			<trkpt lat="49.162157" lon="20.040633">
				<ele>1948.000000</ele>
			</trkpt>
			<trkpt lat="49.162228" lon="20.040597">
				<ele>1949.000000</ele>
			</trkpt>
			<trkpt lat="49.162416" lon="20.040516">
				<ele>1952.000000</ele>
			</trkpt>
			<trkpt lat="49.162456" lon="20.040453">
				<ele>1954.000000</ele>
			</trkpt>
			<trkpt lat="49.162615" lon="20.040398">
				<ele>1957.000000</ele>
			</trkpt>
			<trkpt lat="49.162809" lon="20.040398">
				<ele>1959.000000</ele>
			</trkpt>
			<trkpt lat="49.162868" lon="20.040327">
				<ele>1960.000000</ele>
			</trkpt>
			<trkpt lat="49.162939" lon="20.040371">
				<ele>1960.000000</ele>
			</trkpt>
			<trkpt lat="49.163039" lon="20.040255">
				<ele>1961.000000</ele>
			</trkpt>
			<trkpt lat="49.163132" lon="20.040237">
				<ele>1964.000000</ele>
			</trkpt>
			<trkpt lat="49.163173" lon="20.040174">
				<ele>1965.000000</ele>
			</trkpt>
			<trkpt lat="49.163291" lon="20.040094">
				<ele>1966.000000</ele>
			</trkpt>
			<trkpt lat="49.163344" lon="20.040040">
				<ele>1966.000000</ele>
			</trkpt>
			<trkpt lat="49.163432" lon="20.040040">
				<ele>1967.000000</ele>
			</trkpt>
			<trkpt lat="49.163496" lon="20.039985">
				<ele>1968.000000</ele>
			</trkpt>
			<trkpt lat="49.163614" lon="20.039968">
				<ele>1969.000000</ele>
			</trkpt>
			<trkpt lat="49.163702" lon="20.039797">
				<ele>1970.000000</ele>
			</trkpt>
			<trkpt lat="49.163820" lon="20.039708">
				<ele>1970.000000</ele>
			</trkpt>
			<trkpt lat="49.163954" lon="20.039671">
				<ele>1973.000000</ele>
			</trkpt>
			<trkpt lat="49.164020" lon="20.039545">
				<ele>1974.000000</ele>
			</trkpt>
			<trkpt lat="49.164101" lon="20.039482">
				<ele>1975.000000</ele>
			</trkpt>
			<trkpt lat="49.164096" lon="20.039419">
				<ele>1976.000000</ele>
			</trkpt>
			<trkpt lat="49.164160" lon="20.039295">
				<ele>1977.000000</ele>
			</trkpt>
			<trkpt lat="49.164254" lon="20.039195">
				<ele>1979.000000</ele>
			</trkpt>
			<trkpt lat="49.164295" lon="20.039079">
				<ele>1980.000000</ele>
			</trkpt>
			<trkpt lat="49.164342" lon="20.039060">
				<ele>1981.000000</ele>
			</trkpt>
			<trkpt lat="49.164384" lon="20.038962">
				<ele>1983.000000</ele>
			</trkpt>
			<trkpt lat="49.164471" lon="20.038872">
				<ele>1984.000000</ele>
			</trkpt>
			<trkpt lat="49.164595" lon="20.038755">
				<ele>1987.000000</ele>
			</trkpt>
			<trkpt lat="49.164724" lon="20.038639">
				<ele>1988.000000</ele>
			</trkpt>
			<trkpt lat="49.164742" lon="20.038530">
				<ele>1989.000000</ele>
			</trkpt>
			<trkpt lat="49.164783" lon="20.038486">
				<ele>1990.000000</ele>
			</trkpt>
			<trkpt lat="49.164783" lon="20.038486">
				<ele>1990.000000</ele>
			</trkpt>
			<trkpt lat="49.164865" lon="20.038404">
				<ele>1993.000000</ele>
			</trkpt>
			<trkpt lat="49.164965" lon="20.038287">
				<ele>1994.000000</ele>
			</trkpt>
			<trkpt lat="49.165071" lon="20.038180">
				<ele>1994.000000</ele>
			</trkpt>
			<trkpt lat="49.165194" lon="20.038037">
				<ele>1994.000000</ele>
			</trkpt>
			<trkpt lat="49.165323" lon="20.037983">
				<ele>1994.000000</ele>
			</trkpt>
			<trkpt lat="49.165393" lon="20.037893">
				<ele>1996.000000</ele>
			</trkpt>
			<trkpt lat="49.165441" lon="20.037731">
				<ele>2000.000000</ele>
			</trkpt>
			<trkpt lat="49.165482" lon="20.037687">
				<ele>2002.000000</ele>
			</trkpt>
			<trkpt lat="49.165564" lon="20.037570">
				<ele>2006.000000</ele>
			</trkpt>
			<trkpt lat="49.165640" lon="20.037452">
				<ele>2009.000000</ele>
			</trkpt>
			<trkpt lat="49.165746" lon="20.037398">
				<ele>2010.000000</ele>
			</trkpt>
			<trkpt lat="49.165817" lon="20.037398">
				<ele>2010.000000</ele>
			</trkpt>
			<trkpt lat="49.165899" lon="20.037480">
				<ele>2010.000000</ele>
			</trkpt>
			<trkpt lat="49.165969" lon="20.037570">
				<ele>2013.000000</ele>
			</trkpt>
			<trkpt lat="49.166016" lon="20.037632">
				<ele>2014.000000</ele>
			</trkpt>
			<trkpt lat="49.166075" lon="20.037740">
				<ele>2018.000000</ele>
			</trkpt>
			<trkpt lat="49.166175" lon="20.037956">
				<ele>2025.000000</ele>
			</trkpt>
			<trkpt lat="49.166216" lon="20.038000">
				<ele>2029.000000</ele>
			</trkpt>
			<trkpt lat="49.166281" lon="20.037974">
				<ele>2033.000000</ele>
			</trkpt>
			<trkpt lat="49.166369" lon="20.037866">
				<ele>2037.000000</ele>
			</trkpt>
			<trkpt lat="49.166427" lon="20.037811">
				<ele>2040.000000</ele>
			</trkpt>
			<trkpt lat="49.166480" lon="20.037784">
				<ele>2043.000000</ele>
			</trkpt>
			<trkpt lat="49.166627" lon="20.037677">
				<ele>2051.000000</ele>
			</trkpt>
			<trkpt lat="49.166686" lon="20.037614">
				<ele>2055.000000</ele>
			</trkpt>
			<trkpt lat="49.166745" lon="20.037551">
				<ele>2059.000000</ele>
			</trkpt>
			<trkpt lat="49.166780" lon="20.037570">
				<ele>2061.000000</ele>
			</trkpt>
			<trkpt lat="49.166839" lon="20.037507">
				<ele>2064.000000</ele>
			</trkpt>
			<trkpt lat="49.166885" lon="20.037480">
				<ele>2068.000000</ele>
			</trkpt>
			<trkpt lat="49.166944" lon="20.037461">
				<ele>2072.000000</ele>
			</trkpt>
			<trkpt lat="49.167038" lon="20.037390">
				<ele>2078.000000</ele>
			</trkpt>
			<trkpt lat="49.167121" lon="20.037362">
				<ele>2080.000000</ele>
			</trkpt>
			<trkpt lat="49.167197" lon="20.037318">
				<ele>2081.000000</ele>
			</trkpt>
			<trkpt lat="49.167209" lon="20.037165">
				<ele>2080.000000</ele>
			</trkpt>
			<trkpt lat="49.167174" lon="20.037094">
				<ele>2081.000000</ele>
			</trkpt>
			<trkpt lat="49.167150" lon="20.037004">
				<ele>2081.000000</ele>
			</trkpt>
			<trkpt lat="49.167103" lon="20.036905">
				<ele>2082.000000</ele>
			</trkpt>
			<trkpt lat="49.167074" lon="20.036824">
				<ele>2082.000000</ele>
			</trkpt>
			<trkpt lat="49.167062" lon="20.036689">
				<ele>2083.000000</ele>
			</trkpt>
			<trkpt lat="49.167091" lon="20.036536">
				<ele>2082.000000</ele>
			</trkpt>
			<trkpt lat="49.167115" lon="20.036383">
				<ele>2083.000000</ele>
			</trkpt>
			<trkpt lat="49.167085" lon="20.036312">
				<ele>2084.000000</ele>
			</trkpt>
			<trkpt lat="49.167103" lon="20.036159">
				<ele>2082.000000</ele>
			</trkpt>
			<trkpt lat="49.167074" lon="20.036060">
				<ele>2083.000000</ele>
			</trkpt>
			<trkpt lat="49.167050" lon="20.035889">
				<ele>2083.000000</ele>
			</trkpt>
			<trkpt lat="49.167015" lon="20.035719">
				<ele>2085.000000</ele>
			</trkpt>
			<trkpt lat="49.166974" lon="20.035610">
				<ele>2086.000000</ele>
			</trkpt>
			<trkpt lat="49.166951" lon="20.035467">
				<ele>2086.000000</ele>
			</trkpt>
			<trkpt lat="49.166985" lon="20.035278">
				<ele>2082.000000</ele>
			</trkpt>
			<trkpt lat="49.166991" lon="20.035188">
				<ele>2080.000000</ele>
			</trkpt>
			<trkpt lat="49.166968" lon="20.035117">
				<ele>2079.000000</ele>
			</trkpt>
			<trkpt lat="49.166997" lon="20.035027">
				<ele>2078.000000</ele>
			</trkpt>
			<trkpt lat="49.167027" lon="20.034991">
				<ele>2078.000000</ele>
			</trkpt>
			<trkpt lat="49.167056" lon="20.034901">
				<ele>2079.000000</ele>
			</trkpt>
			<trkpt lat="49.167109" lon="20.034740">
				<ele>2079.000000</ele>
			</trkpt>
			<trkpt lat="49.167097" lon="20.034560">
				<ele>2082.000000</ele>
			</trkpt>
			<trkpt lat="49.167156" lon="20.034398">
				<ele>2085.000000</ele>
			</trkpt>
			<trkpt lat="49.167168" lon="20.034318">
				<ele>2088.000000</ele>
			</trkpt>
			<trkpt lat="49.167297" lon="20.034209">
				<ele>2092.000000</ele>
			</trkpt>
			<trkpt lat="49.167385" lon="20.034228">
				<ele>2093.000000</ele>
			</trkpt>
			<trkpt lat="49.167543" lon="20.034155">
				<ele>2101.000000</ele>
			</trkpt>
			<trkpt lat="49.167649" lon="20.034029">
				<ele>2108.000000</ele>
			</trkpt>
			<trkpt lat="49.167726" lon="20.033895">
				<ele>2116.000000</ele>
			</trkpt>
			<trkpt lat="49.167761" lon="20.033652">
				<ele>2126.000000</ele>
			</trkpt>
			<trkpt lat="49.167785" lon="20.033536">
				<ele>2132.000000</ele>
			</trkpt>
			<trkpt lat="49.167966" lon="20.033374">
				<ele>2140.000000</ele>
			</trkpt>
			<trkpt lat="49.168184" lon="20.033050">
				<ele>2155.000000</ele>
			</trkpt>
			<trkpt lat="49.168284" lon="20.032960">
				<ele>2159.000000</ele>
			</trkpt>
			<trkpt lat="49.168290" lon="20.032834">
				<ele>2163.000000</ele>
			</trkpt>
			<trkpt lat="49.168237" lon="20.032710">
				<ele>2166.000000</ele>
			</trkpt>
			<trkpt lat="49.168160" lon="20.032547">
				<ele>2171.000000</ele>
			</trkpt>
			<trkpt lat="49.168043" lon="20.032404">
				<ele>2179.000000</ele>
			</trkpt>
			<trkpt lat="49.168002" lon="20.032297">
				<ele>2184.000000</ele>
			</trkpt>
			<trkpt lat="49.167960" lon="20.032161">
				<ele>2189.000000</ele>
			</trkpt>
			<trkpt lat="49.167932" lon="20.032062">
				<ele>2193.000000</ele>
			</trkpt>
			<trkpt lat="49.167955" lon="20.032000">
				<ele>2195.000000</ele>
			</trkpt>
			<trkpt lat="49.168007" lon="20.031918">
				<ele>2196.000000</ele>
			</trkpt>
			<trkpt lat="49.168025" lon="20.031865">
				<ele>2196.000000</ele>
			</trkpt>
			<trkpt lat="49.168019" lon="20.031766">
				<ele>2198.000000</ele>
			</trkpt>
			<trkpt lat="49.167978" lon="20.031658">
				<ele>2200.000000</ele>
			</trkpt>
			<trkpt lat="49.167908" lon="20.031578">
				<ele>2204.000000</ele>
			</trkpt>
			<trkpt lat="49.167855" lon="20.031524">
				<ele>2207.000000</ele>
			</trkpt>
			<trkpt lat="49.167849" lon="20.031496">
				<ele>2207.000000</ele>
			</trkpt>
			<trkpt lat="49.167808" lon="20.031425">
				<ele>2210.000000</ele>
			</trkpt>
			<trkpt lat="49.167732" lon="20.031326">
				<ele>2215.000000</ele>
			</trkpt>
			<trkpt lat="49.167690" lon="20.031272">
				<ele>2218.000000</ele>
			</trkpt>
			<trkpt lat="49.167643" lon="20.031236">
				<ele>2221.000000</ele>
			</trkpt>
			<trkpt lat="49.167602" lon="20.031218">
				<ele>2225.000000</ele>
			</trkpt>
			<trkpt lat="49.167573" lon="20.031173">
				<ele>2227.000000</ele>
			</trkpt>
			<trkpt lat="49.167538" lon="20.031075">
				<ele>2229.000000</ele>
			</trkpt>
			<trkpt lat="49.167468" lon="20.031012">
				<ele>2234.000000</ele>
			</trkpt>
			<trkpt lat="49.167449" lon="20.030949">
				<ele>2235.000000</ele>
			</trkpt>
			<trkpt lat="49.167415" lon="20.030868">
				<ele>2239.000000</ele>
			</trkpt>
			<trkpt lat="49.167379" lon="20.030840">
				<ele>2241.000000</ele>
			</trkpt>
			<trkpt lat="49.167362" lon="20.030787">
				<ele>2243.000000</ele>
			</trkpt>
			<trkpt lat="49.167326" lon="20.030750">
				<ele>2246.000000</ele>
			</trkpt>
			<trkpt lat="49.167309" lon="20.030643">
				<ele>2248.000000</ele>
			</trkpt>
			<trkpt lat="49.167285" lon="20.030526">
				<ele>2251.000000</ele>
			</trkpt>
			<trkpt lat="49.167268" lon="20.030473">
				<ele>2254.000000</ele>
			</trkpt>
			<trkpt lat="49.167256" lon="20.030400">
				<ele>2256.000000</ele>
			</trkpt>
			<trkpt lat="49.167268" lon="20.030310">
				<ele>2260.000000</ele>
			</trkpt>
			<trkpt lat="49.167291" lon="20.030203">
				<ele>2262.000000</ele>
			</trkpt>
			<trkpt lat="49.167309" lon="20.030113">
				<ele>2265.000000</ele>
			</trkpt>
			<trkpt lat="49.167321" lon="20.029871">
				<ele>2273.000000</ele>
			</trkpt>
			<trkpt lat="49.167326" lon="20.029745">
				<ele>2280.000000</ele>
			</trkpt>
			<trkpt lat="49.167303" lon="20.029673">
				<ele>2284.000000</ele>
			</trkpt>
			<trkpt lat="49.167321" lon="20.029637">
				<ele>2286.000000</ele>
			</trkpt>
			<trkpt lat="49.167326" lon="20.029610">
				<ele>2287.000000</ele>
			</trkpt>
			<trkpt lat="49.167309" lon="20.029557">
				<ele>2290.000000</ele>
			</trkpt>
			<trkpt lat="49.167321" lon="20.029475">
				<ele>2294.000000</ele>
			</trkpt>
			<trkpt lat="49.167362" lon="20.029421">
				<ele>2296.000000</ele>
			</trkpt>
			<trkpt lat="49.167391" lon="20.029377">
				<ele>2297.000000</ele>
			</trkpt>
			<trkpt lat="49.167385" lon="20.029305">
				<ele>2300.000000</ele>
			</trkpt>
			<trkpt lat="49.167338" lon="20.029287">
				<ele>2303.000000</ele>
			</trkpt>
			<trkpt lat="49.167303" lon="20.029305">
				<ele>2303.000000</ele>
			</trkpt>
			<trkpt lat="49.167209" lon="20.029341">
				<ele>2302.000000</ele>
			</trkpt>
			<trkpt lat="49.167127" lon="20.029368">
				<ele>2305.000000</ele>
			</trkpt>
			<trkpt lat="49.167068" lon="20.029440">
				<ele>2306.000000</ele>
			</trkpt>
			<trkpt lat="49.167032" lon="20.029484">
				<ele>2307.000000</ele>
			</trkpt>
			<trkpt lat="49.166974" lon="20.029502">
				<ele>2313.000000</ele>
			</trkpt>
			<trkpt lat="49.166909" lon="20.029467">
				<ele>2317.000000</ele>
			</trkpt>
			<trkpt lat="49.166898" lon="20.029467">
				<ele>2316.000000</ele>
			</trkpt>
			<trkpt lat="49.166862" lon="20.029431">
				<ele>2312.000000</ele>
			</trkpt>
			<trkpt lat="49.166851" lon="20.029341">
				<ele>2306.000000</ele>
			</trkpt>
			<trkpt lat="49.166880" lon="20.029215">
				<ele>2303.000000</ele>
			</trkpt>
			<trkpt lat="49.166868" lon="20.029179">
				<ele>2301.000000</ele>
			</trkpt>
			<trkpt lat="49.166851" lon="20.029089">
				<ele>2296.000000</ele>
			</trkpt>
			<trkpt lat="49.166845" lon="20.029035">
				<ele>2294.000000</ele>
			</trkpt>
			<trkpt lat="49.166851" lon="20.029035">
				<ele>2295.000000</ele>
			</trkpt>
			<trkpt lat="49.166862" lon="20.029008">
				<ele>2295.000000</ele>
			</trkpt>
			<trkpt lat="49.166862" lon="20.028964">
				<ele>2293.000000</ele>
			</trkpt>
			<trkpt lat="49.166833" lon="20.028882">
				<ele>2288.000000</ele>
			</trkpt>
			<trkpt lat="49.166780" lon="20.028892">
				<ele>2284.000000</ele>
			</trkpt>
			<trkpt lat="49.166721" lon="20.028874">
				<ele>2280.000000</ele>
			</trkpt>
			<trkpt lat="49.166698" lon="20.028838">
				<ele>2277.000000</ele>
			</trkpt>
			<trkpt lat="49.166668" lon="20.028784">
				<ele>2273.000000</ele>
			</trkpt>
			<trkpt lat="49.166610" lon="20.028702">
				<ele>2267.000000</ele>
			</trkpt>
			<trkpt lat="49.166557" lon="20.028639">
				<ele>2261.000000</ele>
			</trkpt>
			<trkpt lat="49.166516" lon="20.028595">
				<ele>2257.000000</ele>
			</trkpt>
			<trkpt lat="49.166474" lon="20.028559">
				<ele>2253.000000</ele>
			</trkpt>
			<trkpt lat="49.166451" lon="20.028460">
				<ele>2248.000000</ele>
			</trkpt>
			<trkpt lat="49.166463" lon="20.028343">
				<ele>2244.000000</ele>
			</trkpt>
			<trkpt lat="49.166463" lon="20.028245">
				<ele>2241.000000</ele>
			</trkpt>
			<trkpt lat="49.166445" lon="20.028163">
				<ele>2237.000000</ele>
			</trkpt>
			<trkpt lat="49.166398" lon="20.028137">
				<ele>2234.000000</ele>
			</trkpt>
			<trkpt lat="49.166340" lon="20.028155">
				<ele>2232.000000</ele>
			</trkpt>
			<trkpt lat="49.166257" lon="20.028155">
				<ele>2229.000000</ele>
			</trkpt>
			<trkpt lat="49.166234" lon="20.028073">
				<ele>2226.000000</ele>
			</trkpt>
			<trkpt lat="49.166228" lon="20.027984">
				<ele>2223.000000</ele>
			</trkpt>
			<trkpt lat="49.166269" lon="20.027876">
				<ele>2222.000000</ele>
			</trkpt>
			<trkpt lat="49.166281" lon="20.027840">
				<ele>2222.000000</ele>
			</trkpt>
			<trkpt lat="49.166257" lon="20.027769">
				<ele>2219.000000</ele>
			</trkpt>
			<trkpt lat="49.166222" lon="20.027714">
				<ele>2217.000000</ele>
			</trkpt>
			<trkpt lat="49.166163" lon="20.027616">
				<ele>2214.000000</ele>
			</trkpt>
			<trkpt lat="49.166093" lon="20.027634">
				<ele>2212.000000</ele>
			</trkpt>
			<trkpt lat="49.166057" lon="20.027670">
				<ele>2211.000000</ele>
			</trkpt>
			<trkpt lat="49.165976" lon="20.027760">
				<ele>2206.000000</ele>
			</trkpt>
			<trkpt lat="49.165910" lon="20.027894">
				<ele>2201.000000</ele>
			</trkpt>
			<trkpt lat="49.165793" lon="20.027984">
				<ele>2195.000000</ele>
			</trkpt>
			<trkpt lat="49.165723" lon="20.028056">
				<ele>2194.000000</ele>
			</trkpt>
			<trkpt lat="49.165646" lon="20.028065">
				<ele>2192.000000</ele>
			</trkpt>
			<trkpt lat="49.165452" lon="20.028092">
				<ele>2187.000000</ele>
			</trkpt>
			<trkpt lat="49.165376" lon="20.028173">
				<ele>2189.000000</ele>
			</trkpt>
			<trkpt lat="49.165247" lon="20.028263">
				<ele>2186.000000</ele>
			</trkpt>
			<trkpt lat="49.165106" lon="20.028415">
				<ele>2187.000000</ele>
			</trkpt>
			<trkpt lat="49.165029" lon="20.028460">
				<ele>2187.000000</ele>
			</trkpt>
			<trkpt lat="49.164988" lon="20.028452">
				<ele>2185.000000</ele>
			</trkpt>
			<trkpt lat="49.164929" lon="20.028542">
				<ele>2186.000000</ele>
			</trkpt>
			<trkpt lat="49.164836" lon="20.028559">
				<ele>2183.000000</ele>
			</trkpt>
			<trkpt lat="49.164707" lon="20.028568">
				<ele>2181.000000</ele>
			</trkpt>
			<trkpt lat="49.164565" lon="20.028523">
				<ele>2177.000000</ele>
			</trkpt>
			<trkpt lat="49.164448" lon="20.028479">
				<ele>2175.000000</ele>
			</trkpt>
			<trkpt lat="49.164313" lon="20.028398">
				<ele>2174.000000</ele>
			</trkpt>
			<trkpt lat="49.164166" lon="20.028362">
				<ele>2174.000000</ele>
			</trkpt>
			<trkpt lat="49.164072" lon="20.028173">
				<ele>2169.000000</ele>
			</trkpt>
			<trkpt lat="49.163920" lon="20.028119">
				<ele>2168.000000</ele>
			</trkpt>
			<trkpt lat="49.163861" lon="20.028073">
				<ele>2167.000000</ele>
			</trkpt>
			<trkpt lat="49.163849" lon="20.028065">
				<ele>2167.000000</ele>
			</trkpt>
			<trkpt lat="49.163778" lon="20.028020">
				<ele>2166.000000</ele>
			</trkpt>
			<trkpt lat="49.163714" lon="20.028020">
				<ele>2167.000000</ele>
			</trkpt>
			<trkpt lat="49.163655" lon="20.027993">
				<ele>2167.000000</ele>
			</trkpt>
			<trkpt lat="49.163556" lon="20.027966">
				<ele>2169.000000</ele>
			</trkpt>
			<trkpt lat="49.163409" lon="20.027949">
				<ele>2171.000000</ele>
			</trkpt>
			<trkpt lat="49.163320" lon="20.027930">
				<ele>2171.000000</ele>
			</trkpt>
			<trkpt lat="49.163244" lon="20.027850">
				<ele>2172.000000</ele>
			</trkpt>
			<trkpt lat="49.163156" lon="20.027840">
				<ele>2176.000000</ele>
			</trkpt>
			<trkpt lat="49.163073" lon="20.027796">
				<ele>2177.000000</ele>
			</trkpt>
			<trkpt lat="49.162992" lon="20.027786">
				<ele>2178.000000</ele>
			</trkpt>
			<trkpt lat="49.162880" lon="20.027850">
				<ele>2179.000000</ele>
			</trkpt>
			<trkpt lat="49.162821" lon="20.027850">
				<ele>2178.000000</ele>
			</trkpt>
			<trkpt lat="49.162715" lon="20.027867">
				<ele>2176.000000</ele>
			</trkpt>
			<trkpt lat="49.162639" lon="20.027832">
				<ele>2177.000000</ele>
			</trkpt>
			<trkpt lat="49.162586" lon="20.027850">
				<ele>2177.000000</ele>
			</trkpt>
			<trkpt lat="49.162509" lon="20.027984">
				<ele>2176.000000</ele>
			</trkpt>
			<trkpt lat="49.162469" lon="20.028010">
				<ele>2175.000000</ele>
			</trkpt>
			<trkpt lat="49.162386" lon="20.028002">
				<ele>2172.000000</ele>
			</trkpt>
			<trkpt lat="49.162292" lon="20.027976">
				<ele>2169.000000</ele>
			</trkpt>
			<trkpt lat="49.162216" lon="20.027966">
				<ele>2167.000000</ele>
			</trkpt>
			<trkpt lat="49.162110" lon="20.027957">
				<ele>2164.000000</ele>
			</trkpt>
			<trkpt lat="49.162075" lon="20.027976">
				<ele>2162.000000</ele>
			</trkpt>
			<trkpt lat="49.162034" lon="20.027876">
				<ele>2160.000000</ele>
			</trkpt>
			<trkpt lat="49.162005" lon="20.027832">
				<ele>2157.000000</ele>
			</trkpt>
			<trkpt lat="49.161975" lon="20.027723">
				<ele>2154.000000</ele>
			</trkpt>
			<trkpt lat="49.161922" lon="20.027634">
				<ele>2150.000000</ele>
			</trkpt>
			<trkpt lat="49.161916" lon="20.027563">
				<ele>2149.000000</ele>
			</trkpt>
			<trkpt lat="49.161840" lon="20.027634">
				<ele>2145.000000</ele>
			</trkpt>
			<trkpt lat="49.161740" lon="20.027652">
				<ele>2140.000000</ele>
			</trkpt>
			<trkpt lat="49.161711" lon="20.027607">
				<ele>2137.000000</ele>
			</trkpt>
			<trkpt lat="49.161575" lon="20.027687">
				<ele>2132.000000</ele>
			</trkpt>
			<trkpt lat="49.161417" lon="20.027813">
				<ele>2126.000000</ele>
			</trkpt>
			<trkpt lat="49.161253" lon="20.027930">
				<ele>2126.000000</ele>
			</trkpt>
			<trkpt lat="49.161170" lon="20.027913">
				<ele>2123.000000</ele>
			</trkpt>
			<trkpt lat="49.160936" lon="20.027813">
				<ele>2113.000000</ele>
			</trkpt>
			<trkpt lat="49.160853" lon="20.027804">
				<ele>2111.000000</ele>
			</trkpt>
			<trkpt lat="49.160771" lon="20.027832">
				<ele>2109.000000</ele>
			</trkpt>
			<trkpt lat="49.160712" lon="20.027840">
				<ele>2107.000000</ele>
			</trkpt>
			<trkpt lat="49.160659" lon="20.027823">
				<ele>2104.000000</ele>
			</trkpt>
			<trkpt lat="49.160606" lon="20.027706">
				<ele>2099.000000</ele>
			</trkpt>
			<trkpt lat="49.160571" lon="20.027714">
				<ele>2098.000000</ele>
			</trkpt>
			<trkpt lat="49.160553" lon="20.027643">
				<ele>2095.000000</ele>
			</trkpt>
			<trkpt lat="49.160500" lon="20.027597">
				<ele>2093.000000</ele>
			</trkpt>
			<trkpt lat="49.160530" lon="20.027534">
				<ele>2092.000000</ele>
			</trkpt>
			<trkpt lat="49.160571" lon="20.027490">
				<ele>2092.000000</ele>
			</trkpt>
			<trkpt lat="49.160553" lon="20.027373">
				<ele>2089.000000</ele>
			</trkpt>
			<trkpt lat="49.160518" lon="20.027320">
				<ele>2087.000000</ele>
			</trkpt>
			<trkpt lat="49.160489" lon="20.027310">
				<ele>2086.000000</ele>
			</trkpt>
			<trkpt lat="49.160401" lon="20.027347">
				<ele>2084.000000</ele>
			</trkpt>
			<trkpt lat="49.160354" lon="20.027373">
				<ele>2083.000000</ele>
			</trkpt>
			<trkpt lat="49.160154" lon="20.027337">
				<ele>2079.000000</ele>
			</trkpt>
			<trkpt lat="49.160054" lon="20.027436">
				<ele>2080.000000</ele>
			</trkpt>
			<trkpt lat="49.159855" lon="20.027410">
				<ele>2077.000000</ele>
			</trkpt>
			<trkpt lat="49.159749" lon="20.027356">
				<ele>2074.000000</ele>
			</trkpt>
			<trkpt lat="49.159696" lon="20.027356">
				<ele>2073.000000</ele>
			</trkpt>
			<trkpt lat="49.159602" lon="20.027373">
				<ele>2073.000000</ele>
			</trkpt>
			<trkpt lat="49.159525" lon="20.027301">
				<ele>2069.000000</ele>
			</trkpt>
			<trkpt lat="49.159385" lon="20.027328">
				<ele>2067.000000</ele>
			</trkpt>
			<trkpt lat="49.159296" lon="20.027266">
				<ele>2066.000000</ele>
			</trkpt>
			<trkpt lat="49.159191" lon="20.027230">
				<ele>2064.000000</ele>
			</trkpt>
			<trkpt lat="49.159167" lon="20.027247">
				<ele>2065.000000</ele>
			</trkpt>
			<trkpt lat="49.159085" lon="20.027230">
				<ele>2064.000000</ele>
			</trkpt>
			<trkpt lat="49.158996" lon="20.027274">
				<ele>2065.000000</ele>
			</trkpt>
			<trkpt lat="49.158944" lon="20.027454">
				<ele>2067.000000</ele>
			</trkpt>
			<trkpt lat="49.158885" lon="20.027463">
				<ele>2067.000000</ele>
			</trkpt>
			<trkpt lat="49.158809" lon="20.027526">
				<ele>2067.000000</ele>
			</trkpt>
			<trkpt lat="49.158797" lon="20.027616">
				<ele>2068.000000</ele>
			</trkpt>
			<trkpt lat="49.158750" lon="20.027670">
				<ele>2068.000000</ele>
			</trkpt>
			<trkpt lat="49.158709" lon="20.027679">
				<ele>2068.000000</ele>
			</trkpt>
			<trkpt lat="49.158668" lon="20.027742">
				<ele>2069.000000</ele>
			</trkpt>
			<trkpt lat="49.158621" lon="20.027859">
				<ele>2070.000000</ele>
			</trkpt>
			<trkpt lat="49.158568" lon="20.027867">
				<ele>2069.000000</ele>
			</trkpt>
			<trkpt lat="49.158468" lon="20.027832">
				<ele>2068.000000</ele>
			</trkpt>
			<trkpt lat="49.158398" lon="20.027903">
				<ele>2068.000000</ele>
			</trkpt>
			<trkpt lat="49.158345" lon="20.027957">
				<ele>2067.000000</ele>
			</trkpt>
			<trkpt lat="49.158262" lon="20.027949">
				<ele>2065.000000</ele>
			</trkpt>
			<trkpt lat="49.158162" lon="20.027859">
				<ele>2063.000000</ele>
			</trkpt>
			<trkpt lat="49.158051" lon="20.027867">
				<ele>2061.000000</ele>
			</trkpt>
			<trkpt lat="49.157934" lon="20.027894">
				<ele>2059.000000</ele>
			</trkpt>
			<trkpt lat="49.157892" lon="20.027922">
				<ele>2059.000000</ele>
			</trkpt>
			<trkpt lat="49.157769" lon="20.028010">
				<ele>2059.000000</ele>
			</trkpt>
			<trkpt lat="49.157687" lon="20.028029">
				<ele>2057.000000</ele>
			</trkpt>
			<trkpt lat="49.157598" lon="20.028146">
				<ele>2055.000000</ele>
			</trkpt>
			<trkpt lat="49.157540" lon="20.028146">
				<ele>2053.000000</ele>
			</trkpt>
			<trkpt lat="49.157493" lon="20.028226">
				<ele>2053.000000</ele>
			</trkpt>
			<trkpt lat="49.157458" lon="20.028245">
				<ele>2052.000000</ele>
			</trkpt>
			<trkpt lat="49.157358" lon="20.028245">
				<ele>2048.000000</ele>
			</trkpt>
			<trkpt lat="49.157299" lon="20.028226">
				<ele>2045.000000</ele>
			</trkpt>
			<trkpt lat="49.157252" lon="20.028308">
				<ele>2046.000000</ele>
			</trkpt>
			<trkpt lat="49.157099" lon="20.028415">
				<ele>2042.000000</ele>
			</trkpt>
			<trkpt lat="49.157040" lon="20.028479">
				<ele>2042.000000</ele>
			</trkpt>
			<trkpt lat="49.156911" lon="20.028488">
				<ele>2038.000000</ele>
			</trkpt>
			<trkpt lat="49.156835" lon="20.028479">
				<ele>2037.000000</ele>
			</trkpt>
			<trkpt lat="49.156800" lon="20.028433">
				<ele>2034.000000</ele>
			</trkpt>
			<trkpt lat="49.156753" lon="20.028425">
				<ele>2033.000000</ele>
			</trkpt>
			<trkpt lat="49.156717" lon="20.028379">
				<ele>2031.000000</ele>
			</trkpt>
			<trkpt lat="49.156653" lon="20.028379">
				<ele>2029.000000</ele>
			</trkpt>
			<trkpt lat="49.156564" lon="20.028415">
				<ele>2026.000000</ele>
			</trkpt>
			<trkpt lat="49.156517" lon="20.028362">
				<ele>2023.000000</ele>
			</trkpt>
			<trkpt lat="49.156470" lon="20.028343">
				<ele>2021.000000</ele>
			</trkpt>
			<trkpt lat="49.156377" lon="20.028425">
				<ele>2019.000000</ele>
			</trkpt>
			<trkpt lat="49.156289" lon="20.028406">
				<ele>2016.000000</ele>
			</trkpt>
			<trkpt lat="49.156212" lon="20.028370">
				<ele>2013.000000</ele>
			</trkpt>
			<trkpt lat="49.156136" lon="20.028335">
				<ele>2009.000000</ele>
			</trkpt>
			<trkpt lat="49.156065" lon="20.028442">
				<ele>2006.000000</ele>
			</trkpt>
			<trkpt lat="49.156000" lon="20.028605">
				<ele>2003.000000</ele>
			</trkpt>
			<trkpt lat="49.155959" lon="20.028666">
				<ele>2000.000000</ele>
			</trkpt>
			<trkpt lat="49.155900" lon="20.028586">
				<ele>1997.000000</ele>
			</trkpt>
			<trkpt lat="49.155836" lon="20.028631">
				<ele>1994.000000</ele>
			</trkpt>
			<trkpt lat="49.155736" lon="20.028676">
				<ele>1987.000000</ele>
			</trkpt>
			<trkpt lat="49.155707" lon="20.028685">
				<ele>1985.000000</ele>
			</trkpt>
			<trkpt lat="49.155619" lon="20.028721">
				<ele>1979.000000</ele>
			</trkpt>
			<trkpt lat="49.155560" lon="20.028784">
				<ele>1978.000000</ele>
			</trkpt>
			<trkpt lat="49.155460" lon="20.028802">
				<ele>1973.000000</ele>
			</trkpt>
			<trkpt lat="49.155407" lon="20.028802">
				<ele>1970.000000</ele>
			</trkpt>
			<trkpt lat="49.155366" lon="20.028792">
				<ele>1968.000000</ele>
			</trkpt>
			<trkpt lat="49.155260" lon="20.028819">
				<ele>1963.000000</ele>
			</trkpt>
			<trkpt lat="49.155207" lon="20.028892">
				<ele>1964.000000</ele>
			</trkpt>
			<trkpt lat="49.155043" lon="20.028964">
				<ele>1958.000000</ele>
			</trkpt>
			<trkpt lat="49.154949" lon="20.028999">
				<ele>1955.000000</ele>
			</trkpt>
			<trkpt lat="49.154890" lon="20.029026">
				<ele>1953.000000</ele>
			</trkpt>
			<trkpt lat="49.154761" lon="20.029054">
				<ele>1949.000000</ele>
			</trkpt>
			<trkpt lat="49.154643" lon="20.029044">
				<ele>1944.000000</ele>
			</trkpt>
			<trkpt lat="49.154602" lon="20.029071">
				<ele>1943.000000</ele>
			</trkpt>
			<trkpt lat="49.154567" lon="20.029062">
				<ele>1942.000000</ele>
			</trkpt>
			<trkpt lat="49.154496" lon="20.029035">
				<ele>1940.000000</ele>
			</trkpt>
			<trkpt lat="49.154455" lon="20.028991">
				<ele>1938.000000</ele>
			</trkpt>
			<trkpt lat="49.154391" lon="20.028972">
				<ele>1936.000000</ele>
			</trkpt>
			<trkpt lat="49.154268" lon="20.029089">
				<ele>1936.000000</ele>
			</trkpt>
			<trkpt lat="49.154232" lon="20.029062">
				<ele>1935.000000</ele>
			</trkpt>
			<trkpt lat="49.154191" lon="20.029071">
				<ele>1935.000000</ele>
			</trkpt>
			<trkpt lat="49.154126" lon="20.029026">
				<ele>1933.000000</ele>
			</trkpt>
			<trkpt lat="49.154091" lon="20.028909">
				<ele>1931.000000</ele>
			</trkpt>
			<trkpt lat="49.153938" lon="20.028846">
				<ele>1928.000000</ele>
			</trkpt>
			<trkpt lat="49.153862" lon="20.028775">
				<ele>1925.000000</ele>
			</trkpt>
			<trkpt lat="49.153762" lon="20.028622">
				<ele>1921.000000</ele>
			</trkpt>
			<trkpt lat="49.153745" lon="20.028613">
				<ele>1920.000000</ele>
			</trkpt>
			<trkpt lat="49.153645" lon="20.028523">
				<ele>1916.000000</ele>
			</trkpt>
			<trkpt lat="49.153551" lon="20.028433">
				<ele>1913.000000</ele>
			</trkpt>
			<trkpt lat="49.153474" lon="20.028389">
				<ele>1911.000000</ele>
			</trkpt>
			<trkpt lat="49.153409" lon="20.028370">
				<ele>1908.000000</ele>
			</trkpt>
			<trkpt lat="49.153328" lon="20.028362">
				<ele>1906.000000</ele>
			</trkpt>
			<trkpt lat="49.153292" lon="20.028343">
				<ele>1905.000000</ele>
			</trkpt>
			<trkpt lat="49.153245" lon="20.028362">
				<ele>1905.000000</ele>
			</trkpt>
			<trkpt lat="49.153181" lon="20.028370">
				<ele>1904.000000</ele>
			</trkpt>
			<trkpt lat="49.153116" lon="20.028343">
				<ele>1903.000000</ele>
			</trkpt>
			<trkpt lat="49.153069" lon="20.028362">
				<ele>1902.000000</ele>
			</trkpt>
			<trkpt lat="49.152987" lon="20.028415">
				<ele>1898.000000</ele>
			</trkpt>
			<trkpt lat="49.152892" lon="20.028469">
				<ele>1893.000000</ele>
			</trkpt>
			<trkpt lat="49.152811" lon="20.028523">
				<ele>1892.000000</ele>
			</trkpt>
			<trkpt lat="49.152787" lon="20.028488">
				<ele>1890.000000</ele>
			</trkpt>
			<trkpt lat="49.152787" lon="20.028433">
				<ele>1888.000000</ele>
			</trkpt>
			<trkpt lat="49.152834" lon="20.028352">
				<ele>1887.000000</ele>
			</trkpt>
			<trkpt lat="49.152851" lon="20.028308">
				<ele>1887.000000</ele>
			</trkpt>
			<trkpt lat="49.152781" lon="20.028308">
				<ele>1883.000000</ele>
			</trkpt>
			<trkpt lat="49.152758" lon="20.028299">
				<ele>1882.000000</ele>
			</trkpt>
			<trkpt lat="49.152675" lon="20.028335">
				<ele>1880.000000</ele>
			</trkpt>
			<trkpt lat="49.152599" lon="20.028379">
				<ele>1878.000000</ele>
			</trkpt>
			<trkpt lat="49.152511" lon="20.028496">
				<ele>1875.000000</ele>
			</trkpt>
			<trkpt lat="49.152493" lon="20.028352">
				<ele>1871.000000</ele>
			</trkpt>
			<trkpt lat="49.152499" lon="20.028236">
				<ele>1869.000000</ele>
			</trkpt>
			<trkpt lat="49.152446" lon="20.028272">
				<ele>1867.000000</ele>
			</trkpt>
			<trkpt lat="49.152405" lon="20.028316">
				<ele>1866.000000</ele>
			</trkpt>
			<trkpt lat="49.152370" lon="20.028433">
				<ele>1867.000000</ele>
			</trkpt>
			<trkpt lat="49.152346" lon="20.028532">
				<ele>1866.000000</ele>
			</trkpt>
			<trkpt lat="49.152299" lon="20.028559">
				<ele>1863.000000</ele>
			</trkpt>
			<trkpt lat="49.152328" lon="20.028335">
				<ele>1863.000000</ele>
			</trkpt>
			<trkpt lat="49.152222" lon="20.028326">
				<ele>1861.000000</ele>
			</trkpt>
			<trkpt lat="49.152182" lon="20.028362">
				<ele>1861.000000</ele>
			</trkpt>
			<trkpt lat="49.152076" lon="20.028362">
				<ele>1862.000000</ele>
			</trkpt>
			<trkpt lat="49.152041" lon="20.028343">
				<ele>1861.000000</ele>
			</trkpt>
			<trkpt lat="49.151941" lon="20.028335">
				<ele>1859.000000</ele>
			</trkpt>
			<trkpt lat="49.151905" lon="20.028362">
				<ele>1858.000000</ele>
			</trkpt>
			<trkpt lat="49.151858" lon="20.028362">
				<ele>1857.000000</ele>
			</trkpt>
			<trkpt lat="49.151758" lon="20.028496">
				<ele>1853.000000</ele>
			</trkpt>
			<trkpt lat="49.151741" lon="20.028542">
				<ele>1852.000000</ele>
			</trkpt>
			<trkpt lat="49.151741" lon="20.028586">
				<ele>1852.000000</ele>
			</trkpt>
			<trkpt lat="49.151729" lon="20.028649">
				<ele>1851.000000</ele>
			</trkpt>
			<trkpt lat="49.151706" lon="20.028666">
				<ele>1851.000000</ele>
			</trkpt>
			<trkpt lat="49.151635" lon="20.028658">
				<ele>1849.000000</ele>
			</trkpt>
			<trkpt lat="49.151571" lon="20.028775">
				<ele>1846.000000</ele>
			</trkpt>
			<trkpt lat="49.151541" lon="20.028811">
				<ele>1845.000000</ele>
			</trkpt>
			<trkpt lat="49.151465" lon="20.028819">
				<ele>1844.000000</ele>
			</trkpt>
			<trkpt lat="49.151324" lon="20.028838">
				<ele>1845.000000</ele>
			</trkpt>
			<trkpt lat="49.151254" lon="20.028855">
				<ele>1844.000000</ele>
			</trkpt>
			<trkpt lat="49.151183" lon="20.028901">
				<ele>1844.000000</ele>
			</trkpt>
			<trkpt lat="49.151118" lon="20.028964">
				<ele>1845.000000</ele>
			</trkpt>
			<trkpt lat="49.151048" lon="20.029054">
				<ele>1846.000000</ele>
			</trkpt>
			<trkpt lat="49.150824" lon="20.029268">
				<ele>1848.000000</ele>
			</trkpt>
			<trkpt lat="49.150783" lon="20.029314">
				<ele>1848.000000</ele>
			</trkpt>
			<trkpt lat="49.150718" lon="20.029358">
				<ele>1849.000000</ele>
			</trkpt>
			<trkpt lat="49.150595" lon="20.029448">
				<ele>1850.000000</ele>
			</trkpt>
			<trkpt lat="49.150507" lon="20.029547">
				<ele>1850.000000</ele>
			</trkpt>
			<trkpt lat="49.150407" lon="20.029618">
				<ele>1850.000000</ele>
			</trkpt>
			<trkpt lat="49.150243" lon="20.029745">
				<ele>1849.000000</ele>
			</trkpt>
			<trkpt lat="49.150114" lon="20.029790">
				<ele>1848.000000</ele>
			</trkpt>
			<trkpt lat="49.149996" lon="20.029924">
				<ele>1848.000000</ele>
			</trkpt>
			<trkpt lat="49.149937" lon="20.029960">
				<ele>1847.000000</ele>
			</trkpt>
			<trkpt lat="49.149843" lon="20.030041">
				<ele>1846.000000</ele>
			</trkpt>
			<trkpt lat="49.149802" lon="20.030077">
				<ele>1846.000000</ele>
			</trkpt>
			<trkpt lat="49.149737" lon="20.030113">
				<ele>1845.000000</ele>
			</trkpt>
			<trkpt lat="49.149638" lon="20.030158">
				<ele>1843.000000</ele>
			</trkpt>
			<trkpt lat="49.149573" lon="20.030213">
				<ele>1842.000000</ele>
			</trkpt>
			<trkpt lat="49.149414" lon="20.030329">
				<ele>1840.000000</ele>
			</trkpt>
			<trkpt lat="49.149273" lon="20.030410">
				<ele>1838.000000</ele>
			</trkpt>
			<trkpt lat="49.149203" lon="20.030463">
				<ele>1836.000000</ele>
			</trkpt>
			<trkpt lat="49.149132" lon="20.030482">
				<ele>1836.000000</ele>
			</trkpt>
			<trkpt lat="49.149062" lon="20.030473">
				<ele>1834.000000</ele>
			</trkpt>
			<trkpt lat="49.148938" lon="20.030427">
				<ele>1832.000000</ele>
			</trkpt>
			<trkpt lat="49.148833" lon="20.030356">
				<ele>1829.000000</ele>
			</trkpt>
			<trkpt lat="49.148809" lon="20.030274">
				<ele>1827.000000</ele>
			</trkpt>
			<trkpt lat="49.148768" lon="20.030310">
				<ele>1825.000000</ele>
			</trkpt>
			<trkpt lat="49.148697" lon="20.030274">
				<ele>1821.000000</ele>
			</trkpt>
			<trkpt lat="49.148604" lon="20.030284">
				<ele>1818.000000</ele>
			</trkpt>
			<trkpt lat="49.148474" lon="20.030302">
				<ele>1815.000000</ele>
			</trkpt>
			<trkpt lat="49.148427" lon="20.030364">
				<ele>1814.000000</ele>
			</trkpt>
			<trkpt lat="49.148386" lon="20.030347">
				<ele>1813.000000</ele>
			</trkpt>
			<trkpt lat="49.148357" lon="20.030293">
				<ele>1812.000000</ele>
			</trkpt>
			<trkpt lat="49.148286" lon="20.030247">
				<ele>1810.000000</ele>
			</trkpt>
			<trkpt lat="49.148233" lon="20.030284">
				<ele>1809.000000</ele>
			</trkpt>
			<trkpt lat="49.148151" lon="20.030419">
				<ele>1808.000000</ele>
			</trkpt>
			<trkpt lat="49.148092" lon="20.030454">
				<ele>1807.000000</ele>
			</trkpt>
			<trkpt lat="49.148040" lon="20.030473">
				<ele>1806.000000</ele>
			</trkpt>
			<trkpt lat="49.147987" lon="20.030536">
				<ele>1805.000000</ele>
			</trkpt>
			<trkpt lat="49.147945" lon="20.030670">
				<ele>1805.000000</ele>
			</trkpt>
			<trkpt lat="49.147910" lon="20.030706">
				<ele>1804.000000</ele>
			</trkpt>
			<trkpt lat="49.147793" lon="20.030813">
				<ele>1801.000000</ele>
			</trkpt>
			<trkpt lat="49.147740" lon="20.030778">
				<ele>1800.000000</ele>
			</trkpt>
			<trkpt lat="49.147663" lon="20.030922">
				<ele>1799.000000</ele>
			</trkpt>
			<trkpt lat="49.147616" lon="20.030913">
				<ele>1797.000000</ele>
			</trkpt>
			<trkpt lat="49.147575" lon="20.030949">
				<ele>1797.000000</ele>
			</trkpt>
			<trkpt lat="49.147528" lon="20.030939">
				<ele>1795.000000</ele>
			</trkpt>
			<trkpt lat="49.147475" lon="20.030895">
				<ele>1794.000000</ele>
			</trkpt>
			<trkpt lat="49.147446" lon="20.030913">
				<ele>1794.000000</ele>
			</trkpt>
			<trkpt lat="49.147422" lon="20.030966">
				<ele>1794.000000</ele>
			</trkpt>
			<trkpt lat="49.147317" lon="20.031002">
				<ele>1791.000000</ele>
			</trkpt>
			<trkpt lat="49.147270" lon="20.031056">
				<ele>1791.000000</ele>
			</trkpt>
			<trkpt lat="49.147158" lon="20.031092">
				<ele>1789.000000</ele>
			</trkpt>
			<trkpt lat="49.147128" lon="20.031146">
				<ele>1789.000000</ele>
			</trkpt>
			<trkpt lat="49.147058" lon="20.031138">
				<ele>1787.000000</ele>
			</trkpt>
			<trkpt lat="49.146975" lon="20.031218">
				<ele>1786.000000</ele>
			</trkpt>
			<trkpt lat="49.146928" lon="20.031281">
				<ele>1785.000000</ele>
			</trkpt>
			<trkpt lat="49.146858" lon="20.031245">
				<ele>1783.000000</ele>
			</trkpt>
			<trkpt lat="49.146835" lon="20.031272">
				<ele>1782.000000</ele>
			</trkpt>
			<trkpt lat="49.146776" lon="20.031289">
				<ele>1780.000000</ele>
			</trkpt>
			<trkpt lat="49.146641" lon="20.031452">
				<ele>1779.000000</ele>
			</trkpt>
			<trkpt lat="49.146570" lon="20.031505">
				<ele>1777.000000</ele>
			</trkpt>
			<trkpt lat="49.146430" lon="20.031622">
				<ele>1773.000000</ele>
			</trkpt>
			<trkpt lat="49.146330" lon="20.031731">
				<ele>1771.000000</ele>
			</trkpt>
			<trkpt lat="49.146265" lon="20.031766">
				<ele>1769.000000</ele>
			</trkpt>
			<trkpt lat="49.146230" lon="20.031802">
				<ele>1769.000000</ele>
			</trkpt>
			<trkpt lat="49.146230" lon="20.031855">
				<ele>1770.000000</ele>
			</trkpt>
			<trkpt lat="49.146200" lon="20.031945">
				<ele>1771.000000</ele>
			</trkpt>
			<trkpt lat="49.146200" lon="20.031981">
				<ele>1772.000000</ele>
			</trkpt>
			<trkpt lat="49.146247" lon="20.032027">
				<ele>1775.000000</ele>
			</trkpt>
			<trkpt lat="49.146253" lon="20.032090">
				<ele>1777.000000</ele>
			</trkpt>
			<trkpt lat="49.146224" lon="20.032224">
				<ele>1776.000000</ele>
			</trkpt>
			<trkpt lat="49.146218" lon="20.032331">
				<ele>1774.000000</ele>
			</trkpt>
			<trkpt lat="49.146241" lon="20.032440">
				<ele>1774.000000</ele>
			</trkpt>
			<trkpt lat="49.146271" lon="20.032574">
				<ele>1774.000000</ele>
			</trkpt>
			<trkpt lat="49.146288" lon="20.032683">
				<ele>1774.000000</ele>
			</trkpt>
			<trkpt lat="49.146277" lon="20.032781">
				<ele>1773.000000</ele>
			</trkpt>
			<trkpt lat="49.146265" lon="20.032844">
				<ele>1772.000000</ele>
			</trkpt>
			<trkpt lat="49.146300" lon="20.032924">
				<ele>1773.000000</ele>
			</trkpt>
			<trkpt lat="49.146382" lon="20.033014">
				<ele>1775.000000</ele>
			</trkpt>
			<trkpt lat="49.146411" lon="20.033132">
				<ele>1775.000000</ele>
			</trkpt>
			<trkpt lat="49.146458" lon="20.033329">
				<ele>1776.000000</ele>
			</trkpt>
			<trkpt lat="49.146458" lon="20.033490">
				<ele>1775.000000</ele>
			</trkpt>
			<trkpt lat="49.146424" lon="20.033716">
				<ele>1774.000000</ele>
			</trkpt>
			<trkpt lat="49.146418" lon="20.033886">
				<ele>1775.000000</ele>
			</trkpt>
			<trkpt lat="49.146394" lon="20.033966">
				<ele>1775.000000</ele>
			</trkpt>
			<trkpt lat="49.146335" lon="20.034138">
				<ele>1774.000000</ele>
			</trkpt>
			<trkpt lat="49.146347" lon="20.034228">
				<ele>1775.000000</ele>
			</trkpt>
			<trkpt lat="49.146341" lon="20.034272">
				<ele>1775.000000</ele>
			</trkpt>
			<trkpt lat="49.146288" lon="20.034532">
				<ele>1774.000000</ele>
			</trkpt>
			<trkpt lat="49.146241" lon="20.034704">
				<ele>1776.000000</ele>
			</trkpt>
			<trkpt lat="49.146194" lon="20.034784">
				<ele>1777.000000</ele>
			</trkpt>
			<trkpt lat="49.146177" lon="20.034884">
				<ele>1778.000000</ele>
			</trkpt>
			<trkpt lat="49.146088" lon="20.034964">
				<ele>1776.000000</ele>
			</trkpt>
			<trkpt lat="49.146006" lon="20.035071">
				<ele>1774.000000</ele>
			</trkpt>
			<trkpt lat="49.145930" lon="20.035134">
				<ele>1775.000000</ele>
			</trkpt>
			<trkpt lat="49.145894" lon="20.035180">
				<ele>1776.000000</ele>
			</trkpt>
			<trkpt lat="49.145888" lon="20.035207">
				<ele>1776.000000</ele>
			</trkpt>
			<trkpt lat="49.145859" lon="20.035413">
				<ele>1779.000000</ele>
			</trkpt>
			<trkpt lat="49.145801" lon="20.035503">
				<ele>1779.000000</ele>
			</trkpt>
			<trkpt lat="49.145707" lon="20.035547">
				<ele>1776.000000</ele>
			</trkpt>
			<trkpt lat="49.145671" lon="20.035700">
				<ele>1778.000000</ele>
			</trkpt>
			<trkpt lat="49.145648" lon="20.035817">
				<ele>1779.000000</ele>
			</trkpt>
			<trkpt lat="49.145612" lon="20.035962">
				<ele>1780.000000</ele>
			</trkpt>
			<trkpt lat="49.145612" lon="20.036069">
				<ele>1785.000000</ele>
			</trkpt>
			<trkpt lat="49.145577" lon="20.036176">
				<ele>1787.000000</ele>
			</trkpt>
			<trkpt lat="49.145577" lon="20.036266">
				<ele>1790.000000</ele>
			</trkpt>
			<trkpt lat="49.145554" lon="20.036320">
				<ele>1791.000000</ele>
			</trkpt>
			<trkpt lat="49.145530" lon="20.036383">
				<ele>1793.000000</ele>
			</trkpt>
			<trkpt lat="49.145483" lon="20.036465">
				<ele>1794.000000</ele>
			</trkpt>
			<trkpt lat="49.145448" lon="20.036545">
				<ele>1795.000000</ele>
			</trkpt>
			<trkpt lat="49.145401" lon="20.036679">
				<ele>1795.000000</ele>
			</trkpt>
			<trkpt lat="49.145384" lon="20.036761">
				<ele>1795.000000</ele>
			</trkpt>
			<trkpt lat="49.145360" lon="20.036842">
				<ele>1795.000000</ele>
			</trkpt>
			<trkpt lat="49.145318" lon="20.036886">
				<ele>1792.000000</ele>
			</trkpt>
			<trkpt lat="49.145260" lon="20.036949">
				<ele>1790.000000</ele>
			</trkpt>
			<trkpt lat="49.145213" lon="20.037039">
				<ele>1790.000000</ele>
			</trkpt>
			<trkpt lat="49.145201" lon="20.037138">
				<ele>1792.000000</ele>
			</trkpt>
			<trkpt lat="49.145195" lon="20.037192">
				<ele>1795.000000</ele>
			</trkpt>
			<trkpt lat="49.145172" lon="20.037245">
				<ele>1796.000000</ele>
			</trkpt>
			<trkpt lat="49.145137" lon="20.037291">
				<ele>1796.000000</ele>
			</trkpt>
			<trkpt lat="49.145125" lon="20.037398">
				<ele>1800.000000</ele>
			</trkpt>
			<trkpt lat="49.145060" lon="20.037542">
				<ele>1803.000000</ele>
			</trkpt>
			<trkpt lat="49.144972" lon="20.037721">
				<ele>1804.000000</ele>
			</trkpt>
			<trkpt lat="49.144919" lon="20.037847">
				<ele>1805.000000</ele>
			</trkpt>
			<trkpt lat="49.144848" lon="20.038010">
				<ele>1807.000000</ele>
			</trkpt>
			<trkpt lat="49.144819" lon="20.038100">
				<ele>1809.000000</ele>
			</trkpt>
			<trkpt lat="49.144795" lon="20.038171">
				<ele>1810.000000</ele>
			</trkpt>
			<trkpt lat="49.144767" lon="20.038279">
				<ele>1811.000000</ele>
			</trkpt>
			<trkpt lat="49.144742" lon="20.038360">
				<ele>1812.000000</ele>
			</trkpt>
			<trkpt lat="49.144702" lon="20.038423">
				<ele>1812.000000</ele>
			</trkpt>
			<trkpt lat="49.144678" lon="20.038530">
				<ele>1814.000000</ele>
			</trkpt>
			<trkpt lat="49.144631" lon="20.038639">
				<ele>1814.000000</ele>
			</trkpt>
			<trkpt lat="49.144643" lon="20.038702">
				<ele>1816.000000</ele>
			</trkpt>
			<trkpt lat="49.144631" lon="20.038826">
				<ele>1818.000000</ele>
			</trkpt>
			<trkpt lat="49.144614" lon="20.038953">
				<ele>1821.000000</ele>
			</trkpt>
			<trkpt lat="49.144625" lon="20.039033">
				<ele>1823.000000</ele>
			</trkpt>
			<trkpt lat="49.144584" lon="20.039231">
				<ele>1824.000000</ele>
			</trkpt>
			<trkpt lat="49.144561" lon="20.039312">
				<ele>1824.000000</ele>
			</trkpt>
			<trkpt lat="49.144549" lon="20.039429">
				<ele>1825.000000</ele>
			</trkpt>
			<trkpt lat="49.144502" lon="20.039591">
				<ele>1825.000000</ele>
			</trkpt>
			<trkpt lat="49.144467" lon="20.039779">
				<ele>1827.000000</ele>
			</trkpt>
			<trkpt lat="49.144443" lon="20.039878">
				<ele>1827.000000</ele>
			</trkpt>
			<trkpt lat="49.144396" lon="20.039968">
				<ele>1827.000000</ele>
			</trkpt>
			<trkpt lat="49.144378" lon="20.040012">
				<ele>1827.000000</ele>
			</trkpt>
			<trkpt lat="49.144361" lon="20.040040">
				<ele>1826.000000</ele>
			</trkpt>
			<trkpt lat="49.144337" lon="20.040075">
				<ele>1825.000000</ele>
			</trkpt>
			<trkpt lat="49.144314" lon="20.040138">
				<ele>1825.000000</ele>
			</trkpt>
			<trkpt lat="49.144291" lon="20.040228">
				<ele>1824.000000</ele>
			</trkpt>
			<trkpt lat="49.144272" lon="20.040274">
				<ele>1824.000000</ele>
			</trkpt>
			<trkpt lat="49.144255" lon="20.040300">
				<ele>1824.000000</ele>
			</trkpt>
			<trkpt lat="49.144214" lon="20.040327">
				<ele>1823.000000</ele>
			</trkpt>
			<trkpt lat="49.144196" lon="20.040354">
				<ele>1823.000000</ele>
			</trkpt>
			<trkpt lat="49.144179" lon="20.040426">
				<ele>1823.000000</ele>
			</trkpt>
			<trkpt lat="49.144149" lon="20.040534">
				<ele>1822.000000</ele>
			</trkpt>
			<trkpt lat="49.144144" lon="20.040731">
				<ele>1822.000000</ele>
			</trkpt>
			<trkpt lat="49.144144" lon="20.040983">
				<ele>1823.000000</ele>
			</trkpt>
			<trkpt lat="49.144132" lon="20.041054">
				<ele>1823.000000</ele>
			</trkpt>
			<trkpt lat="49.144085" lon="20.041063">
				<ele>1821.000000</ele>
			</trkpt>
			<trkpt lat="49.143938" lon="20.041100">
				<ele>1817.000000</ele>
			</trkpt>
			<trkpt lat="49.143814" lon="20.041163">
				<ele>1815.000000</ele>
			</trkpt>
			<trkpt lat="49.143738" lon="20.041316">
				<ele>1813.000000</ele>
			</trkpt>
		</trkseg>
	</trk>
</gpx>

