<?xml version="1.0" encoding="utf-8"?>
<gpx xmlns="http://www.topografix.com/GPX/1/1" version="1.1" creator="https://mapy.com/">
	<trk>
		<name>Velky Sokol szurdok</name>
		<trkseg>
			<trkpt lat="48.942975" lon="20.346104">
				<ele>592.000000</ele>
			</trkpt>
			<trkpt lat="48.942975" lon="20.346104">
				<ele>592.000000</ele>
			</trkpt>
			<trkpt lat="48.942432" lon="20.345467">
				<ele>593.000000</ele>
			</trkpt>
			<trkpt lat="48.942049" lon="20.344982">
				<ele>593.000000</ele>
			</trkpt>
			<trkpt lat="48.941488" lon="20.344263">
				<ele>594.000000</ele>
			</trkpt>
			<trkpt lat="48.941335" lon="20.344110">
				<ele>594.000000</ele>
			</trkpt>
			<trkpt lat="48.941188" lon="20.343984">
				<ele>594.000000</ele>
			</trkpt>
			<trkpt lat="48.940710" lon="20.343670">
				<ele>595.000000</ele>
			</trkpt>
			<trkpt lat="48.940349" lon="20.343293">
				<ele>595.000000</ele>
			</trkpt>
			<trkpt lat="48.940072" lon="20.342942">
				<ele>596.000000</ele>
			</trkpt>
			<trkpt lat="48.939818" lon="20.342485">
				<ele>596.000000</ele>
			</trkpt>
			<trkpt lat="48.939559" lon="20.342116">
				<ele>597.000000</ele>
			</trkpt>
			<trkpt lat="48.939246" lon="20.341739">
				<ele>597.000000</ele>
			</trkpt>
			<trkpt lat="48.939010" lon="20.341496">
				<ele>597.000000</ele>
			</trkpt>
			<trkpt lat="48.938455" lon="20.340957">
				<ele>598.000000</ele>
			</trkpt>
			<trkpt lat="48.938119" lon="20.340678">
				<ele>599.000000</ele>
			</trkpt>
			<trkpt lat="48.937989" lon="20.340598">
				<ele>599.000000</ele>
			</trkpt>
			<trkpt lat="48.937801" lon="20.340525">
				<ele>599.000000</ele>
			</trkpt>
			<trkpt lat="48.937618" lon="20.340382">
				<ele>599.000000</ele>
			</trkpt>
			<trkpt lat="48.937199" lon="20.339718">
				<ele>600.000000</ele>
			</trkpt>
			<trkpt lat="48.936880" lon="20.339223">
				<ele>601.000000</ele>
			</trkpt>
			<trkpt lat="48.936762" lon="20.339070">
				<ele>601.000000</ele>
			</trkpt>
			<trkpt lat="48.936685" lon="20.339007">
				<ele>601.000000</ele>
			</trkpt>
			<trkpt lat="48.936573" lon="20.338936">
				<ele>601.000000</ele>
			</trkpt>
			<trkpt lat="48.936337" lon="20.338783">
				<ele>602.000000</ele>
			</trkpt>
			<trkpt lat="48.935930" lon="20.338298">
				<ele>603.000000</ele>
			</trkpt>
			<trkpt lat="48.935682" lon="20.337930">
				<ele>603.000000</ele>
			</trkpt>
			<trkpt lat="48.935593" lon="20.337840">
				<ele>603.000000</ele>
			</trkpt>
			<trkpt lat="48.935375" lon="20.337714">
				<ele>604.000000</ele>
			</trkpt>
			<trkpt lat="48.935145" lon="20.337651">
				<ele>604.000000</ele>
			</trkpt>
			<trkpt lat="48.935045" lon="20.337562">
				<ele>604.000000</ele>
			</trkpt>
			<trkpt lat="48.934903" lon="20.337391">
				<ele>605.000000</ele>
			</trkpt>
			<trkpt lat="48.934773" lon="20.337085">
				<ele>605.000000</ele>
			</trkpt>
			<trkpt lat="48.934673" lon="20.336789">
				<ele>605.000000</ele>
			</trkpt>
			<trkpt lat="48.934419" lon="20.336232">
				<ele>606.000000</ele>
			</trkpt>
			<trkpt lat="48.933977" lon="20.335594">
				<ele>607.000000</ele>
			</trkpt>
			<trkpt lat="48.933876" lon="20.335495">
				<ele>607.000000</ele>
			</trkpt>
			<trkpt lat="48.933728" lon="20.335397">
				<ele>608.000000</ele>
			</trkpt>
			<trkpt lat="48.933640" lon="20.335343">
				<ele>608.000000</ele>
			</trkpt>
			<trkpt lat="48.933605" lon="20.335288">
				<ele>608.000000</ele>
			</trkpt>
			<trkpt lat="48.933622" lon="20.335172">
				<ele>608.000000</ele>
			</trkpt>
			<trkpt lat="48.933640" lon="20.335082">
				<ele>608.000000</ele>
			</trkpt>
			<trkpt lat="48.933635" lon="20.335011">
				<ele>608.000000</ele>
			</trkpt>
			<trkpt lat="48.933605" lon="20.334839">
				<ele>608.000000</ele>
			</trkpt>
			<trkpt lat="48.933551" lon="20.334688">
				<ele>609.000000</ele>
			</trkpt>
			<trkpt lat="48.933528" lon="20.334606">
				<ele>609.000000</ele>
			</trkpt>
			<trkpt lat="48.933510" lon="20.334426">
				<ele>609.000000</ele>
			</trkpt>
			<trkpt lat="48.933510" lon="20.334372">
				<ele>609.000000</ele>
			</trkpt>
			<trkpt lat="48.933492" lon="20.334273">
				<ele>609.000000</ele>
			</trkpt>
			<trkpt lat="48.933451" lon="20.334103">
				<ele>609.000000</ele>
			</trkpt>
			<trkpt lat="48.933380" lon="20.333843">
				<ele>610.000000</ele>
			</trkpt>
			<trkpt lat="48.933333" lon="20.333699">
				<ele>610.000000</ele>
			</trkpt>
			<trkpt lat="48.933262" lon="20.333573">
				<ele>610.000000</ele>
			</trkpt>
			<trkpt lat="48.933239" lon="20.333582">
				<ele>610.000000</ele>
			</trkpt>
			<trkpt lat="48.933209" lon="20.333600">
				<ele>610.000000</ele>
			</trkpt>
			<trkpt lat="48.933186" lon="20.333636">
				<ele>610.000000</ele>
			</trkpt>
			<trkpt lat="48.933050" lon="20.333806">
				<ele>610.000000</ele>
			</trkpt>
			<trkpt lat="48.932979" lon="20.333906">
				<ele>610.000000</ele>
			</trkpt>
			<trkpt lat="48.932908" lon="20.333996">
				<ele>610.000000</ele>
			</trkpt>
			<trkpt lat="48.932773" lon="20.334076">
				<ele>610.000000</ele>
			</trkpt>
			<trkpt lat="48.932613" lon="20.334122">
				<ele>610.000000</ele>
			</trkpt>
			<trkpt lat="48.932277" lon="20.334148">
				<ele>610.000000</ele>
			</trkpt>
			<trkpt lat="48.932183" lon="20.334166">
				<ele>611.000000</ele>
			</trkpt>
			<trkpt lat="48.931994" lon="20.334219">
				<ele>611.000000</ele>
			</trkpt>
			<trkpt lat="48.931793" lon="20.334346">
				<ele>611.000000</ele>
			</trkpt>
			<trkpt lat="48.931598" lon="20.334498">
				<ele>612.000000</ele>
			</trkpt>
			<trkpt lat="48.931126" lon="20.334921">
				<ele>613.000000</ele>
			</trkpt>
			<trkpt lat="48.930323" lon="20.335711">
				<ele>615.000000</ele>
			</trkpt>
			<trkpt lat="48.929940" lon="20.336070">
				<ele>615.000000</ele>
			</trkpt>
			<trkpt lat="48.929804" lon="20.336124">
				<ele>616.000000</ele>
			</trkpt>
			<trkpt lat="48.929716" lon="20.336151">
				<ele>616.000000</ele>
			</trkpt>
			<trkpt lat="48.929716" lon="20.336151">
				<ele>616.000000</ele>
			</trkpt>
			<trkpt lat="48.929603" lon="20.336187">
				<ele>616.000000</ele>
			</trkpt>
			<trkpt lat="48.929267" lon="20.336250">
				<ele>617.000000</ele>
			</trkpt>
			<trkpt lat="48.929120" lon="20.336296">
				<ele>617.000000</ele>
			</trkpt>
			<trkpt lat="48.928996" lon="20.336393">
				<ele>617.000000</ele>
			</trkpt>
			<trkpt lat="48.928795" lon="20.336672">
				<ele>618.000000</ele>
			</trkpt>
			<trkpt lat="48.928612" lon="20.336959">
				<ele>618.000000</ele>
			</trkpt>
			<trkpt lat="48.928387" lon="20.337372">
				<ele>619.000000</ele>
			</trkpt>
			<trkpt lat="48.928223" lon="20.337759">
				<ele>620.000000</ele>
			</trkpt>
			<trkpt lat="48.928092" lon="20.338127">
				<ele>620.000000</ele>
			</trkpt>
			<trkpt lat="48.928022" lon="20.338280">
				<ele>620.000000</ele>
			</trkpt>
			<trkpt lat="48.927951" lon="20.338406">
				<ele>620.000000</ele>
			</trkpt>
			<trkpt lat="48.927886" lon="20.338477">
				<ele>621.000000</ele>
			</trkpt>
			<trkpt lat="48.927786" lon="20.338531">
				<ele>621.000000</ele>
			</trkpt>
			<trkpt lat="48.927691" lon="20.338531">
				<ele>621.000000</ele>
			</trkpt>
			<trkpt lat="48.927544" lon="20.338496">
				<ele>621.000000</ele>
			</trkpt>
			<trkpt lat="48.927319" lon="20.338433">
				<ele>622.000000</ele>
			</trkpt>
			<trkpt lat="48.927219" lon="20.338406">
				<ele>622.000000</ele>
			</trkpt>
			<trkpt lat="48.927024" lon="20.338325">
				<ele>622.000000</ele>
			</trkpt>
			<trkpt lat="48.926900" lon="20.338298">
				<ele>623.000000</ele>
			</trkpt>
			<trkpt lat="48.926794" lon="20.338307">
				<ele>623.000000</ele>
			</trkpt>
			<trkpt lat="48.926658" lon="20.338343">
				<ele>623.000000</ele>
			</trkpt>
			<trkpt lat="48.926535" lon="20.338414">
				<ele>623.000000</ele>
			</trkpt>
			<trkpt lat="48.926428" lon="20.338496">
				<ele>623.000000</ele>
			</trkpt>
			<trkpt lat="48.926310" lon="20.338657">
				<ele>624.000000</ele>
			</trkpt>
			<trkpt lat="48.926192" lon="20.338891">
				<ele>624.000000</ele>
			</trkpt>
			<trkpt lat="48.925933" lon="20.339422">
				<ele>625.000000</ele>
			</trkpt>
			<trkpt lat="48.925832" lon="20.339538">
				<ele>625.000000</ele>
			</trkpt>
			<trkpt lat="48.925737" lon="20.339619">
				<ele>625.000000</ele>
			</trkpt>
			<trkpt lat="48.925590" lon="20.339726">
				<ele>626.000000</ele>
			</trkpt>
			<trkpt lat="48.925495" lon="20.339825">
				<ele>626.000000</ele>
			</trkpt>
			<trkpt lat="48.925383" lon="20.340112">
				<ele>626.000000</ele>
			</trkpt>
			<trkpt lat="48.925224" lon="20.340535">
				<ele>627.000000</ele>
			</trkpt>
			<trkpt lat="48.925071" lon="20.340877">
				<ele>627.000000</ele>
			</trkpt>
			<trkpt lat="48.925017" lon="20.340984">
				<ele>628.000000</ele>
			</trkpt>
			<trkpt lat="48.924894" lon="20.341110">
				<ele>628.000000</ele>
			</trkpt>
			<trkpt lat="48.924569" lon="20.341361">
				<ele>629.000000</ele>
			</trkpt>
			<trkpt lat="48.924203" lon="20.341685">
				<ele>629.000000</ele>
			</trkpt>
			<trkpt lat="48.924044" lon="20.341865">
				<ele>630.000000</ele>
			</trkpt>
			<trkpt lat="48.924014" lon="20.341927">
				<ele>630.000000</ele>
			</trkpt>
			<trkpt lat="48.923997" lon="20.342062">
				<ele>630.000000</ele>
			</trkpt>
			<trkpt lat="48.923979" lon="20.342107">
				<ele>630.000000</ele>
			</trkpt>
			<trkpt lat="48.923961" lon="20.342162">
				<ele>630.000000</ele>
			</trkpt>
			<trkpt lat="48.923879" lon="20.342269">
				<ele>630.000000</ele>
			</trkpt>
			<trkpt lat="48.923802" lon="20.342341">
				<ele>630.000000</ele>
			</trkpt>
			<trkpt lat="48.923666" lon="20.342601">
				<ele>630.000000</ele>
			</trkpt>
			<trkpt lat="48.923524" lon="20.342745">
				<ele>630.000000</ele>
			</trkpt>
			<trkpt lat="48.923401" lon="20.342988">
				<ele>630.000000</ele>
			</trkpt>
			<trkpt lat="48.923258" lon="20.343158">
				<ele>630.000000</ele>
			</trkpt>
			<trkpt lat="48.923117" lon="20.343284">
				<ele>631.000000</ele>
			</trkpt>
			<trkpt lat="48.923040" lon="20.343445">
				<ele>631.000000</ele>
			</trkpt>
			<trkpt lat="48.922952" lon="20.343733">
				<ele>632.000000</ele>
			</trkpt>
			<trkpt lat="48.922922" lon="20.344120">
				<ele>633.000000</ele>
			</trkpt>
			<trkpt lat="48.922910" lon="20.344272">
				<ele>633.000000</ele>
			</trkpt>
			<trkpt lat="48.922810" lon="20.344605">
				<ele>634.000000</ele>
			</trkpt>
			<trkpt lat="48.922739" lon="20.345026">
				<ele>634.000000</ele>
			</trkpt>
			<trkpt lat="48.922668" lon="20.345349">
				<ele>635.000000</ele>
			</trkpt>
			<trkpt lat="48.922627" lon="20.345592">
				<ele>636.000000</ele>
			</trkpt>
			<trkpt lat="48.922533" lon="20.345970">
				<ele>636.000000</ele>
			</trkpt>
			<trkpt lat="48.922414" lon="20.346338">
				<ele>637.000000</ele>
			</trkpt>
			<trkpt lat="48.922385" lon="20.346607">
				<ele>638.000000</ele>
			</trkpt>
			<trkpt lat="48.922385" lon="20.346697">
				<ele>638.000000</ele>
			</trkpt>
			<trkpt lat="48.922397" lon="20.346896">
				<ele>638.000000</ele>
			</trkpt>
			<trkpt lat="48.922397" lon="20.347263">
				<ele>639.000000</ele>
			</trkpt>
			<trkpt lat="48.922391" lon="20.347523">
				<ele>639.000000</ele>
			</trkpt>
			<trkpt lat="48.922403" lon="20.348135">
				<ele>640.000000</ele>
			</trkpt>
			<trkpt lat="48.922438" lon="20.348242">
				<ele>640.000000</ele>
			</trkpt>
			<trkpt lat="48.922468" lon="20.348251">
				<ele>640.000000</ele>
			</trkpt>
			<trkpt lat="48.922485" lon="20.348351">
				<ele>640.000000</ele>
			</trkpt>
			<trkpt lat="48.922450" lon="20.348449">
				<ele>640.000000</ele>
			</trkpt>
			<trkpt lat="48.922338" lon="20.348601">
				<ele>641.000000</ele>
			</trkpt>
			<trkpt lat="48.922155" lon="20.348764">
				<ele>641.000000</ele>
			</trkpt>
			<trkpt lat="48.921966" lon="20.348890">
				<ele>642.000000</ele>
			</trkpt>
			<trkpt lat="48.921724" lon="20.349123">
				<ele>643.000000</ele>
			</trkpt>
			<trkpt lat="48.921487" lon="20.349240">
				<ele>644.000000</ele>
			</trkpt>
			<trkpt lat="48.921310" lon="20.349294">
				<ele>644.000000</ele>
			</trkpt>
			<trkpt lat="48.921217" lon="20.349330">
				<ele>644.000000</ele>
			</trkpt>
			<trkpt lat="48.921104" lon="20.349393">
				<ele>645.000000</ele>
			</trkpt>
			<trkpt lat="48.921051" lon="20.349401">
				<ele>645.000000</ele>
			</trkpt>
			<trkpt lat="48.920915" lon="20.349401">
				<ele>645.000000</ele>
			</trkpt>
			<trkpt lat="48.920768" lon="20.349401">
				<ele>646.000000</ele>
			</trkpt>
			<trkpt lat="48.920679" lon="20.349446">
				<ele>646.000000</ele>
			</trkpt>
			<trkpt lat="48.920620" lon="20.349590">
				<ele>646.000000</ele>
			</trkpt>
			<trkpt lat="48.920567" lon="20.349787">
				<ele>647.000000</ele>
			</trkpt>
			<trkpt lat="48.920537" lon="20.350372">
				<ele>648.000000</ele>
			</trkpt>
			<trkpt lat="48.920508" lon="20.350731">
				<ele>648.000000</ele>
			</trkpt>
			<trkpt lat="48.920478" lon="20.350938">
				<ele>649.000000</ele>
			</trkpt>
			<trkpt lat="48.920431" lon="20.351117">
				<ele>649.000000</ele>
			</trkpt>
			<trkpt lat="48.920378" lon="20.351324">
				<ele>649.000000</ele>
			</trkpt>
			<trkpt lat="48.920242" lon="20.351584">
				<ele>650.000000</ele>
			</trkpt>
			<trkpt lat="48.920213" lon="20.351647">
				<ele>650.000000</ele>
			</trkpt>
			<trkpt lat="48.920183" lon="20.351683">
				<ele>650.000000</ele>
			</trkpt>
			<trkpt lat="48.919941" lon="20.352060">
				<ele>652.000000</ele>
			</trkpt>
			<trkpt lat="48.919865" lon="20.352312">
				<ele>652.000000</ele>
			</trkpt>
			<trkpt lat="48.919823" lon="20.352446">
				<ele>653.000000</ele>
			</trkpt>
			<trkpt lat="48.919806" lon="20.352617">
				<ele>653.000000</ele>
			</trkpt>
			<trkpt lat="48.919806" lon="20.352896">
				<ele>654.000000</ele>
			</trkpt>
			<trkpt lat="48.919823" lon="20.353192">
				<ele>654.000000</ele>
			</trkpt>
			<trkpt lat="48.919776" lon="20.353425">
				<ele>655.000000</ele>
			</trkpt>
			<trkpt lat="48.919758" lon="20.353749">
				<ele>655.000000</ele>
			</trkpt>
			<trkpt lat="48.919782" lon="20.353884">
				<ele>656.000000</ele>
			</trkpt>
			<trkpt lat="48.919770" lon="20.354018">
				<ele>656.000000</ele>
			</trkpt>
			<trkpt lat="48.919741" lon="20.354234">
				<ele>657.000000</ele>
			</trkpt>
			<trkpt lat="48.919658" lon="20.354404">
				<ele>657.000000</ele>
			</trkpt>
			<trkpt lat="48.919463" lon="20.354701">
				<ele>658.000000</ele>
			</trkpt>
			<trkpt lat="48.919434" lon="20.355033">
				<ele>659.000000</ele>
			</trkpt>
			<trkpt lat="48.919333" lon="20.355465">
				<ele>660.000000</ele>
			</trkpt>
			<trkpt lat="48.919298" lon="20.355888">
				<ele>662.000000</ele>
			</trkpt>
			<trkpt lat="48.919328" lon="20.356192">
				<ele>664.000000</ele>
			</trkpt>
			<trkpt lat="48.919387" lon="20.356507">
				<ele>666.000000</ele>
			</trkpt>
			<trkpt lat="48.919351" lon="20.356785">
				<ele>668.000000</ele>
			</trkpt>
			<trkpt lat="48.919215" lon="20.357037">
				<ele>670.000000</ele>
			</trkpt>
			<trkpt lat="48.919174" lon="20.357333">
				<ele>670.000000</ele>
			</trkpt>
			<trkpt lat="48.919150" lon="20.357477">
				<ele>670.000000</ele>
			</trkpt>
			<trkpt lat="48.919168" lon="20.357620">
				<ele>670.000000</ele>
			</trkpt>
			<trkpt lat="48.919233" lon="20.358007">
				<ele>670.000000</ele>
			</trkpt>
			<trkpt lat="48.919274" lon="20.358205">
				<ele>670.000000</ele>
			</trkpt>
			<trkpt lat="48.919298" lon="20.358358">
				<ele>670.000000</ele>
			</trkpt>
			<trkpt lat="48.919292" lon="20.358528">
				<ele>670.000000</ele>
			</trkpt>
			<trkpt lat="48.919257" lon="20.358744">
				<ele>670.000000</ele>
			</trkpt>
			<trkpt lat="48.919251" lon="20.358915">
				<ele>670.000000</ele>
			</trkpt>
			<trkpt lat="48.919227" lon="20.359148">
				<ele>670.000000</ele>
			</trkpt>
			<trkpt lat="48.919027" lon="20.359651">
				<ele>671.000000</ele>
			</trkpt>
			<trkpt lat="48.918997" lon="20.359930">
				<ele>672.000000</ele>
			</trkpt>
			<trkpt lat="48.919008" lon="20.360199">
				<ele>673.000000</ele>
			</trkpt>
			<trkpt lat="48.919027" lon="20.360477">
				<ele>674.000000</ele>
			</trkpt>
			<trkpt lat="48.919044" lon="20.360819">
				<ele>675.000000</ele>
			</trkpt>
			<trkpt lat="48.919021" lon="20.360981">
				<ele>675.000000</ele>
			</trkpt>
			<trkpt lat="48.918962" lon="20.361125">
				<ele>676.000000</ele>
			</trkpt>
			<trkpt lat="48.918903" lon="20.361341">
				<ele>676.000000</ele>
			</trkpt>
			<trkpt lat="48.918802" lon="20.361852">
				<ele>678.000000</ele>
			</trkpt>
			<trkpt lat="48.918808" lon="20.361978">
				<ele>678.000000</ele>
			</trkpt>
			<trkpt lat="48.918819" lon="20.362077">
				<ele>679.000000</ele>
			</trkpt>
			<trkpt lat="48.918796" lon="20.362220">
				<ele>679.000000</ele>
			</trkpt>
			<trkpt lat="48.918719" lon="20.362373">
				<ele>680.000000</ele>
			</trkpt>
			<trkpt lat="48.918607" lon="20.362473">
				<ele>681.000000</ele>
			</trkpt>
			<trkpt lat="48.918465" lon="20.362561">
				<ele>683.000000</ele>
			</trkpt>
			<trkpt lat="48.918212" lon="20.362750">
				<ele>686.000000</ele>
			</trkpt>
			<trkpt lat="48.918099" lon="20.362849">
				<ele>688.000000</ele>
			</trkpt>
			<trkpt lat="48.918076" lon="20.362930">
				<ele>689.000000</ele>
			</trkpt>
			<trkpt lat="48.918064" lon="20.363038">
				<ele>689.000000</ele>
			</trkpt>
			<trkpt lat="48.918046" lon="20.363226">
				<ele>690.000000</ele>
			</trkpt>
			<trkpt lat="48.918029" lon="20.363397">
				<ele>690.000000</ele>
			</trkpt>
			<trkpt lat="48.917981" lon="20.363523">
				<ele>690.000000</ele>
			</trkpt>
			<trkpt lat="48.917940" lon="20.363612">
				<ele>690.000000</ele>
			</trkpt>
			<trkpt lat="48.917875" lon="20.363693">
				<ele>690.000000</ele>
			</trkpt>
			<trkpt lat="48.917757" lon="20.363792">
				<ele>690.000000</ele>
			</trkpt>
			<trkpt lat="48.917663" lon="20.363828">
				<ele>690.000000</ele>
			</trkpt>
			<trkpt lat="48.917492" lon="20.363838">
				<ele>690.000000</ele>
			</trkpt>
			<trkpt lat="48.917374" lon="20.363909">
				<ele>690.000000</ele>
			</trkpt>
			<trkpt lat="48.917303" lon="20.363981">
				<ele>690.000000</ele>
			</trkpt>
			<trkpt lat="48.917226" lon="20.364197">
				<ele>690.000000</ele>
			</trkpt>
			<trkpt lat="48.917179" lon="20.364404">
				<ele>690.000000</ele>
			</trkpt>
			<trkpt lat="48.917102" lon="20.364834">
				<ele>690.000000</ele>
			</trkpt>
			<trkpt lat="48.917067" lon="20.365060">
				<ele>691.000000</ele>
			</trkpt>
			<trkpt lat="48.916972" lon="20.365230">
				<ele>692.000000</ele>
			</trkpt>
			<trkpt lat="48.916877" lon="20.365347">
				<ele>694.000000</ele>
			</trkpt>
			<trkpt lat="48.916789" lon="20.365427">
				<ele>695.000000</ele>
			</trkpt>
			<trkpt lat="48.916576" lon="20.365570">
				<ele>697.000000</ele>
			</trkpt>
			<trkpt lat="48.916470" lon="20.365652">
				<ele>698.000000</ele>
			</trkpt>
			<trkpt lat="48.916393" lon="20.365760">
				<ele>699.000000</ele>
			</trkpt>
			<trkpt lat="48.916264" lon="20.366083">
				<ele>708.000000</ele>
			</trkpt>
			<trkpt lat="48.916311" lon="20.366398">
				<ele>712.000000</ele>
			</trkpt>
			<trkpt lat="48.916281" lon="20.366631">
				<ele>713.000000</ele>
			</trkpt>
			<trkpt lat="48.916169" lon="20.366838">
				<ele>715.000000</ele>
			</trkpt>
			<trkpt lat="48.916075" lon="20.366882">
				<ele>716.000000</ele>
			</trkpt>
			<trkpt lat="48.915980" lon="20.366937">
				<ele>717.000000</ele>
			</trkpt>
			<trkpt lat="48.915892" lon="20.367242">
				<ele>719.000000</ele>
			</trkpt>
			<trkpt lat="48.915809" lon="20.367530">
				<ele>721.000000</ele>
			</trkpt>
			<trkpt lat="48.915425" lon="20.368249">
				<ele>730.000000</ele>
			</trkpt>
			<trkpt lat="48.915231" lon="20.368446">
				<ele>730.000000</ele>
			</trkpt>
			<trkpt lat="48.915124" lon="20.368490">
				<ele>730.000000</ele>
			</trkpt>
			<trkpt lat="48.915030" lon="20.368580">
				<ele>732.000000</ele>
			</trkpt>
			<trkpt lat="48.914894" lon="20.368993">
				<ele>743.000000</ele>
			</trkpt>
			<trkpt lat="48.914681" lon="20.369352">
				<ele>755.000000</ele>
			</trkpt>
			<trkpt lat="48.914475" lon="20.369847">
				<ele>780.000000</ele>
			</trkpt>
			<trkpt lat="48.914392" lon="20.370044">
				<ele>765.000000</ele>
			</trkpt>
			<trkpt lat="48.914368" lon="20.370098">
				<ele>770.000000</ele>
			</trkpt>
			<trkpt lat="48.914416" lon="20.370476">
				<ele>772.000000</ele>
			</trkpt>
			<trkpt lat="48.914433" lon="20.370629">
				<ele>773.000000</ele>
			</trkpt>
			<trkpt lat="48.914368" lon="20.371266">
				<ele>776.000000</ele>
			</trkpt>
			<trkpt lat="48.914345" lon="20.371455">
				<ele>777.000000</ele>
			</trkpt>
			<trkpt lat="48.914262" lon="20.371778">
				<ele>778.000000</ele>
			</trkpt>
			<trkpt lat="48.914127" lon="20.372012">
				<ele>780.000000</ele>
			</trkpt>
			<trkpt lat="48.913973" lon="20.372218">
				<ele>784.000000</ele>
			</trkpt>
			<trkpt lat="48.913725" lon="20.372507">
				<ele>790.000000</ele>
			</trkpt>
			<trkpt lat="48.913477" lon="20.373224">
				<ele>790.000000</ele>
			</trkpt>
			<trkpt lat="48.913342" lon="20.373665">
				<ele>790.000000</ele>
			</trkpt>
			<trkpt lat="48.913252" lon="20.373880">
				<ele>792.000000</ele>
			</trkpt>
			<trkpt lat="48.913146" lon="20.374006">
				<ele>793.000000</ele>
			</trkpt>
			<trkpt lat="48.912739" lon="20.374365">
				<ele>798.000000</ele>
			</trkpt>
			<trkpt lat="48.912615" lon="20.374501">
				<ele>800.000000</ele>
			</trkpt>
			<trkpt lat="48.912515" lon="20.374752">
				<ele>802.000000</ele>
			</trkpt>
			<trkpt lat="48.912444" lon="20.375048">
				<ele>804.000000</ele>
			</trkpt>
			<trkpt lat="48.912361" lon="20.375247">
				<ele>805.000000</ele>
			</trkpt>
			<trkpt lat="48.912208" lon="20.375371">
				<ele>807.000000</ele>
			</trkpt>
			<trkpt lat="48.912078" lon="20.375390">
				<ele>808.000000</ele>
			</trkpt>
			<trkpt lat="48.911877" lon="20.375354">
				<ele>810.000000</ele>
			</trkpt>
			<trkpt lat="48.911298" lon="20.375273">
				<ele>822.000000</ele>
			</trkpt>
			<trkpt lat="48.911133" lon="20.375264">
				<ele>824.000000</ele>
			</trkpt>
			<trkpt lat="48.911062" lon="20.375291">
				<ele>825.000000</ele>
			</trkpt>
			<trkpt lat="48.910991" lon="20.375327">
				<ele>826.000000</ele>
			</trkpt>
			<trkpt lat="48.910879" lon="20.375417">
				<ele>828.000000</ele>
			</trkpt>
			<trkpt lat="48.910826" lon="20.375605">
				<ele>830.000000</ele>
			</trkpt>
			<trkpt lat="48.910749" lon="20.375758">
				<ele>831.000000</ele>
			</trkpt>
			<trkpt lat="48.910661" lon="20.375830">
				<ele>832.000000</ele>
			</trkpt>
			<trkpt lat="48.910490" lon="20.375947">
				<ele>834.000000</ele>
			</trkpt>
			<trkpt lat="48.910218" lon="20.376063">
				<ele>837.000000</ele>
			</trkpt>
			<trkpt lat="48.909776" lon="20.376126">
				<ele>841.000000</ele>
			</trkpt>
			<trkpt lat="48.909149" lon="20.376216">
				<ele>844.000000</ele>
			</trkpt>
			<trkpt lat="48.909031" lon="20.376289">
				<ele>845.000000</ele>
			</trkpt>
			<trkpt lat="48.908896" lon="20.376432">
				<ele>846.000000</ele>
			</trkpt>
			<trkpt lat="48.908695" lon="20.376845">
				<ele>847.000000</ele>
			</trkpt>
			<trkpt lat="48.908559" lon="20.377258">
				<ele>849.000000</ele>
			</trkpt>
			<trkpt lat="48.908423" lon="20.377860">
				<ele>851.000000</ele>
			</trkpt>
			<trkpt lat="48.908358" lon="20.378058">
				<ele>852.000000</ele>
			</trkpt>
			<trkpt lat="48.908034" lon="20.378660">
				<ele>854.000000</ele>
			</trkpt>
			<trkpt lat="48.907992" lon="20.378830">
				<ele>855.000000</ele>
			</trkpt>
			<trkpt lat="48.907922" lon="20.378866">
				<ele>855.000000</ele>
			</trkpt>
			<trkpt lat="48.907726" lon="20.378973">
				<ele>856.000000</ele>
			</trkpt>
			<trkpt lat="48.907532" lon="20.379046">
				<ele>857.000000</ele>
			</trkpt>
			<trkpt lat="48.907107" lon="20.379073">
				<ele>859.000000</ele>
			</trkpt>
			<trkpt lat="48.906617" lon="20.379189">
				<ele>861.000000</ele>
			</trkpt>
			<trkpt lat="48.906375" lon="20.379252">
				<ele>862.000000</ele>
			</trkpt>
			<trkpt lat="48.906292" lon="20.379333">
				<ele>862.000000</ele>
			</trkpt>
			<trkpt lat="48.905636" lon="20.380168">
				<ele>865.000000</ele>
			</trkpt>
			<trkpt lat="48.905560" lon="20.380304">
				<ele>865.000000</ele>
			</trkpt>
			<trkpt lat="48.905447" lon="20.380591">
				<ele>866.000000</ele>
			</trkpt>
			<trkpt lat="48.905359" lon="20.380744">
				<ele>866.000000</ele>
			</trkpt>
			<trkpt lat="48.905259" lon="20.380897">
				<ele>867.000000</ele>
			</trkpt>
			<trkpt lat="48.905194" lon="20.381050">
				<ele>867.000000</ele>
			</trkpt>
			<trkpt lat="48.905123" lon="20.381229">
				<ele>868.000000</ele>
			</trkpt>
			<trkpt lat="48.905081" lon="20.381426">
				<ele>868.000000</ele>
			</trkpt>
			<trkpt lat="48.905028" lon="20.381534">
				<ele>869.000000</ele>
			</trkpt>
			<trkpt lat="48.904993" lon="20.381597">
				<ele>869.000000</ele>
			</trkpt>
			<trkpt lat="48.904928" lon="20.381633">
				<ele>869.000000</ele>
			</trkpt>
			<trkpt lat="48.904851" lon="20.381633">
				<ele>869.000000</ele>
			</trkpt>
			<trkpt lat="48.904798" lon="20.381776">
				<ele>870.000000</ele>
			</trkpt>
			<trkpt lat="48.904786" lon="20.382002">
				<ele>871.000000</ele>
			</trkpt>
			<trkpt lat="48.904769" lon="20.382235">
				<ele>876.000000</ele>
			</trkpt>
			<trkpt lat="48.904750" lon="20.382513">
				<ele>881.000000</ele>
			</trkpt>
			<trkpt lat="48.904715" lon="20.382765">
				<ele>885.000000</ele>
			</trkpt>
			<trkpt lat="48.904674" lon="20.382935">
				<ele>888.000000</ele>
			</trkpt>
			<trkpt lat="48.904561" lon="20.383205">
				<ele>894.000000</ele>
			</trkpt>
			<trkpt lat="48.904497" lon="20.383268">
				<ele>897.000000</ele>
			</trkpt>
			<trkpt lat="48.904455" lon="20.383304">
				<ele>898.000000</ele>
			</trkpt>
			<trkpt lat="48.904420" lon="20.383340">
				<ele>899.000000</ele>
			</trkpt>
			<trkpt lat="48.904396" lon="20.383358">
				<ele>900.000000</ele>
			</trkpt>
			<trkpt lat="48.904432" lon="20.383394">
				<ele>900.000000</ele>
			</trkpt>
			<trkpt lat="48.904468" lon="20.383403">
				<ele>900.000000</ele>
			</trkpt>
			<trkpt lat="48.904615" lon="20.383430">
				<ele>900.000000</ele>
			</trkpt>
			<trkpt lat="48.904739" lon="20.383421">
				<ele>900.000000</ele>
			</trkpt>
			<trkpt lat="48.904803" lon="20.383403">
				<ele>900.000000</ele>
			</trkpt>
			<trkpt lat="48.904940" lon="20.383214">
				<ele>902.000000</ele>
			</trkpt>
			<trkpt lat="48.905052" lon="20.383071">
				<ele>904.000000</ele>
			</trkpt>
			<trkpt lat="48.905146" lon="20.383008">
				<ele>905.000000</ele>
			</trkpt>
			<trkpt lat="48.905288" lon="20.382927">
				<ele>907.000000</ele>
			</trkpt>
			<trkpt lat="48.905447" lon="20.382782">
				<ele>909.000000</ele>
			</trkpt>
			<trkpt lat="48.905654" lon="20.382576">
				<ele>912.000000</ele>
			</trkpt>
			<trkpt lat="48.905766" lon="20.382379">
				<ele>914.000000</ele>
			</trkpt>
			<trkpt lat="48.906026" lon="20.382002">
				<ele>919.000000</ele>
			</trkpt>
			<trkpt lat="48.906103" lon="20.381795">
				<ele>920.000000</ele>
			</trkpt>
			<trkpt lat="48.906251" lon="20.381606">
				<ele>923.000000</ele>
			</trkpt>
			<trkpt lat="48.906457" lon="20.381426">
				<ele>926.000000</ele>
			</trkpt>
			<trkpt lat="48.906605" lon="20.381291">
				<ele>929.000000</ele>
			</trkpt>
			<trkpt lat="48.906782" lon="20.381247">
				<ele>931.000000</ele>
			</trkpt>
			<trkpt lat="48.906971" lon="20.381229">
				<ele>934.000000</ele>
			</trkpt>
			<trkpt lat="48.907148" lon="20.381184">
				<ele>937.000000</ele>
			</trkpt>
			<trkpt lat="48.907284" lon="20.381237">
				<ele>939.000000</ele>
			</trkpt>
			<trkpt lat="48.907414" lon="20.381390">
				<ele>941.000000</ele>
			</trkpt>
			<trkpt lat="48.907502" lon="20.381606">
				<ele>943.000000</ele>
			</trkpt>
			<trkpt lat="48.907543" lon="20.381983">
				<ele>946.000000</ele>
			</trkpt>
			<trkpt lat="48.907543" lon="20.382271">
				<ele>949.000000</ele>
			</trkpt>
			<trkpt lat="48.907490" lon="20.382594">
				<ele>952.000000</ele>
			</trkpt>
			<trkpt lat="48.907473" lon="20.382792">
				<ele>953.000000</ele>
			</trkpt>
			<trkpt lat="48.907490" lon="20.382908">
				<ele>954.000000</ele>
			</trkpt>
			<trkpt lat="48.907508" lon="20.383008">
				<ele>955.000000</ele>
			</trkpt>
			<trkpt lat="48.907496" lon="20.383052">
				<ele>956.000000</ele>
			</trkpt>
			<trkpt lat="48.907461" lon="20.383071">
				<ele>956.000000</ele>
			</trkpt>
			<trkpt lat="48.907431" lon="20.383071">
				<ele>956.000000</ele>
			</trkpt>
			<trkpt lat="48.907408" lon="20.383034">
				<ele>957.000000</ele>
			</trkpt>
			<trkpt lat="48.907331" lon="20.382828">
				<ele>959.000000</ele>
			</trkpt>
			<trkpt lat="48.907278" lon="20.382603">
				<ele>961.000000</ele>
			</trkpt>
			<trkpt lat="48.907248" lon="20.382361">
				<ele>962.000000</ele>
			</trkpt>
			<trkpt lat="48.907201" lon="20.382199">
				<ele>963.000000</ele>
			</trkpt>
			<trkpt lat="48.907160" lon="20.382136">
				<ele>964.000000</ele>
			</trkpt>
			<trkpt lat="48.907089" lon="20.382109">
				<ele>964.000000</ele>
			</trkpt>
			<trkpt lat="48.907036" lon="20.382126">
				<ele>965.000000</ele>
			</trkpt>
			<trkpt lat="48.906959" lon="20.382189">
				<ele>966.000000</ele>
			</trkpt>
			<trkpt lat="48.906924" lon="20.382298">
				<ele>966.000000</ele>
			</trkpt>
			<trkpt lat="48.906912" lon="20.382432">
				<ele>967.000000</ele>
			</trkpt>
			<trkpt lat="48.906853" lon="20.382612">
				<ele>968.000000</ele>
			</trkpt>
			<trkpt lat="48.906806" lon="20.382864">
				<ele>970.000000</ele>
			</trkpt>
			<trkpt lat="48.906823" lon="20.383025">
				<ele>971.000000</ele>
			</trkpt>
			<trkpt lat="48.906900" lon="20.383223">
				<ele>972.000000</ele>
			</trkpt>
			<trkpt lat="48.907006" lon="20.383376">
				<ele>974.000000</ele>
			</trkpt>
			<trkpt lat="48.907136" lon="20.383618">
				<ele>975.000000</ele>
			</trkpt>
			<trkpt lat="48.907295" lon="20.383843">
				<ele>977.000000</ele>
			</trkpt>
			<trkpt lat="48.907431" lon="20.383960">
				<ele>979.000000</ele>
			</trkpt>
			<trkpt lat="48.907602" lon="20.384059">
				<ele>980.000000</ele>
			</trkpt>
			<trkpt lat="48.907720" lon="20.384086">
				<ele>981.000000</ele>
			</trkpt>
			<trkpt lat="48.907987" lon="20.384086">
				<ele>984.000000</ele>
			</trkpt>
			<trkpt lat="48.908294" lon="20.384121">
				<ele>986.000000</ele>
			</trkpt>
			<trkpt lat="48.908400" lon="20.384130">
				<ele>987.000000</ele>
			</trkpt>
			<trkpt lat="48.908471" lon="20.384103">
				<ele>988.000000</ele>
			</trkpt>
			<trkpt lat="48.908553" lon="20.384023">
				<ele>989.000000</ele>
			</trkpt>
			<trkpt lat="48.908772" lon="20.383887">
				<ele>990.000000</ele>
			</trkpt>
			<trkpt lat="48.908896" lon="20.383824">
				<ele>990.000000</ele>
			</trkpt>
			<trkpt lat="48.909008" lon="20.383797">
				<ele>990.000000</ele>
			</trkpt>
			<trkpt lat="48.909132" lon="20.383807">
				<ele>990.000000</ele>
			</trkpt>
			<trkpt lat="48.909232" lon="20.383860">
				<ele>990.000000</ele>
			</trkpt>
			<trkpt lat="48.909350" lon="20.383996">
				<ele>990.000000</ele>
			</trkpt>
			<trkpt lat="48.909462" lon="20.384184">
				<ele>990.000000</ele>
			</trkpt>
			<trkpt lat="48.909557" lon="20.384355">
				<ele>990.000000</ele>
			</trkpt>
			<trkpt lat="48.909598" lon="20.384480">
				<ele>990.000000</ele>
			</trkpt>
			<trkpt lat="48.909598" lon="20.384616">
				<ele>990.000000</ele>
			</trkpt>
			<trkpt lat="48.909616" lon="20.384723">
				<ele>990.000000</ele>
			</trkpt>
			<trkpt lat="48.909657" lon="20.384813">
				<ele>990.000000</ele>
			</trkpt>
			<trkpt lat="48.909781" lon="20.385055">
				<ele>990.000000</ele>
			</trkpt>
			<trkpt lat="48.909852" lon="20.385235">
				<ele>990.000000</ele>
			</trkpt>
			<trkpt lat="48.909923" lon="20.385460">
				<ele>990.000000</ele>
			</trkpt>
			<trkpt lat="48.909970" lon="20.385738">
				<ele>991.000000</ele>
			</trkpt>
			<trkpt lat="48.909970" lon="20.385738">
				<ele>991.000000</ele>
			</trkpt>
			<trkpt lat="48.909982" lon="20.385801">
				<ele>991.000000</ele>
			</trkpt>
			<trkpt lat="48.910012" lon="20.386134">
				<ele>991.000000</ele>
			</trkpt>
			<trkpt lat="48.910041" lon="20.386304">
				<ele>991.000000</ele>
			</trkpt>
			<trkpt lat="48.910153" lon="20.386583">
				<ele>992.000000</ele>
			</trkpt>
			<trkpt lat="48.910201" lon="20.386753">
				<ele>992.000000</ele>
			</trkpt>
			<trkpt lat="48.910254" lon="20.387176">
				<ele>993.000000</ele>
			</trkpt>
			<trkpt lat="48.910348" lon="20.387652">
				<ele>993.000000</ele>
			</trkpt>
			<trkpt lat="48.910507" lon="20.388541">
				<ele>994.000000</ele>
			</trkpt>
			<trkpt lat="48.910596" lon="20.388864">
				<ele>995.000000</ele>
			</trkpt>
			<trkpt lat="48.910679" lon="20.389080">
				<ele>995.000000</ele>
			</trkpt>
			<trkpt lat="48.910773" lon="20.389269">
				<ele>995.000000</ele>
			</trkpt>
			<trkpt lat="48.910879" lon="20.389430">
				<ele>996.000000</ele>
			</trkpt>
			<trkpt lat="48.911015" lon="20.389619">
				<ele>996.000000</ele>
			</trkpt>
			<trkpt lat="48.911133" lon="20.389753">
				<ele>996.000000</ele>
			</trkpt>
			<trkpt lat="48.911292" lon="20.389925">
				<ele>996.000000</ele>
			</trkpt>
			<trkpt lat="48.911387" lon="20.389952">
				<ele>997.000000</ele>
			</trkpt>
			<trkpt lat="48.911464" lon="20.389942">
				<ele>997.000000</ele>
			</trkpt>
			<trkpt lat="48.911618" lon="20.389879">
				<ele>997.000000</ele>
			</trkpt>
			<trkpt lat="48.911718" lon="20.389780">
				<ele>997.000000</ele>
			</trkpt>
			<trkpt lat="48.911877" lon="20.389547">
				<ele>998.000000</ele>
			</trkpt>
			<trkpt lat="48.912019" lon="20.389224">
				<ele>998.000000</ele>
			</trkpt>
			<trkpt lat="48.912043" lon="20.388973">
				<ele>998.000000</ele>
			</trkpt>
			<trkpt lat="48.912102" lon="20.388738">
				<ele>999.000000</ele>
			</trkpt>
			<trkpt lat="48.912243" lon="20.388424">
				<ele>999.000000</ele>
			</trkpt>
			<trkpt lat="48.912338" lon="20.388308">
				<ele>999.000000</ele>
			</trkpt>
			<trkpt lat="48.912373" lon="20.388262">
				<ele>1000.000000</ele>
			</trkpt>
			<trkpt lat="48.912497" lon="20.388191">
				<ele>1000.000000</ele>
			</trkpt>
			<trkpt lat="48.912656" lon="20.388172">
				<ele>1000.000000</ele>
			</trkpt>
			<trkpt lat="48.912904" lon="20.388164">
				<ele>1002.000000</ele>
			</trkpt>
			<trkpt lat="48.913034" lon="20.388092">
				<ele>1003.000000</ele>
			</trkpt>
			<trkpt lat="48.913247" lon="20.387921">
				<ele>1004.000000</ele>
			</trkpt>
			<trkpt lat="48.913501" lon="20.387751">
				<ele>1006.000000</ele>
			</trkpt>
			<trkpt lat="48.913666" lon="20.387562">
				<ele>1007.000000</ele>
			</trkpt>
			<trkpt lat="48.913867" lon="20.387220">
				<ele>1009.000000</ele>
			</trkpt>
			<trkpt lat="48.914044" lon="20.386889">
				<ele>1010.000000</ele>
			</trkpt>
			<trkpt lat="48.914132" lon="20.386547">
				<ele>1012.000000</ele>
			</trkpt>
			<trkpt lat="48.914174" lon="20.386017">
				<ele>1015.000000</ele>
			</trkpt>
			<trkpt lat="48.914191" lon="20.385694">
				<ele>1016.000000</ele>
			</trkpt>
			<trkpt lat="48.914020" lon="20.384426">
				<ele>1020.000000</ele>
			</trkpt>
			<trkpt lat="48.914026" lon="20.383969">
				<ele>1020.000000</ele>
			</trkpt>
			<trkpt lat="48.913985" lon="20.383493">
				<ele>1020.000000</ele>
			</trkpt>
			<trkpt lat="48.914008" lon="20.382684">
				<ele>1020.000000</ele>
			</trkpt>
			<trkpt lat="48.913979" lon="20.382252">
				<ele>1020.000000</ele>
			</trkpt>
			<trkpt lat="48.913997" lon="20.382073">
				<ele>1020.000000</ele>
			</trkpt>
			<trkpt lat="48.914038" lon="20.381975">
				<ele>1020.000000</ele>
			</trkpt>
			<trkpt lat="48.914103" lon="20.381965">
				<ele>1020.000000</ele>
			</trkpt>
			<trkpt lat="48.914191" lon="20.382109">
				<ele>1020.000000</ele>
			</trkpt>
			<trkpt lat="48.914233" lon="20.382361">
				<ele>1020.000000</ele>
			</trkpt>
			<trkpt lat="48.914540" lon="20.383457">
				<ele>1015.000000</ele>
			</trkpt>
			<trkpt lat="48.914599" lon="20.383555">
				<ele>1015.000000</ele>
			</trkpt>
			<trkpt lat="48.914693" lon="20.383618">
				<ele>1014.000000</ele>
			</trkpt>
			<trkpt lat="48.914894" lon="20.383654">
				<ele>1013.000000</ele>
			</trkpt>
			<trkpt lat="48.915030" lon="20.383645">
				<ele>1012.000000</ele>
			</trkpt>
			<trkpt lat="48.915189" lon="20.383717">
				<ele>1011.000000</ele>
			</trkpt>
			<trkpt lat="48.915909" lon="20.384040">
				<ele>1009.000000</ele>
			</trkpt>
			<trkpt lat="48.916299" lon="20.384256">
				<ele>1008.000000</ele>
			</trkpt>
			<trkpt lat="48.916535" lon="20.384292">
				<ele>1008.000000</ele>
			</trkpt>
			<trkpt lat="48.916742" lon="20.384247">
				<ele>1007.000000</ele>
			</trkpt>
			<trkpt lat="48.917008" lon="20.384239">
				<ele>1007.000000</ele>
			</trkpt>
			<trkpt lat="48.917120" lon="20.384274">
				<ele>1006.000000</ele>
			</trkpt>
			<trkpt lat="48.917185" lon="20.384346">
				<ele>1006.000000</ele>
			</trkpt>
			<trkpt lat="48.917220" lon="20.384453">
				<ele>1006.000000</ele>
			</trkpt>
			<trkpt lat="48.917231" lon="20.384715">
				<ele>1006.000000</ele>
			</trkpt>
			<trkpt lat="48.917208" lon="20.385163">
				<ele>1005.000000</ele>
			</trkpt>
			<trkpt lat="48.917261" lon="20.385352">
				<ele>1005.000000</ele>
			</trkpt>
			<trkpt lat="48.917326" lon="20.385478">
				<ele>1005.000000</ele>
			</trkpt>
			<trkpt lat="48.917433" lon="20.385541">
				<ele>1005.000000</ele>
			</trkpt>
			<trkpt lat="48.917616" lon="20.385558">
				<ele>1004.000000</ele>
			</trkpt>
			<trkpt lat="48.917964" lon="20.385342">
				<ele>1004.000000</ele>
			</trkpt>
			<trkpt lat="48.918200" lon="20.385092">
				<ele>1003.000000</ele>
			</trkpt>
			<trkpt lat="48.918507" lon="20.384687">
				<ele>1002.000000</ele>
			</trkpt>
			<trkpt lat="48.918790" lon="20.384346">
				<ele>1002.000000</ele>
			</trkpt>
			<trkpt lat="48.919014" lon="20.384149">
				<ele>1001.000000</ele>
			</trkpt>
			<trkpt lat="48.919469" lon="20.383879">
				<ele>1000.000000</ele>
			</trkpt>
			<trkpt lat="48.919918" lon="20.383547">
				<ele>998.000000</ele>
			</trkpt>
			<trkpt lat="48.920077" lon="20.383394">
				<ele>998.000000</ele>
			</trkpt>
			<trkpt lat="48.920160" lon="20.383223">
				<ele>997.000000</ele>
			</trkpt>
			<trkpt lat="48.920225" lon="20.383044">
				<ele>997.000000</ele>
			</trkpt>
			<trkpt lat="48.920295" lon="20.382944">
				<ele>996.000000</ele>
			</trkpt>
			<trkpt lat="48.920396" lon="20.382845">
				<ele>996.000000</ele>
			</trkpt>
			<trkpt lat="48.920750" lon="20.382631">
				<ele>994.000000</ele>
			</trkpt>
			<trkpt lat="48.921034" lon="20.382459">
				<ele>993.000000</ele>
			</trkpt>
			<trkpt lat="48.921163" lon="20.382432">
				<ele>992.000000</ele>
			</trkpt>
			<trkpt lat="48.921281" lon="20.382478">
				<ele>992.000000</ele>
			</trkpt>
			<trkpt lat="48.921405" lon="20.382594">
				<ele>991.000000</ele>
			</trkpt>
			<trkpt lat="48.921559" lon="20.382864">
				<ele>990.000000</ele>
			</trkpt>
			<trkpt lat="48.921683" lon="20.383178">
				<ele>989.000000</ele>
			</trkpt>
			<trkpt lat="48.921777" lon="20.383438">
				<ele>987.000000</ele>
			</trkpt>
			<trkpt lat="48.921919" lon="20.383987">
				<ele>984.000000</ele>
			</trkpt>
			<trkpt lat="48.922019" lon="20.384363">
				<ele>982.000000</ele>
			</trkpt>
			<trkpt lat="48.922043" lon="20.384535">
				<ele>981.000000</ele>
			</trkpt>
			<trkpt lat="48.922060" lon="20.384912">
				<ele>980.000000</ele>
			</trkpt>
			<trkpt lat="48.922084" lon="20.385038">
				<ele>980.000000</ele>
			</trkpt>
			<trkpt lat="48.922119" lon="20.385092">
				<ele>980.000000</ele>
			</trkpt>
			<trkpt lat="48.922178" lon="20.385136">
				<ele>980.000000</ele>
			</trkpt>
			<trkpt lat="48.922273" lon="20.384948">
				<ele>978.000000</ele>
			</trkpt>
			<trkpt lat="48.922344" lon="20.384813">
				<ele>977.000000</ele>
			</trkpt>
			<trkpt lat="48.922479" lon="20.384552">
				<ele>974.000000</ele>
			</trkpt>
			<trkpt lat="48.922574" lon="20.384247">
				<ele>971.000000</ele>
			</trkpt>
			<trkpt lat="48.922668" lon="20.383879">
				<ele>970.000000</ele>
			</trkpt>
			<trkpt lat="48.922727" lon="20.383573">
				<ele>970.000000</ele>
			</trkpt>
			<trkpt lat="48.922757" lon="20.383340">
				<ele>970.000000</ele>
			</trkpt>
			<trkpt lat="48.922798" lon="20.382881">
				<ele>970.000000</ele>
			</trkpt>
			<trkpt lat="48.922828" lon="20.382541">
				<ele>970.000000</ele>
			</trkpt>
			<trkpt lat="48.922845" lon="20.382306">
				<ele>970.000000</ele>
			</trkpt>
			<trkpt lat="48.922857" lon="20.382037">
				<ele>970.000000</ele>
			</trkpt>
			<trkpt lat="48.922869" lon="20.381929">
				<ele>970.000000</ele>
			</trkpt>
			<trkpt lat="48.922887" lon="20.381849">
				<ele>970.000000</ele>
			</trkpt>
			<trkpt lat="48.922946" lon="20.381678">
				<ele>970.000000</ele>
			</trkpt>
			<trkpt lat="48.922981" lon="20.381552">
				<ele>970.000000</ele>
			</trkpt>
			<trkpt lat="48.923058" lon="20.381543">
				<ele>970.000000</ele>
			</trkpt>
			<trkpt lat="48.923117" lon="20.381499">
				<ele>970.000000</ele>
			</trkpt>
			<trkpt lat="48.923152" lon="20.381390">
				<ele>970.000000</ele>
			</trkpt>
			<trkpt lat="48.923164" lon="20.381310">
				<ele>970.000000</ele>
			</trkpt>
			<trkpt lat="48.923170" lon="20.381174">
				<ele>970.000000</ele>
			</trkpt>
			<trkpt lat="48.923164" lon="20.381040">
				<ele>970.000000</ele>
			</trkpt>
			<trkpt lat="48.923140" lon="20.380933">
				<ele>970.000000</ele>
			</trkpt>
			<trkpt lat="48.923117" lon="20.380815">
				<ele>970.000000</ele>
			</trkpt>
			<trkpt lat="48.923087" lon="20.380698">
				<ele>970.000000</ele>
			</trkpt>
			<trkpt lat="48.923075" lon="20.380555">
				<ele>970.000000</ele>
			</trkpt>
			<trkpt lat="48.923087" lon="20.380421">
				<ele>970.000000</ele>
			</trkpt>
			<trkpt lat="48.923028" lon="20.380304">
				<ele>970.000000</ele>
			</trkpt>
			<trkpt lat="48.922987" lon="20.380195">
				<ele>970.000000</ele>
			</trkpt>
			<trkpt lat="48.922946" lon="20.380052">
				<ele>970.000000</ele>
			</trkpt>
			<trkpt lat="48.922922" lon="20.379863">
				<ele>970.000000</ele>
			</trkpt>
			<trkpt lat="48.922916" lon="20.379656">
				<ele>970.000000</ele>
			</trkpt>
			<trkpt lat="48.922904" lon="20.379306">
				<ele>970.000000</ele>
			</trkpt>
			<trkpt lat="48.922893" lon="20.379055">
				<ele>970.000000</ele>
			</trkpt>
			<trkpt lat="48.922887" lon="20.378813">
				<ele>970.000000</ele>
			</trkpt>
			<trkpt lat="48.922863" lon="20.378650">
				<ele>970.000000</ele>
			</trkpt>
			<trkpt lat="48.922833" lon="20.378552">
				<ele>970.000000</ele>
			</trkpt>
			<trkpt lat="48.922822" lon="20.378507">
				<ele>970.000000</ele>
			</trkpt>
			<trkpt lat="48.922780" lon="20.378434">
				<ele>970.000000</ele>
			</trkpt>
			<trkpt lat="48.922745" lon="20.378408">
				<ele>970.000000</ele>
			</trkpt>
			<trkpt lat="48.922710" lon="20.378390">
				<ele>970.000000</ele>
			</trkpt>
			<trkpt lat="48.922662" lon="20.378399">
				<ele>970.000000</ele>
			</trkpt>
			<trkpt lat="48.922633" lon="20.378417">
				<ele>970.000000</ele>
			</trkpt>
			<trkpt lat="48.922556" lon="20.378497">
				<ele>970.000000</ele>
			</trkpt>
			<trkpt lat="48.922232" lon="20.378857">
				<ele>974.000000</ele>
			</trkpt>
			<trkpt lat="48.922173" lon="20.378884">
				<ele>975.000000</ele>
			</trkpt>
			<trkpt lat="48.922125" lon="20.378902">
				<ele>975.000000</ele>
			</trkpt>
			<trkpt lat="48.922060" lon="20.378902">
				<ele>976.000000</ele>
			</trkpt>
			<trkpt lat="48.922001" lon="20.378884">
				<ele>977.000000</ele>
			</trkpt>
			<trkpt lat="48.921942" lon="20.378849">
				<ele>978.000000</ele>
			</trkpt>
			<trkpt lat="48.921877" lon="20.378803">
				<ele>979.000000</ele>
			</trkpt>
			<trkpt lat="48.921801" lon="20.378723">
				<ele>980.000000</ele>
			</trkpt>
			<trkpt lat="48.921706" lon="20.378606">
				<ele>980.000000</ele>
			</trkpt>
			<trkpt lat="48.921588" lon="20.378444">
				<ele>980.000000</ele>
			</trkpt>
			<trkpt lat="48.921453" lon="20.378273">
				<ele>980.000000</ele>
			</trkpt>
			<trkpt lat="48.921369" lon="20.378147">
				<ele>980.000000</ele>
			</trkpt>
			<trkpt lat="48.921299" lon="20.378004">
				<ele>980.000000</ele>
			</trkpt>
			<trkpt lat="48.921234" lon="20.377842">
				<ele>980.000000</ele>
			</trkpt>
			<trkpt lat="48.921139" lon="20.377572">
				<ele>980.000000</ele>
			</trkpt>
			<trkpt lat="48.921086" lon="20.377402">
				<ele>980.000000</ele>
			</trkpt>
			<trkpt lat="48.921027" lon="20.377159">
				<ele>980.000000</ele>
			</trkpt>
			<trkpt lat="48.920980" lon="20.376836">
				<ele>980.000000</ele>
			</trkpt>
			<trkpt lat="48.920927" lon="20.376432">
				<ele>980.000000</ele>
			</trkpt>
			<trkpt lat="48.920886" lon="20.376063">
				<ele>980.000000</ele>
			</trkpt>
			<trkpt lat="48.920874" lon="20.375929">
				<ele>980.000000</ele>
			</trkpt>
			<trkpt lat="48.920850" lon="20.375813">
				<ele>980.000000</ele>
			</trkpt>
			<trkpt lat="48.920815" lon="20.375686">
				<ele>980.000000</ele>
			</trkpt>
			<trkpt lat="48.920762" lon="20.375560">
				<ele>980.000000</ele>
			</trkpt>
			<trkpt lat="48.920703" lon="20.375425">
				<ele>980.000000</ele>
			</trkpt>
			<trkpt lat="48.920649" lon="20.375255">
				<ele>980.000000</ele>
			</trkpt>
			<trkpt lat="48.920573" lon="20.375004">
				<ele>980.000000</ele>
			</trkpt>
			<trkpt lat="48.920467" lon="20.374868">
				<ele>979.000000</ele>
			</trkpt>
			<trkpt lat="48.920413" lon="20.374788">
				<ele>979.000000</ele>
			</trkpt>
			<trkpt lat="48.920396" lon="20.374671">
				<ele>978.000000</ele>
			</trkpt>
			<trkpt lat="48.920366" lon="20.374555">
				<ele>978.000000</ele>
			</trkpt>
			<trkpt lat="48.920284" lon="20.374365">
				<ele>977.000000</ele>
			</trkpt>
			<trkpt lat="48.920236" lon="20.374186">
				<ele>976.000000</ele>
			</trkpt>
			<trkpt lat="48.920213" lon="20.374115">
				<ele>976.000000</ele>
			</trkpt>
			<trkpt lat="48.920207" lon="20.374042">
				<ele>976.000000</ele>
			</trkpt>
			<trkpt lat="48.920213" lon="20.373935">
				<ele>976.000000</ele>
			</trkpt>
			<trkpt lat="48.920230" lon="20.373836">
				<ele>975.000000</ele>
			</trkpt>
			<trkpt lat="48.920254" lon="20.373665">
				<ele>975.000000</ele>
			</trkpt>
			<trkpt lat="48.920260" lon="20.373530">
				<ele>974.000000</ele>
			</trkpt>
			<trkpt lat="48.920248" lon="20.373413">
				<ele>974.000000</ele>
			</trkpt>
			<trkpt lat="48.920242" lon="20.373287">
				<ele>974.000000</ele>
			</trkpt>
			<trkpt lat="48.920230" lon="20.373073">
				<ele>973.000000</ele>
			</trkpt>
			<trkpt lat="48.920213" lon="20.372901">
				<ele>972.000000</ele>
			</trkpt>
			<trkpt lat="48.920171" lon="20.372731">
				<ele>972.000000</ele>
			</trkpt>
			<trkpt lat="48.920136" lon="20.372614">
				<ele>971.000000</ele>
			</trkpt>
			<trkpt lat="48.920118" lon="20.372507">
				<ele>971.000000</ele>
			</trkpt>
			<trkpt lat="48.920118" lon="20.372362">
				<ele>971.000000</ele>
			</trkpt>
			<trkpt lat="48.920142" lon="20.372192">
				<ele>970.000000</ele>
			</trkpt>
			<trkpt lat="48.920166" lon="20.372057">
				<ele>968.000000</ele>
			</trkpt>
			<trkpt lat="48.920166" lon="20.371905">
				<ele>966.000000</ele>
			</trkpt>
			<trkpt lat="48.920154" lon="20.371769">
				<ele>964.000000</ele>
			</trkpt>
			<trkpt lat="48.920142" lon="20.371599">
				<ele>961.000000</ele>
			</trkpt>
			<trkpt lat="48.920142" lon="20.371446">
				<ele>959.000000</ele>
			</trkpt>
			<trkpt lat="48.920154" lon="20.371329">
				<ele>958.000000</ele>
			</trkpt>
			<trkpt lat="48.920183" lon="20.371222">
				<ele>956.000000</ele>
			</trkpt>
			<trkpt lat="48.920248" lon="20.371123">
				<ele>954.000000</ele>
			</trkpt>
			<trkpt lat="48.920337" lon="20.371006">
				<ele>951.000000</ele>
			</trkpt>
			<trkpt lat="48.920402" lon="20.370889">
				<ele>950.000000</ele>
			</trkpt>
			<trkpt lat="48.920461" lon="20.370746">
				<ele>949.000000</ele>
			</trkpt>
			<trkpt lat="48.920508" lon="20.370566">
				<ele>949.000000</ele>
			</trkpt>
			<trkpt lat="48.920537" lon="20.370440">
				<ele>948.000000</ele>
			</trkpt>
			<trkpt lat="48.920567" lon="20.370350">
				<ele>948.000000</ele>
			</trkpt>
			<trkpt lat="48.920608" lon="20.370251">
				<ele>947.000000</ele>
			</trkpt>
			<trkpt lat="48.920667" lon="20.370090">
				<ele>947.000000</ele>
			</trkpt>
			<trkpt lat="48.920732" lon="20.369892">
				<ele>946.000000</ele>
			</trkpt>
			<trkpt lat="48.920785" lon="20.369658">
				<ele>945.000000</ele>
			</trkpt>
			<trkpt lat="48.920832" lon="20.369318">
				<ele>944.000000</ele>
			</trkpt>
			<trkpt lat="48.920862" lon="20.369191">
				<ele>944.000000</ele>
			</trkpt>
			<trkpt lat="48.920838" lon="20.369039">
				<ele>943.000000</ele>
			</trkpt>
			<trkpt lat="48.920838" lon="20.368966">
				<ele>943.000000</ele>
			</trkpt>
			<trkpt lat="48.920844" lon="20.368876">
				<ele>942.000000</ele>
			</trkpt>
			<trkpt lat="48.920862" lon="20.368769">
				<ele>942.000000</ele>
			</trkpt>
			<trkpt lat="48.920927" lon="20.368580">
				<ele>941.000000</ele>
			</trkpt>
			<trkpt lat="48.921063" lon="20.368212">
				<ele>940.000000</ele>
			</trkpt>
			<trkpt lat="48.921152" lon="20.367987">
				<ele>939.000000</ele>
			</trkpt>
			<trkpt lat="48.921246" lon="20.367655">
				<ele>938.000000</ele>
			</trkpt>
			<trkpt lat="48.921388" lon="20.367224">
				<ele>937.000000</ele>
			</trkpt>
			<trkpt lat="48.921476" lon="20.366972">
				<ele>936.000000</ele>
			</trkpt>
			<trkpt lat="48.921523" lon="20.366865">
				<ele>936.000000</ele>
			</trkpt>
			<trkpt lat="48.921606" lon="20.366748">
				<ele>935.000000</ele>
			</trkpt>
			<trkpt lat="48.921706" lon="20.366613">
				<ele>935.000000</ele>
			</trkpt>
			<trkpt lat="48.921765" lon="20.366541">
				<ele>935.000000</ele>
			</trkpt>
			<trkpt lat="48.921807" lon="20.366469">
				<ele>934.000000</ele>
			</trkpt>
			<trkpt lat="48.921848" lon="20.366379">
				<ele>934.000000</ele>
			</trkpt>
			<trkpt lat="48.921901" lon="20.366254">
				<ele>934.000000</ele>
			</trkpt>
			<trkpt lat="48.921936" lon="20.366119">
				<ele>933.000000</ele>
			</trkpt>
			<trkpt lat="48.921966" lon="20.365993">
				<ele>933.000000</ele>
			</trkpt>
			<trkpt lat="48.922007" lon="20.365867">
				<ele>933.000000</ele>
			</trkpt>
			<trkpt lat="48.922090" lon="20.365715">
				<ele>932.000000</ele>
			</trkpt>
			<trkpt lat="48.922202" lon="20.365517">
				<ele>931.000000</ele>
			</trkpt>
			<trkpt lat="48.922426" lon="20.365167">
				<ele>930.000000</ele>
			</trkpt>
			<trkpt lat="48.922715" lon="20.364763">
				<ele>930.000000</ele>
			</trkpt>
			<trkpt lat="48.922792" lon="20.364637">
				<ele>930.000000</ele>
			</trkpt>
			<trkpt lat="48.922839" lon="20.364547">
				<ele>930.000000</ele>
			</trkpt>
			<trkpt lat="48.922863" lon="20.364475">
				<ele>930.000000</ele>
			</trkpt>
			<trkpt lat="48.922881" lon="20.364377">
				<ele>930.000000</ele>
			</trkpt>
			<trkpt lat="48.922887" lon="20.364295">
				<ele>930.000000</ele>
			</trkpt>
			<trkpt lat="48.922893" lon="20.364152">
				<ele>930.000000</ele>
			</trkpt>
			<trkpt lat="48.922739" lon="20.363576">
				<ele>930.000000</ele>
			</trkpt>
			<trkpt lat="48.922651" lon="20.363217">
				<ele>930.000000</ele>
			</trkpt>
			<trkpt lat="48.922597" lon="20.362983">
				<ele>930.000000</ele>
			</trkpt>
			<trkpt lat="48.922562" lon="20.362760">
				<ele>930.000000</ele>
			</trkpt>
			<trkpt lat="48.922456" lon="20.362410">
				<ele>930.000000</ele>
			</trkpt>
			<trkpt lat="48.922391" lon="20.362211">
				<ele>930.000000</ele>
			</trkpt>
			<trkpt lat="48.922367" lon="20.362077">
				<ele>930.000000</ele>
			</trkpt>
			<trkpt lat="48.922355" lon="20.361933">
				<ele>930.000000</ele>
			</trkpt>
			<trkpt lat="48.922355" lon="20.361789">
				<ele>931.000000</ele>
			</trkpt>
			<trkpt lat="48.922373" lon="20.361672">
				<ele>931.000000</ele>
			</trkpt>
			<trkpt lat="48.922420" lon="20.361412">
				<ele>933.000000</ele>
			</trkpt>
			<trkpt lat="48.922438" lon="20.361331">
				<ele>933.000000</ele>
			</trkpt>
			<trkpt lat="48.922456" lon="20.361215">
				<ele>934.000000</ele>
			</trkpt>
			<trkpt lat="48.922462" lon="20.361089">
				<ele>934.000000</ele>
			</trkpt>
			<trkpt lat="48.922444" lon="20.360873">
				<ele>936.000000</ele>
			</trkpt>
			<trkpt lat="48.922426" lon="20.360738">
				<ele>936.000000</ele>
			</trkpt>
			<trkpt lat="48.922432" lon="20.360603">
				<ele>937.000000</ele>
			</trkpt>
			<trkpt lat="48.922456" lon="20.360450">
				<ele>938.000000</ele>
			</trkpt>
			<trkpt lat="48.922462" lon="20.360415">
				<ele>938.000000</ele>
			</trkpt>
			<trkpt lat="48.922462" lon="20.360415">
				<ele>938.000000</ele>
			</trkpt>
			<trkpt lat="48.922491" lon="20.360289">
				<ele>939.000000</ele>
			</trkpt>
			<trkpt lat="48.922521" lon="20.360181">
				<ele>939.000000</ele>
			</trkpt>
			<trkpt lat="48.922562" lon="20.360110">
				<ele>940.000000</ele>
			</trkpt>
			<trkpt lat="48.922621" lon="20.360046">
				<ele>941.000000</ele>
			</trkpt>
			<trkpt lat="48.922668" lon="20.360001">
				<ele>941.000000</ele>
			</trkpt>
			<trkpt lat="48.922721" lon="20.359920">
				<ele>942.000000</ele>
			</trkpt>
			<trkpt lat="48.922780" lon="20.359813">
				<ele>943.000000</ele>
			</trkpt>
			<trkpt lat="48.922822" lon="20.359678">
				<ele>943.000000</ele>
			</trkpt>
			<trkpt lat="48.922904" lon="20.359408">
				<ele>945.000000</ele>
			</trkpt>
			<trkpt lat="48.922993" lon="20.359148">
				<ele>947.000000</ele>
			</trkpt>
			<trkpt lat="48.923058" lon="20.358924">
				<ele>948.000000</ele>
			</trkpt>
			<trkpt lat="48.923081" lon="20.358691">
				<ele>949.000000</ele>
			</trkpt>
			<trkpt lat="48.923093" lon="20.358448">
				<ele>950.000000</ele>
			</trkpt>
			<trkpt lat="48.923081" lon="20.358169">
				<ele>950.000000</ele>
			</trkpt>
			<trkpt lat="48.923081" lon="20.357926">
				<ele>950.000000</ele>
			</trkpt>
			<trkpt lat="48.923093" lon="20.357810">
				<ele>950.000000</ele>
			</trkpt>
			<trkpt lat="48.923123" lon="20.357639">
				<ele>950.000000</ele>
			</trkpt>
			<trkpt lat="48.923188" lon="20.357406">
				<ele>950.000000</ele>
			</trkpt>
			<trkpt lat="48.923252" lon="20.357154">
				<ele>950.000000</ele>
			</trkpt>
			<trkpt lat="48.923288" lon="20.356875">
				<ele>950.000000</ele>
			</trkpt>
			<trkpt lat="48.923306" lon="20.356588">
				<ele>950.000000</ele>
			</trkpt>
			<trkpt lat="48.923311" lon="20.356408">
				<ele>950.000000</ele>
			</trkpt>
			<trkpt lat="48.923311" lon="20.356238">
				<ele>950.000000</ele>
			</trkpt>
			<trkpt lat="48.923317" lon="20.356094">
				<ele>950.000000</ele>
			</trkpt>
			<trkpt lat="48.923342" lon="20.355923">
				<ele>950.000000</ele>
			</trkpt>
			<trkpt lat="48.923376" lon="20.355762">
				<ele>950.000000</ele>
			</trkpt>
			<trkpt lat="48.923448" lon="20.355582">
				<ele>950.000000</ele>
			</trkpt>
			<trkpt lat="48.923507" lon="20.355446">
				<ele>950.000000</ele>
			</trkpt>
			<trkpt lat="48.923572" lon="20.355295">
				<ele>950.000000</ele>
			</trkpt>
			<trkpt lat="48.923660" lon="20.355133">
				<ele>950.000000</ele>
			</trkpt>
			<trkpt lat="48.923760" lon="20.354997">
				<ele>950.000000</ele>
			</trkpt>
			<trkpt lat="48.923861" lon="20.354899">
				<ele>950.000000</ele>
			</trkpt>
			<trkpt lat="48.923985" lon="20.354809">
				<ele>950.000000</ele>
			</trkpt>
			<trkpt lat="48.924126" lon="20.354764">
				<ele>950.000000</ele>
			</trkpt>
			<trkpt lat="48.924274" lon="20.354683">
				<ele>950.000000</ele>
			</trkpt>
			<trkpt lat="48.924374" lon="20.354639">
				<ele>950.000000</ele>
			</trkpt>
			<trkpt lat="48.924492" lon="20.354603">
				<ele>950.000000</ele>
			</trkpt>
			<trkpt lat="48.924622" lon="20.354521">
				<ele>950.000000</ele>
			</trkpt>
			<trkpt lat="48.924740" lon="20.354467">
				<ele>950.000000</ele>
			</trkpt>
			<trkpt lat="48.924817" lon="20.354450">
				<ele>950.000000</ele>
			</trkpt>
			<trkpt lat="48.924935" lon="20.354423">
				<ele>950.000000</ele>
			</trkpt>
			<trkpt lat="48.925065" lon="20.354387">
				<ele>950.000000</ele>
			</trkpt>
			<trkpt lat="48.925218" lon="20.354280">
				<ele>950.000000</ele>
			</trkpt>
			<trkpt lat="48.925436" lon="20.354045">
				<ele>950.000000</ele>
			</trkpt>
			<trkpt lat="48.925520" lon="20.353893">
				<ele>950.000000</ele>
			</trkpt>
			<trkpt lat="48.925590" lon="20.353641">
				<ele>950.000000</ele>
			</trkpt>
			<trkpt lat="48.925625" lon="20.353425">
				<ele>949.000000</ele>
			</trkpt>
			<trkpt lat="48.925667" lon="20.353265">
				<ele>949.000000</ele>
			</trkpt>
			<trkpt lat="48.925714" lon="20.353102">
				<ele>948.000000</ele>
			</trkpt>
			<trkpt lat="48.925731" lon="20.352959">
				<ele>948.000000</ele>
			</trkpt>
			<trkpt lat="48.925743" lon="20.352743">
				<ele>947.000000</ele>
			</trkpt>
			<trkpt lat="48.925767" lon="20.352546">
				<ele>947.000000</ele>
			</trkpt>
			<trkpt lat="48.925802" lon="20.352393">
				<ele>946.000000</ele>
			</trkpt>
			<trkpt lat="48.925844" lon="20.352294">
				<ele>946.000000</ele>
			</trkpt>
			<trkpt lat="48.925903" lon="20.352204">
				<ele>946.000000</ele>
			</trkpt>
			<trkpt lat="48.925992" lon="20.352141">
				<ele>945.000000</ele>
			</trkpt>
			<trkpt lat="48.926133" lon="20.352060">
				<ele>945.000000</ele>
			</trkpt>
			<trkpt lat="48.926352" lon="20.351953">
				<ele>944.000000</ele>
			</trkpt>
			<trkpt lat="48.926599" lon="20.351817">
				<ele>943.000000</ele>
			</trkpt>
			<trkpt lat="48.926717" lon="20.351781">
				<ele>942.000000</ele>
			</trkpt>
			<trkpt lat="48.926818" lon="20.351791">
				<ele>942.000000</ele>
			</trkpt>
			<trkpt lat="48.926983" lon="20.351863">
				<ele>941.000000</ele>
			</trkpt>
			<trkpt lat="48.927243" lon="20.352070">
				<ele>940.000000</ele>
			</trkpt>
			<trkpt lat="48.927467" lon="20.352249">
				<ele>938.000000</ele>
			</trkpt>
			<trkpt lat="48.927650" lon="20.352330">
				<ele>937.000000</ele>
			</trkpt>
			<trkpt lat="48.927774" lon="20.352393">
				<ele>936.000000</ele>
			</trkpt>
			<trkpt lat="48.927868" lon="20.352410">
				<ele>935.000000</ele>
			</trkpt>
			<trkpt lat="48.927986" lon="20.352410">
				<ele>934.000000</ele>
			</trkpt>
			<trkpt lat="48.928175" lon="20.352375">
				<ele>932.000000</ele>
			</trkpt>
			<trkpt lat="48.928299" lon="20.352339">
				<ele>931.000000</ele>
			</trkpt>
			<trkpt lat="48.928381" lon="20.352286">
				<ele>930.000000</ele>
			</trkpt>
			<trkpt lat="48.928453" lon="20.352204">
				<ele>930.000000</ele>
			</trkpt>
			<trkpt lat="48.928648" lon="20.351917">
				<ele>928.000000</ele>
			</trkpt>
			<trkpt lat="48.928748" lon="20.351720">
				<ele>927.000000</ele>
			</trkpt>
			<trkpt lat="48.928813" lon="20.351530">
				<ele>926.000000</ele>
			</trkpt>
			<trkpt lat="48.928872" lon="20.351324">
				<ele>925.000000</ele>
			</trkpt>
			<trkpt lat="48.928943" lon="20.351171">
				<ele>925.000000</ele>
			</trkpt>
			<trkpt lat="48.929066" lon="20.351081">
				<ele>924.000000</ele>
			</trkpt>
			<trkpt lat="48.929226" lon="20.351091">
				<ele>923.000000</ele>
			</trkpt>
			<trkpt lat="48.929362" lon="20.351091">
				<ele>922.000000</ele>
			</trkpt>
			<trkpt lat="48.929474" lon="20.351054">
				<ele>921.000000</ele>
			</trkpt>
			<trkpt lat="48.929544" lon="20.351009">
				<ele>921.000000</ele>
			</trkpt>
			<trkpt lat="48.929627" lon="20.350955">
				<ele>920.000000</ele>
			</trkpt>
			<trkpt lat="48.929845" lon="20.350865">
				<ele>920.000000</ele>
			</trkpt>
			<trkpt lat="48.929963" lon="20.350802">
				<ele>920.000000</ele>
			</trkpt>
			<trkpt lat="48.930040" lon="20.350758">
				<ele>920.000000</ele>
			</trkpt>
			<trkpt lat="48.930111" lon="20.350731">
				<ele>920.000000</ele>
			</trkpt>
			<trkpt lat="48.930211" lon="20.350731">
				<ele>920.000000</ele>
			</trkpt>
			<trkpt lat="48.930312" lon="20.350775">
				<ele>920.000000</ele>
			</trkpt>
			<trkpt lat="48.930424" lon="20.350865">
				<ele>920.000000</ele>
			</trkpt>
			<trkpt lat="48.930512" lon="20.350955">
				<ele>920.000000</ele>
			</trkpt>
			<trkpt lat="48.930553" lon="20.350982">
				<ele>920.000000</ele>
			</trkpt>
			<trkpt lat="48.930601" lon="20.351001">
				<ele>920.000000</ele>
			</trkpt>
			<trkpt lat="48.930666" lon="20.351009">
				<ele>920.000000</ele>
			</trkpt>
			<trkpt lat="48.930742" lon="20.350991">
				<ele>919.000000</ele>
			</trkpt>
			<trkpt lat="48.930884" lon="20.350865">
				<ele>916.000000</ele>
			</trkpt>
			<trkpt lat="48.931025" lon="20.350794">
				<ele>913.000000</ele>
			</trkpt>
			<trkpt lat="48.931085" lon="20.350758">
				<ele>912.000000</ele>
			</trkpt>
			<trkpt lat="48.931138" lon="20.350678">
				<ele>911.000000</ele>
			</trkpt>
			<trkpt lat="48.931185" lon="20.350506">
				<ele>909.000000</ele>
			</trkpt>
			<trkpt lat="48.931233" lon="20.350336">
				<ele>907.000000</ele>
			</trkpt>
			<trkpt lat="48.931256" lon="20.350146">
				<ele>905.000000</ele>
			</trkpt>
			<trkpt lat="48.931262" lon="20.349995">
				<ele>904.000000</ele>
			</trkpt>
			<trkpt lat="48.931274" lon="20.349833">
				<ele>902.000000</ele>
			</trkpt>
			<trkpt lat="48.931315" lon="20.349680">
				<ele>901.000000</ele>
			</trkpt>
			<trkpt lat="48.931368" lon="20.349554">
				<ele>899.000000</ele>
			</trkpt>
			<trkpt lat="48.931463" lon="20.349437">
				<ele>897.000000</ele>
			</trkpt>
			<trkpt lat="48.931592" lon="20.349320">
				<ele>894.000000</ele>
			</trkpt>
			<trkpt lat="48.931693" lon="20.349249">
				<ele>892.000000</ele>
			</trkpt>
			<trkpt lat="48.931769" lon="20.349204">
				<ele>890.000000</ele>
			</trkpt>
			<trkpt lat="48.931858" lon="20.349204">
				<ele>890.000000</ele>
			</trkpt>
			<trkpt lat="48.931970" lon="20.349213">
				<ele>889.000000</ele>
			</trkpt>
			<trkpt lat="48.932070" lon="20.349249">
				<ele>889.000000</ele>
			</trkpt>
			<trkpt lat="48.932177" lon="20.349320">
				<ele>888.000000</ele>
			</trkpt>
			<trkpt lat="48.932360" lon="20.349509">
				<ele>887.000000</ele>
			</trkpt>
			<trkpt lat="48.932454" lon="20.349580">
				<ele>887.000000</ele>
			</trkpt>
			<trkpt lat="48.932631" lon="20.349662">
				<ele>886.000000</ele>
			</trkpt>
			<trkpt lat="48.932773" lon="20.349689">
				<ele>885.000000</ele>
			</trkpt>
			<trkpt lat="48.932926" lon="20.349697">
				<ele>885.000000</ele>
			</trkpt>
			<trkpt lat="48.933085" lon="20.349662">
				<ele>884.000000</ele>
			</trkpt>
			<trkpt lat="48.933215" lon="20.349617">
				<ele>884.000000</ele>
			</trkpt>
			<trkpt lat="48.933351" lon="20.349527">
				<ele>883.000000</ele>
			</trkpt>
			<trkpt lat="48.933445" lon="20.349464">
				<ele>883.000000</ele>
			</trkpt>
			<trkpt lat="48.933528" lon="20.349410">
				<ele>882.000000</ele>
			</trkpt>
			<trkpt lat="48.933605" lon="20.349383">
				<ele>882.000000</ele>
			</trkpt>
			<trkpt lat="48.933675" lon="20.349410">
				<ele>882.000000</ele>
			</trkpt>
			<trkpt lat="48.933734" lon="20.349429">
				<ele>881.000000</ele>
			</trkpt>
			<trkpt lat="48.933852" lon="20.349446">
				<ele>881.000000</ele>
			</trkpt>
			<trkpt lat="48.933989" lon="20.349456">
				<ele>880.000000</ele>
			</trkpt>
			<trkpt lat="48.934160" lon="20.349464">
				<ele>877.000000</ele>
			</trkpt>
			<trkpt lat="48.934360" lon="20.349483">
				<ele>872.000000</ele>
			</trkpt>
			<trkpt lat="48.934573" lon="20.349483">
				<ele>868.000000</ele>
			</trkpt>
			<trkpt lat="48.934791" lon="20.349509">
				<ele>864.000000</ele>
			</trkpt>
			<trkpt lat="48.934956" lon="20.349572">
				<ele>861.000000</ele>
			</trkpt>
			<trkpt lat="48.935056" lon="20.349563">
				<ele>859.000000</ele>
			</trkpt>
			<trkpt lat="48.935127" lon="20.349563">
				<ele>858.000000</ele>
			</trkpt>
			<trkpt lat="48.935174" lon="20.349536">
				<ele>857.000000</ele>
			</trkpt>
			<trkpt lat="48.935222" lon="20.349491">
				<ele>856.000000</ele>
			</trkpt>
			<trkpt lat="48.935245" lon="20.349420">
				<ele>855.000000</ele>
			</trkpt>
			<trkpt lat="48.935269" lon="20.349303">
				<ele>854.000000</ele>
			</trkpt>
			<trkpt lat="48.935281" lon="20.349230">
				<ele>853.000000</ele>
			</trkpt>
			<trkpt lat="48.935292" lon="20.349204">
				<ele>852.000000</ele>
			</trkpt>
			<trkpt lat="48.935328" lon="20.349177">
				<ele>852.000000</ele>
			</trkpt>
			<trkpt lat="48.935405" lon="20.349141">
				<ele>850.000000</ele>
			</trkpt>
			<trkpt lat="48.935505" lon="20.349070">
				<ele>848.000000</ele>
			</trkpt>
			<trkpt lat="48.935552" lon="20.348898">
				<ele>846.000000</ele>
			</trkpt>
			<trkpt lat="48.935576" lon="20.348764">
				<ele>844.000000</ele>
			</trkpt>
			<trkpt lat="48.935587" lon="20.348638">
				<ele>843.000000</ele>
			</trkpt>
			<trkpt lat="48.935564" lon="20.348251">
				<ele>838.000000</ele>
			</trkpt>
			<trkpt lat="48.935546" lon="20.347883">
				<ele>832.000000</ele>
			</trkpt>
			<trkpt lat="48.935540" lon="20.347542">
				<ele>827.000000</ele>
			</trkpt>
			<trkpt lat="48.935517" lon="20.347192">
				<ele>823.000000</ele>
			</trkpt>
			<trkpt lat="48.935475" lon="20.346949">
				<ele>820.000000</ele>
			</trkpt>
			<trkpt lat="48.935446" lon="20.346670">
				<ele>818.000000</ele>
			</trkpt>
			<trkpt lat="48.935434" lon="20.346517">
				<ele>816.000000</ele>
			</trkpt>
			<trkpt lat="48.935446" lon="20.346123">
				<ele>812.000000</ele>
			</trkpt>
			<trkpt lat="48.935434" lon="20.345970">
				<ele>811.000000</ele>
			</trkpt>
			<trkpt lat="48.935416" lon="20.345638">
				<ele>808.000000</ele>
			</trkpt>
			<trkpt lat="48.935393" lon="20.345296">
				<ele>805.000000</ele>
			</trkpt>
			<trkpt lat="48.935357" lon="20.344982">
				<ele>802.000000</ele>
			</trkpt>
			<trkpt lat="48.935298" lon="20.344676">
				<ele>799.000000</ele>
			</trkpt>
			<trkpt lat="48.935239" lon="20.344443">
				<ele>796.000000</ele>
			</trkpt>
			<trkpt lat="48.935157" lon="20.344246">
				<ele>794.000000</ele>
			</trkpt>
			<trkpt lat="48.935074" lon="20.344056">
				<ele>792.000000</ele>
			</trkpt>
			<trkpt lat="48.934944" lon="20.343841">
				<ele>789.000000</ele>
			</trkpt>
			<trkpt lat="48.934915" lon="20.343796">
				<ele>789.000000</ele>
			</trkpt>
			<trkpt lat="48.934891" lon="20.343741">
				<ele>788.000000</ele>
			</trkpt>
			<trkpt lat="48.934879" lon="20.343688">
				<ele>787.000000</ele>
			</trkpt>
			<trkpt lat="48.934879" lon="20.343607">
				<ele>786.000000</ele>
			</trkpt>
			<trkpt lat="48.934921" lon="20.343527">
				<ele>785.000000</ele>
			</trkpt>
			<trkpt lat="48.934956" lon="20.343473">
				<ele>784.000000</ele>
			</trkpt>
			<trkpt lat="48.935021" lon="20.343418">
				<ele>782.000000</ele>
			</trkpt>
			<trkpt lat="48.935092" lon="20.343364">
				<ele>781.000000</ele>
			</trkpt>
			<trkpt lat="48.935174" lon="20.343347">
				<ele>780.000000</ele>
			</trkpt>
			<trkpt lat="48.935233" lon="20.343338">
				<ele>779.000000</ele>
			</trkpt>
			<trkpt lat="48.935298" lon="20.343338">
				<ele>777.000000</ele>
			</trkpt>
			<trkpt lat="48.935422" lon="20.343347">
				<ele>775.000000</ele>
			</trkpt>
			<trkpt lat="48.935770" lon="20.343391">
				<ele>769.000000</ele>
			</trkpt>
			<trkpt lat="48.935959" lon="20.343428">
				<ele>768.000000</ele>
			</trkpt>
			<trkpt lat="48.936030" lon="20.343445">
				<ele>767.000000</ele>
			</trkpt>
			<trkpt lat="48.936166" lon="20.343527">
				<ele>766.000000</ele>
			</trkpt>
			<trkpt lat="48.936266" lon="20.343590">
				<ele>765.000000</ele>
			</trkpt>
			<trkpt lat="48.936337" lon="20.343634">
				<ele>764.000000</ele>
			</trkpt>
			<trkpt lat="48.936402" lon="20.343706">
				<ele>763.000000</ele>
			</trkpt>
			<trkpt lat="48.936455" lon="20.343823">
				<ele>762.000000</ele>
			</trkpt>
			<trkpt lat="48.936484" lon="20.343913">
				<ele>762.000000</ele>
			</trkpt>
			<trkpt lat="48.936502" lon="20.344003">
				<ele>761.000000</ele>
			</trkpt>
			<trkpt lat="48.936502" lon="20.344120">
				<ele>760.000000</ele>
			</trkpt>
			<trkpt lat="48.936514" lon="20.344209">
				<ele>760.000000</ele>
			</trkpt>
			<trkpt lat="48.936537" lon="20.344299">
				<ele>759.000000</ele>
			</trkpt>
			<trkpt lat="48.936579" lon="20.344380">
				<ele>759.000000</ele>
			</trkpt>
			<trkpt lat="48.936638" lon="20.344460">
				<ele>758.000000</ele>
			</trkpt>
			<trkpt lat="48.936756" lon="20.344569">
				<ele>758.000000</ele>
			</trkpt>
			<trkpt lat="48.936844" lon="20.344659">
				<ele>757.000000</ele>
			</trkpt>
			<trkpt lat="48.936903" lon="20.344730">
				<ele>756.000000</ele>
			</trkpt>
			<trkpt lat="48.936950" lon="20.344785">
				<ele>756.000000</ele>
			</trkpt>
			<trkpt lat="48.937004" lon="20.344812">
				<ele>756.000000</ele>
			</trkpt>
			<trkpt lat="48.937098" lon="20.344820">
				<ele>755.000000</ele>
			</trkpt>
			<trkpt lat="48.937234" lon="20.344802">
				<ele>754.000000</ele>
			</trkpt>
			<trkpt lat="48.937299" lon="20.344793">
				<ele>754.000000</ele>
			</trkpt>
			<trkpt lat="48.937358" lon="20.344793">
				<ele>753.000000</ele>
			</trkpt>
			<trkpt lat="48.937429" lon="20.344820">
				<ele>753.000000</ele>
			</trkpt>
			<trkpt lat="48.937481" lon="20.344856">
				<ele>753.000000</ele>
			</trkpt>
			<trkpt lat="48.937529" lon="20.344909">
				<ele>752.000000</ele>
			</trkpt>
			<trkpt lat="48.937683" lon="20.345135">
				<ele>751.000000</ele>
			</trkpt>
			<trkpt lat="48.937824" lon="20.345368">
				<ele>749.000000</ele>
			</trkpt>
			<trkpt lat="48.937883" lon="20.345502">
				<ele>748.000000</ele>
			</trkpt>
			<trkpt lat="48.937924" lon="20.345638">
				<ele>747.000000</ele>
			</trkpt>
			<trkpt lat="48.937960" lon="20.345764">
				<ele>745.000000</ele>
			</trkpt>
			<trkpt lat="48.937989" lon="20.345808">
				<ele>745.000000</ele>
			</trkpt>
			<trkpt lat="48.938031" lon="20.345844">
				<ele>744.000000</ele>
			</trkpt>
			<trkpt lat="48.938090" lon="20.345844">
				<ele>744.000000</ele>
			</trkpt>
			<trkpt lat="48.938219" lon="20.345827">
				<ele>742.000000</ele>
			</trkpt>
			<trkpt lat="48.938379" lon="20.345754">
				<ele>740.000000</ele>
			</trkpt>
			<trkpt lat="48.938473" lon="20.345691">
				<ele>739.000000</ele>
			</trkpt>
			<trkpt lat="48.938568" lon="20.345628">
				<ele>738.000000</ele>
			</trkpt>
			<trkpt lat="48.938638" lon="20.345584">
				<ele>737.000000</ele>
			</trkpt>
			<trkpt lat="48.938703" lon="20.345565">
				<ele>736.000000</ele>
			</trkpt>
			<trkpt lat="48.938768" lon="20.345557">
				<ele>736.000000</ele>
			</trkpt>
			<trkpt lat="48.938815" lon="20.345557">
				<ele>735.000000</ele>
			</trkpt>
			<trkpt lat="48.938874" lon="20.345584">
				<ele>735.000000</ele>
			</trkpt>
			<trkpt lat="48.938939" lon="20.345638">
				<ele>734.000000</ele>
			</trkpt>
			<trkpt lat="48.938998" lon="20.345691">
				<ele>733.000000</ele>
			</trkpt>
			<trkpt lat="48.939152" lon="20.345907">
				<ele>731.000000</ele>
			</trkpt>
			<trkpt lat="48.939252" lon="20.346060">
				<ele>730.000000</ele>
			</trkpt>
			<trkpt lat="48.939346" lon="20.346275">
				<ele>728.000000</ele>
			</trkpt>
			<trkpt lat="48.939393" lon="20.346420">
				<ele>727.000000</ele>
			</trkpt>
			<trkpt lat="48.939447" lon="20.346599">
				<ele>725.000000</ele>
			</trkpt>
			<trkpt lat="48.939476" lon="20.346724">
				<ele>725.000000</ele>
			</trkpt>
			<trkpt lat="48.939500" lon="20.346770">
				<ele>724.000000</ele>
			</trkpt>
			<trkpt lat="48.939541" lon="20.346806">
				<ele>724.000000</ele>
			</trkpt>
			<trkpt lat="48.939606" lon="20.346841">
				<ele>723.000000</ele>
			</trkpt>
			<trkpt lat="48.939736" lon="20.346904">
				<ele>722.000000</ele>
			</trkpt>
			<trkpt lat="48.939812" lon="20.346940">
				<ele>721.000000</ele>
			</trkpt>
			<trkpt lat="48.939966" lon="20.346976">
				<ele>718.000000</ele>
			</trkpt>
			<trkpt lat="48.940090" lon="20.347039">
				<ele>716.000000</ele>
			</trkpt>
			<trkpt lat="48.940178" lon="20.347093">
				<ele>714.000000</ele>
			</trkpt>
			<trkpt lat="48.940385" lon="20.347219">
				<ele>710.000000</ele>
			</trkpt>
			<trkpt lat="48.940603" lon="20.347372">
				<ele>706.000000</ele>
			</trkpt>
			<trkpt lat="48.940697" lon="20.347515">
				<ele>703.000000</ele>
			</trkpt>
			<trkpt lat="48.940769" lon="20.347668">
				<ele>701.000000</ele>
			</trkpt>
			<trkpt lat="48.940834" lon="20.347848">
				<ele>698.000000</ele>
			</trkpt>
			<trkpt lat="48.940887" lon="20.347865">
				<ele>696.000000</ele>
			</trkpt>
			<trkpt lat="48.940927" lon="20.347848">
				<ele>695.000000</ele>
			</trkpt>
			<trkpt lat="48.940957" lon="20.347766">
				<ele>694.000000</ele>
			</trkpt>
			<trkpt lat="48.940963" lon="20.347632">
				<ele>691.000000</ele>
			</trkpt>
			<trkpt lat="48.940957" lon="20.347372">
				<ele>687.000000</ele>
			</trkpt>
			<trkpt lat="48.940927" lon="20.347093">
				<ele>682.000000</ele>
			</trkpt>
			<trkpt lat="48.940868" lon="20.346814">
				<ele>677.000000</ele>
			</trkpt>
			<trkpt lat="48.940809" lon="20.346626">
				<ele>675.000000</ele>
			</trkpt>
			<trkpt lat="48.940632" lon="20.346041">
				<ele>666.000000</ele>
			</trkpt>
			<trkpt lat="48.940573" lon="20.345970">
				<ele>665.000000</ele>
			</trkpt>
			<trkpt lat="48.940526" lon="20.345925">
				<ele>664.000000</ele>
			</trkpt>
			<trkpt lat="48.940485" lon="20.345871">
				<ele>663.000000</ele>
			</trkpt>
			<trkpt lat="48.940503" lon="20.345835">
				<ele>662.000000</ele>
			</trkpt>
			<trkpt lat="48.940539" lon="20.345799">
				<ele>661.000000</ele>
			</trkpt>
			<trkpt lat="48.940573" lon="20.345781">
				<ele>660.000000</ele>
			</trkpt>
			<trkpt lat="48.940651" lon="20.345791">
				<ele>659.000000</ele>
			</trkpt>
			<trkpt lat="48.940745" lon="20.345835">
				<ele>656.000000</ele>
			</trkpt>
			<trkpt lat="48.940916" lon="20.345898">
				<ele>651.000000</ele>
			</trkpt>
			<trkpt lat="48.941134" lon="20.346024">
				<ele>645.000000</ele>
			</trkpt>
			<trkpt lat="48.941282" lon="20.346087">
				<ele>641.000000</ele>
			</trkpt>
			<trkpt lat="48.941418" lon="20.346204">
				<ele>637.000000</ele>
			</trkpt>
			<trkpt lat="48.941530" lon="20.346267">
				<ele>634.000000</ele>
			</trkpt>
			<trkpt lat="48.941659" lon="20.346374">
				<ele>630.000000</ele>
			</trkpt>
			<trkpt lat="48.941772" lon="20.346454">
				<ele>627.000000</ele>
			</trkpt>
			<trkpt lat="48.941954" lon="20.346527">
				<ele>622.000000</ele>
			</trkpt>
			<trkpt lat="48.942108" lon="20.346617">
				<ele>617.000000</ele>
			</trkpt>
			<trkpt lat="48.942202" lon="20.346653">
				<ele>614.000000</ele>
			</trkpt>
			<trkpt lat="48.942320" lon="20.346653">
				<ele>611.000000</ele>
			</trkpt>
			<trkpt lat="48.942438" lon="20.346697">
				<ele>608.000000</ele>
			</trkpt>
			<trkpt lat="48.942544" lon="20.346724">
				<ele>605.000000</ele>
			</trkpt>
			<trkpt lat="48.942651" lon="20.346733">
				<ele>602.000000</ele>
			</trkpt>
			<trkpt lat="48.942721" lon="20.346716">
				<ele>600.000000</ele>
			</trkpt>
			<trkpt lat="48.942751" lon="20.346697">
				<ele>600.000000</ele>
			</trkpt>
			<trkpt lat="48.942780" lon="20.346670">
				<ele>599.000000</ele>
			</trkpt>
			<trkpt lat="48.942828" lon="20.346590">
				<ele>598.000000</ele>
			</trkpt>
			<trkpt lat="48.942910" lon="20.346410">
				<ele>595.000000</ele>
			</trkpt>
			<trkpt lat="48.943011" lon="20.346267">
				<ele>593.000000</ele>
			</trkpt>
			<trkpt lat="48.943058" lon="20.346213">
				<ele>592.000000</ele>
			</trkpt>
			<trkpt lat="48.942975" lon="20.346104">
				<ele>592.000000</ele>
			</trkpt>
		</trkseg>
	</trk>
</gpx>

