<?xml version="1.0"?>
<gpx xmlns="http://www.topografix.com/GPX/1/1" xmlns:xsi="http://www.w3.org/2001/XMLSchema-instance" version="1.1" creator="AllTrails.com" xsi:schemaLocation="http://www.topografix.com/GPX/1/1 http://www.topografix.com/GPX/1/1/gpx.xsd">
  <metadata>
    <name><![CDATA[Map - August 23, 2022]]></name>
    <desc><![CDATA[]]></desc>
    <link href="http://www.alltrails.com">
      <text>AllTrails, LLC</text>
    </link>
    <bounds minlat="48.92407" minlon="20.37241" maxlat="48.96596" maxlon="20.42094"/>
  </metadata>
  <trk>
    <name><![CDATA[Map - August 23, 2022]]></name>
    <src>AllTrails</src>
    <trkseg>
      <trkpt lat="48.96588" lon="20.38585">
        <ele>526.88</ele>
      </trkpt>
      <trkpt lat="48.96588" lon="20.38587">
        <ele>526.94</ele>
      </trkpt>
      <trkpt lat="48.96581" lon="20.38588">
        <ele>527.74</ele>
      </trkpt>
      <trkpt lat="48.96579" lon="20.38576">
        <ele>529.11</ele>
      </trkpt>
      <trkpt lat="48.96556" lon="20.38581">
        <ele>534.14</ele>
      </trkpt>
      <trkpt lat="48.96544" lon="20.38584">
        <ele>536.88</ele>
      </trkpt>
      <trkpt lat="48.96534" lon="20.38586">
        <ele>539.21</ele>
      </trkpt>
      <trkpt lat="48.9652" lon="20.38589">
        <ele>541.95</ele>
      </trkpt>
      <trkpt lat="48.9651" lon="20.38593">
        <ele>543.35</ele>
      </trkpt>
      <trkpt lat="48.9649" lon="20.38597">
        <ele>544.72</ele>
      </trkpt>
      <trkpt lat="48.96483" lon="20.38599">
        <ele>544.53</ele>
      </trkpt>
      <trkpt lat="48.96479" lon="20.386">
        <ele>544.45</ele>
      </trkpt>
      <trkpt lat="48.96476" lon="20.38601">
        <ele>544.37</ele>
      </trkpt>
      <trkpt lat="48.96471" lon="20.38602">
        <ele>544.18</ele>
      </trkpt>
      <trkpt lat="48.96457" lon="20.38606">
        <ele>542.34</ele>
      </trkpt>
      <trkpt lat="48.96437" lon="20.3861">
        <ele>540.75</ele>
      </trkpt>
      <trkpt lat="48.96432" lon="20.38611">
        <ele>540.55</ele>
      </trkpt>
      <trkpt lat="48.96427" lon="20.38624">
        <ele>539.39</ele>
      </trkpt>
      <trkpt lat="48.96416" lon="20.38652">
        <ele>539.02</ele>
      </trkpt>
      <trkpt lat="48.96397" lon="20.38702">
        <ele>539.81</ele>
      </trkpt>
      <trkpt lat="48.96352" lon="20.38819">
        <ele>541.36</ele>
      </trkpt>
      <trkpt lat="48.9633" lon="20.38878">
        <ele>539.48</ele>
      </trkpt>
      <trkpt lat="48.96313" lon="20.38935">
        <ele>543.69</ele>
      </trkpt>
      <trkpt lat="48.96303" lon="20.3898">
        <ele>549.43</ele>
      </trkpt>
      <trkpt lat="48.963" lon="20.39006">
        <ele>551.76</ele>
      </trkpt>
      <trkpt lat="48.96298" lon="20.39026">
        <ele>551.47</ele>
      </trkpt>
      <trkpt lat="48.96299" lon="20.39055">
        <ele>551.53</ele>
      </trkpt>
      <trkpt lat="48.9631" lon="20.39216">
        <ele>541.88</ele>
      </trkpt>
      <trkpt lat="48.96312" lon="20.3923">
        <ele>541.37</ele>
      </trkpt>
      <trkpt lat="48.9632" lon="20.39299">
        <ele>541.96</ele>
      </trkpt>
      <trkpt lat="48.96322" lon="20.3932">
        <ele>541.98</ele>
      </trkpt>
      <trkpt lat="48.96328" lon="20.39354">
        <ele>541.74</ele>
      </trkpt>
      <trkpt lat="48.96336" lon="20.39388">
        <ele>541.78</ele>
      </trkpt>
      <trkpt lat="48.96338" lon="20.39409">
        <ele>540.94</ele>
      </trkpt>
      <trkpt lat="48.96335" lon="20.39426">
        <ele>540.23</ele>
      </trkpt>
      <trkpt lat="48.96334" lon="20.39432">
        <ele>539.86</ele>
      </trkpt>
      <trkpt lat="48.96332" lon="20.3944">
        <ele>539.51</ele>
      </trkpt>
      <trkpt lat="48.96328" lon="20.39453">
        <ele>539.46</ele>
      </trkpt>
      <trkpt lat="48.96313" lon="20.39492">
        <ele>541.22</ele>
      </trkpt>
      <trkpt lat="48.96297" lon="20.39534">
        <ele>541.72</ele>
      </trkpt>
      <trkpt lat="48.9629" lon="20.39551">
        <ele>541.1</ele>
      </trkpt>
      <trkpt lat="48.96281" lon="20.39568">
        <ele>540.31</ele>
      </trkpt>
      <trkpt lat="48.96231" lon="20.3962">
        <ele>557.51</ele>
      </trkpt>
      <trkpt lat="48.96208" lon="20.39649">
        <ele>558.82</ele>
      </trkpt>
      <trkpt lat="48.96191" lon="20.39669">
        <ele>554.23</ele>
      </trkpt>
      <trkpt lat="48.96175" lon="20.39678">
        <ele>555.47</ele>
      </trkpt>
      <trkpt lat="48.96166" lon="20.39688">
        <ele>555.21</ele>
      </trkpt>
      <trkpt lat="48.96162" lon="20.39696">
        <ele>557.11</ele>
      </trkpt>
      <trkpt lat="48.96155" lon="20.39717">
        <ele>559.31</ele>
      </trkpt>
      <trkpt lat="48.96155" lon="20.39717">
        <ele>559.31</ele>
      </trkpt>
      <trkpt lat="48.96155" lon="20.39717">
        <ele>559.31</ele>
      </trkpt>
      <trkpt lat="48.96152" lon="20.39725">
        <ele>559.99</ele>
      </trkpt>
      <trkpt lat="48.9614" lon="20.39761">
        <ele>557.4</ele>
      </trkpt>
      <trkpt lat="48.96125" lon="20.3983">
        <ele>553.68</ele>
      </trkpt>
      <trkpt lat="48.96122" lon="20.39837">
        <ele>554.32</ele>
      </trkpt>
      <trkpt lat="48.96104" lon="20.39866">
        <ele>556.24</ele>
      </trkpt>
      <trkpt lat="48.96095" lon="20.39878">
        <ele>555.84</ele>
      </trkpt>
      <trkpt lat="48.96091" lon="20.39883">
        <ele>555.58</ele>
      </trkpt>
      <trkpt lat="48.96085" lon="20.39887">
        <ele>556.12</ele>
      </trkpt>
      <trkpt lat="48.96074" lon="20.39893">
        <ele>559.06</ele>
      </trkpt>
      <trkpt lat="48.9604" lon="20.39912">
        <ele>567.2</ele>
      </trkpt>
      <trkpt lat="48.96027" lon="20.39921">
        <ele>566.96</ele>
      </trkpt>
      <trkpt lat="48.96018" lon="20.39928">
        <ele>569.42</ele>
      </trkpt>
      <trkpt lat="48.96005" lon="20.39929">
        <ele>573.58</ele>
      </trkpt>
      <trkpt lat="48.95998" lon="20.3993">
        <ele>575.81</ele>
      </trkpt>
      <trkpt lat="48.95993" lon="20.39924">
        <ele>578.7</ele>
      </trkpt>
      <trkpt lat="48.95988" lon="20.39913">
        <ele>582.9</ele>
      </trkpt>
      <trkpt lat="48.95972" lon="20.39891">
        <ele>594.51</ele>
      </trkpt>
      <trkpt lat="48.95957" lon="20.39876">
        <ele>595.76</ele>
      </trkpt>
      <trkpt lat="48.95945" lon="20.39868">
        <ele>596.1</ele>
      </trkpt>
      <trkpt lat="48.95931" lon="20.39865">
        <ele>596.95</ele>
      </trkpt>
      <trkpt lat="48.95922" lon="20.39865">
        <ele>596.99</ele>
      </trkpt>
      <trkpt lat="48.95912" lon="20.39873">
        <ele>595.53</ele>
      </trkpt>
      <trkpt lat="48.95887" lon="20.39889">
        <ele>593.57</ele>
      </trkpt>
      <trkpt lat="48.95861" lon="20.39897">
        <ele>598.54</ele>
      </trkpt>
      <trkpt lat="48.95843" lon="20.399">
        <ele>603.59</ele>
      </trkpt>
      <trkpt lat="48.95835" lon="20.39899">
        <ele>606.95</ele>
      </trkpt>
      <trkpt lat="48.95823" lon="20.39893">
        <ele>609.15</ele>
      </trkpt>
      <trkpt lat="48.95811" lon="20.39885">
        <ele>609.02</ele>
      </trkpt>
      <trkpt lat="48.95799" lon="20.3988">
        <ele>608.93</ele>
      </trkpt>
      <trkpt lat="48.9578" lon="20.39877">
        <ele>608.06</ele>
      </trkpt>
      <trkpt lat="48.9576" lon="20.3988">
        <ele>609.06</ele>
      </trkpt>
      <trkpt lat="48.95748" lon="20.39886">
        <ele>609.91</ele>
      </trkpt>
      <trkpt lat="48.95734" lon="20.39894">
        <ele>613.05</ele>
      </trkpt>
      <trkpt lat="48.9573" lon="20.39902">
        <ele>613.76</ele>
      </trkpt>
      <trkpt lat="48.9573" lon="20.39911">
        <ele>613.56</ele>
      </trkpt>
      <trkpt lat="48.95746" lon="20.39931">
        <ele>609.34</ele>
      </trkpt>
      <trkpt lat="48.95758" lon="20.39946">
        <ele>604.26</ele>
      </trkpt>
      <trkpt lat="48.95776" lon="20.39979">
        <ele>605.66</ele>
      </trkpt>
      <trkpt lat="48.9579" lon="20.40017">
        <ele>609.01</ele>
      </trkpt>
      <trkpt lat="48.9579" lon="20.40032">
        <ele>610.27</ele>
      </trkpt>
      <trkpt lat="48.95783" lon="20.40034">
        <ele>610.69</ele>
      </trkpt>
      <trkpt lat="48.9577" lon="20.40031">
        <ele>614.45</ele>
      </trkpt>
      <trkpt lat="48.95756" lon="20.40028">
        <ele>621.02</ele>
      </trkpt>
      <trkpt lat="48.95742" lon="20.40026">
        <ele>626.51</ele>
      </trkpt>
      <trkpt lat="48.95733" lon="20.40031">
        <ele>631.5</ele>
      </trkpt>
      <trkpt lat="48.95727" lon="20.40046">
        <ele>637.59</ele>
      </trkpt>
      <trkpt lat="48.95726" lon="20.40056">
        <ele>640.43</ele>
      </trkpt>
      <trkpt lat="48.95729" lon="20.40081">
        <ele>642.96</ele>
      </trkpt>
      <trkpt lat="48.95731" lon="20.40101">
        <ele>646.94</ele>
      </trkpt>
      <trkpt lat="48.9573" lon="20.40113">
        <ele>649.9</ele>
      </trkpt>
      <trkpt lat="48.95726" lon="20.40122">
        <ele>652.11</ele>
      </trkpt>
      <trkpt lat="48.95717" lon="20.40126">
        <ele>655.16</ele>
      </trkpt>
      <trkpt lat="48.95709" lon="20.40124">
        <ele>656.53</ele>
      </trkpt>
      <trkpt lat="48.95699" lon="20.40121">
        <ele>658.38</ele>
      </trkpt>
      <trkpt lat="48.95675" lon="20.40118">
        <ele>661.0</ele>
      </trkpt>
      <trkpt lat="48.95654" lon="20.40123">
        <ele>664.57</ele>
      </trkpt>
      <trkpt lat="48.9564" lon="20.40126">
        <ele>667.67</ele>
      </trkpt>
      <trkpt lat="48.95621" lon="20.40135">
        <ele>672.43</ele>
      </trkpt>
      <trkpt lat="48.95588" lon="20.40155">
        <ele>679.88</ele>
      </trkpt>
      <trkpt lat="48.95575" lon="20.40161">
        <ele>683.92</ele>
      </trkpt>
      <trkpt lat="48.95565" lon="20.40171">
        <ele>687.02</ele>
      </trkpt>
      <trkpt lat="48.9555" lon="20.40191">
        <ele>689.97</ele>
      </trkpt>
      <trkpt lat="48.95535" lon="20.40219">
        <ele>695.61</ele>
      </trkpt>
      <trkpt lat="48.9553" lon="20.40226">
        <ele>696.9</ele>
      </trkpt>
      <trkpt lat="48.9553" lon="20.40226">
        <ele>696.9</ele>
      </trkpt>
      <trkpt lat="48.9553" lon="20.40226">
        <ele>696.9</ele>
      </trkpt>
      <trkpt lat="48.95511" lon="20.40251">
        <ele>694.19</ele>
      </trkpt>
      <trkpt lat="48.95494" lon="20.40273">
        <ele>699.65</ele>
      </trkpt>
      <trkpt lat="48.95472" lon="20.40295">
        <ele>703.33</ele>
      </trkpt>
      <trkpt lat="48.95429" lon="20.40331">
        <ele>706.53</ele>
      </trkpt>
      <trkpt lat="48.95398" lon="20.4036">
        <ele>714.56</ele>
      </trkpt>
      <trkpt lat="48.95383" lon="20.40378">
        <ele>714.97</ele>
      </trkpt>
      <trkpt lat="48.95367" lon="20.40403">
        <ele>712.5</ele>
      </trkpt>
      <trkpt lat="48.95355" lon="20.40423">
        <ele>710.61</ele>
      </trkpt>
      <trkpt lat="48.95345" lon="20.4045">
        <ele>707.71</ele>
      </trkpt>
      <trkpt lat="48.95334" lon="20.40471">
        <ele>707.94</ele>
      </trkpt>
      <trkpt lat="48.95319" lon="20.40492">
        <ele>711.37</ele>
      </trkpt>
      <trkpt lat="48.95311" lon="20.40506">
        <ele>712.67</ele>
      </trkpt>
      <trkpt lat="48.95305" lon="20.40523">
        <ele>712.67</ele>
      </trkpt>
      <trkpt lat="48.95297" lon="20.40552">
        <ele>711.45</ele>
      </trkpt>
      <trkpt lat="48.95291" lon="20.40563">
        <ele>710.44</ele>
      </trkpt>
      <trkpt lat="48.95279" lon="20.40567">
        <ele>713.71</ele>
      </trkpt>
      <trkpt lat="48.95257" lon="20.40568">
        <ele>718.91</ele>
      </trkpt>
      <trkpt lat="48.95232" lon="20.40568">
        <ele>721.22</ele>
      </trkpt>
      <trkpt lat="48.9521" lon="20.4057">
        <ele>720.87</ele>
      </trkpt>
      <trkpt lat="48.95198" lon="20.40566">
        <ele>721.37</ele>
      </trkpt>
      <trkpt lat="48.95174" lon="20.40552">
        <ele>726.08</ele>
      </trkpt>
      <trkpt lat="48.95161" lon="20.40546">
        <ele>728.23</ele>
      </trkpt>
      <trkpt lat="48.95151" lon="20.40547">
        <ele>729.74</ele>
      </trkpt>
      <trkpt lat="48.95149" lon="20.40557">
        <ele>729.39</ele>
      </trkpt>
      <trkpt lat="48.95153" lon="20.40569">
        <ele>726.75</ele>
      </trkpt>
      <trkpt lat="48.95161" lon="20.4058">
        <ele>720.99</ele>
      </trkpt>
      <trkpt lat="48.95175" lon="20.406">
        <ele>720.84</ele>
      </trkpt>
      <trkpt lat="48.95181" lon="20.40615">
        <ele>721.85</ele>
      </trkpt>
      <trkpt lat="48.95188" lon="20.40637">
        <ele>719.21</ele>
      </trkpt>
      <trkpt lat="48.95196" lon="20.40663">
        <ele>718.93</ele>
      </trkpt>
      <trkpt lat="48.95199" lon="20.40675">
        <ele>719.48</ele>
      </trkpt>
      <trkpt lat="48.95198" lon="20.40701">
        <ele>724.52</ele>
      </trkpt>
      <trkpt lat="48.95192" lon="20.40718">
        <ele>729.6</ele>
      </trkpt>
      <trkpt lat="48.95186" lon="20.40739">
        <ele>728.5</ele>
      </trkpt>
      <trkpt lat="48.95169" lon="20.40766">
        <ele>726.92</ele>
      </trkpt>
      <trkpt lat="48.9515" lon="20.40792">
        <ele>734.49</ele>
      </trkpt>
      <trkpt lat="48.95105" lon="20.40838">
        <ele>745.03</ele>
      </trkpt>
      <trkpt lat="48.9508" lon="20.40865">
        <ele>753.91</ele>
      </trkpt>
      <trkpt lat="48.95068" lon="20.40884">
        <ele>753.28</ele>
      </trkpt>
      <trkpt lat="48.9506" lon="20.40904">
        <ele>752.11</ele>
      </trkpt>
      <trkpt lat="48.95059" lon="20.40909">
        <ele>751.66</ele>
      </trkpt>
      <trkpt lat="48.95059" lon="20.40909">
        <ele>751.66</ele>
      </trkpt>
      <trkpt lat="48.95059" lon="20.40909">
        <ele>751.66</ele>
      </trkpt>
      <trkpt lat="48.95051" lon="20.40934">
        <ele>751.9</ele>
      </trkpt>
      <trkpt lat="48.95041" lon="20.40954">
        <ele>751.93</ele>
      </trkpt>
      <trkpt lat="48.95028" lon="20.40964">
        <ele>752.73</ele>
      </trkpt>
      <trkpt lat="48.94999" lon="20.40982">
        <ele>752.11</ele>
      </trkpt>
      <trkpt lat="48.94964" lon="20.40994">
        <ele>758.66</ele>
      </trkpt>
      <trkpt lat="48.94942" lon="20.40996">
        <ele>763.92</ele>
      </trkpt>
      <trkpt lat="48.94931" lon="20.40993">
        <ele>767.01</ele>
      </trkpt>
      <trkpt lat="48.94915" lon="20.40989">
        <ele>771.19</ele>
      </trkpt>
      <trkpt lat="48.94892" lon="20.40993">
        <ele>770.76</ele>
      </trkpt>
      <trkpt lat="48.94874" lon="20.40999">
        <ele>771.74</ele>
      </trkpt>
      <trkpt lat="48.94863" lon="20.41005">
        <ele>772.26</ele>
      </trkpt>
      <trkpt lat="48.94844" lon="20.41015">
        <ele>775.08</ele>
      </trkpt>
      <trkpt lat="48.94826" lon="20.41028">
        <ele>778.9</ele>
      </trkpt>
      <trkpt lat="48.94811" lon="20.41045">
        <ele>781.97</ele>
      </trkpt>
      <trkpt lat="48.94778" lon="20.41089">
        <ele>784.53</ele>
      </trkpt>
      <trkpt lat="48.9473" lon="20.41163">
        <ele>775.56</ele>
      </trkpt>
      <trkpt lat="48.94705" lon="20.41194">
        <ele>777.93</ele>
      </trkpt>
      <trkpt lat="48.9469" lon="20.41221">
        <ele>780.94</ele>
      </trkpt>
      <trkpt lat="48.94686" lon="20.41232">
        <ele>781.96</ele>
      </trkpt>
      <trkpt lat="48.94685" lon="20.41244">
        <ele>782.29</ele>
      </trkpt>
      <trkpt lat="48.94686" lon="20.41261">
        <ele>782.85</ele>
      </trkpt>
      <trkpt lat="48.94688" lon="20.41273">
        <ele>783.14</ele>
      </trkpt>
      <trkpt lat="48.94686" lon="20.41291">
        <ele>786.0</ele>
      </trkpt>
      <trkpt lat="48.94677" lon="20.41313">
        <ele>786.34</ele>
      </trkpt>
      <trkpt lat="48.94673" lon="20.41351">
        <ele>779.86</ele>
      </trkpt>
      <trkpt lat="48.94671" lon="20.41364">
        <ele>778.19</ele>
      </trkpt>
      <trkpt lat="48.94667" lon="20.41378">
        <ele>776.23</ele>
      </trkpt>
      <trkpt lat="48.94661" lon="20.41391">
        <ele>775.3</ele>
      </trkpt>
      <trkpt lat="48.94655" lon="20.41421">
        <ele>773.91</ele>
      </trkpt>
      <trkpt lat="48.94648" lon="20.41459">
        <ele>775.26</ele>
      </trkpt>
      <trkpt lat="48.94643" lon="20.41482">
        <ele>776.62</ele>
      </trkpt>
      <trkpt lat="48.94632" lon="20.41525">
        <ele>774.89</ele>
      </trkpt>
      <trkpt lat="48.94623" lon="20.41553">
        <ele>775.19</ele>
      </trkpt>
      <trkpt lat="48.94594" lon="20.41639">
        <ele>786.55</ele>
      </trkpt>
      <trkpt lat="48.94586" lon="20.41675">
        <ele>788.75</ele>
      </trkpt>
      <trkpt lat="48.9458" lon="20.41702">
        <ele>788.39</ele>
      </trkpt>
      <trkpt lat="48.94573" lon="20.41724">
        <ele>789.12</ele>
      </trkpt>
      <trkpt lat="48.94564" lon="20.41743">
        <ele>786.7</ele>
      </trkpt>
      <trkpt lat="48.94554" lon="20.41758">
        <ele>785.77</ele>
      </trkpt>
      <trkpt lat="48.94547" lon="20.41764">
        <ele>786.68</ele>
      </trkpt>
      <trkpt lat="48.94537" lon="20.41768">
        <ele>788.08</ele>
      </trkpt>
      <trkpt lat="48.94527" lon="20.41776">
        <ele>788.49</ele>
      </trkpt>
      <trkpt lat="48.94508" lon="20.41803">
        <ele>783.85</ele>
      </trkpt>
      <trkpt lat="48.94499" lon="20.41818">
        <ele>780.35</ele>
      </trkpt>
      <trkpt lat="48.9449" lon="20.4183">
        <ele>777.81</ele>
      </trkpt>
      <trkpt lat="48.94477" lon="20.41846">
        <ele>776.17</ele>
      </trkpt>
      <trkpt lat="48.94471" lon="20.41856">
        <ele>775.37</ele>
      </trkpt>
      <trkpt lat="48.94466" lon="20.41865">
        <ele>774.78</ele>
      </trkpt>
      <trkpt lat="48.94464" lon="20.41879">
        <ele>774.7</ele>
      </trkpt>
      <trkpt lat="48.94463" lon="20.41897">
        <ele>774.08</ele>
      </trkpt>
      <trkpt lat="48.94462" lon="20.41928">
        <ele>772.37</ele>
      </trkpt>
      <trkpt lat="48.94458" lon="20.41966">
        <ele>771.41</ele>
      </trkpt>
      <trkpt lat="48.94452" lon="20.41996">
        <ele>766.45</ele>
      </trkpt>
      <trkpt lat="48.94448" lon="20.42009">
        <ele>765.09</ele>
      </trkpt>
      <trkpt lat="48.94448" lon="20.42009">
        <ele>765.09</ele>
      </trkpt>
      <trkpt lat="48.94448" lon="20.42009">
        <ele>765.09</ele>
      </trkpt>
      <trkpt lat="48.94446" lon="20.42016">
        <ele>765.05</ele>
      </trkpt>
      <trkpt lat="48.94438" lon="20.42035">
        <ele>766.75</ele>
      </trkpt>
      <trkpt lat="48.94419" lon="20.4206">
        <ele>766.39</ele>
      </trkpt>
      <trkpt lat="48.9441" lon="20.42071">
        <ele>767.59</ele>
      </trkpt>
      <trkpt lat="48.94391" lon="20.42091">
        <ele>768.07</ele>
      </trkpt>
      <trkpt lat="48.94381" lon="20.42094">
        <ele>768.77</ele>
      </trkpt>
      <trkpt lat="48.94373" lon="20.42093">
        <ele>769.85</ele>
      </trkpt>
      <trkpt lat="48.94359" lon="20.42088">
        <ele>772.27</ele>
      </trkpt>
      <trkpt lat="48.94324" lon="20.42075">
        <ele>776.18</ele>
      </trkpt>
      <trkpt lat="48.94296" lon="20.4206">
        <ele>778.86</ele>
      </trkpt>
      <trkpt lat="48.94279" lon="20.42052">
        <ele>777.27</ele>
      </trkpt>
      <trkpt lat="48.94271" lon="20.42045">
        <ele>777.93</ele>
      </trkpt>
      <trkpt lat="48.94261" lon="20.42029">
        <ele>778.61</ele>
      </trkpt>
      <trkpt lat="48.94259" lon="20.42013">
        <ele>780.08</ele>
      </trkpt>
      <trkpt lat="48.94256" lon="20.42013">
        <ele>780.08</ele>
      </trkpt>
      <trkpt lat="48.94253" lon="20.42013">
        <ele>780.07</ele>
      </trkpt>
      <trkpt lat="48.94237" lon="20.42016">
        <ele>776.77</ele>
      </trkpt>
      <trkpt lat="48.94238" lon="20.42012">
        <ele>777.36</ele>
      </trkpt>
      <trkpt lat="48.94238" lon="20.42012">
        <ele>777.36</ele>
      </trkpt>
      <trkpt lat="48.94238" lon="20.42012">
        <ele>777.36</ele>
      </trkpt>
      <trkpt lat="48.94241" lon="20.42">
        <ele>779.06</ele>
      </trkpt>
      <trkpt lat="48.94256" lon="20.41989">
        <ele>783.31</ele>
      </trkpt>
      <trkpt lat="48.94252" lon="20.41971">
        <ele>785.75</ele>
      </trkpt>
      <trkpt lat="48.94248" lon="20.41958">
        <ele>787.42</ele>
      </trkpt>
      <trkpt lat="48.94245" lon="20.41951">
        <ele>787.87</ele>
      </trkpt>
      <trkpt lat="48.94243" lon="20.41943">
        <ele>788.66</ele>
      </trkpt>
      <trkpt lat="48.94243" lon="20.41937">
        <ele>789.42</ele>
      </trkpt>
      <trkpt lat="48.94243" lon="20.41927">
        <ele>790.68</ele>
      </trkpt>
      <trkpt lat="48.94245" lon="20.41908">
        <ele>793.98</ele>
      </trkpt>
      <trkpt lat="48.94245" lon="20.41887">
        <ele>797.35</ele>
      </trkpt>
      <trkpt lat="48.94245" lon="20.41872">
        <ele>799.36</ele>
      </trkpt>
      <trkpt lat="48.94242" lon="20.41856">
        <ele>802.0</ele>
      </trkpt>
      <trkpt lat="48.94219" lon="20.41782">
        <ele>821.92</ele>
      </trkpt>
      <trkpt lat="48.94197" lon="20.41735">
        <ele>828.39</ele>
      </trkpt>
      <trkpt lat="48.94173" lon="20.41718">
        <ele>833.3</ele>
      </trkpt>
      <trkpt lat="48.94163" lon="20.41713">
        <ele>833.29</ele>
      </trkpt>
      <trkpt lat="48.94155" lon="20.41711">
        <ele>832.18</ele>
      </trkpt>
      <trkpt lat="48.94141" lon="20.41704">
        <ele>833.25</ele>
      </trkpt>
      <trkpt lat="48.94129" lon="20.41717">
        <ele>821.89</ele>
      </trkpt>
      <trkpt lat="48.9412" lon="20.41718">
        <ele>817.24</ele>
      </trkpt>
      <trkpt lat="48.94112" lon="20.41712">
        <ele>815.04</ele>
      </trkpt>
      <trkpt lat="48.94099" lon="20.41691">
        <ele>816.22</ele>
      </trkpt>
      <trkpt lat="48.94099" lon="20.41691">
        <ele>816.22</ele>
      </trkpt>
      <trkpt lat="48.94099" lon="20.41691">
        <ele>816.22</ele>
      </trkpt>
      <trkpt lat="48.94099" lon="20.41691">
        <ele>816.22</ele>
      </trkpt>
      <trkpt lat="48.94099" lon="20.41681">
        <ele>819.56</ele>
      </trkpt>
      <trkpt lat="48.94101" lon="20.41671">
        <ele>823.78</ele>
      </trkpt>
      <trkpt lat="48.94114" lon="20.41657">
        <ele>831.84</ele>
      </trkpt>
      <trkpt lat="48.94103" lon="20.41619">
        <ele>836.33</ele>
      </trkpt>
      <trkpt lat="48.94095" lon="20.4161">
        <ele>835.56</ele>
      </trkpt>
      <trkpt lat="48.94089" lon="20.41606">
        <ele>833.64</ele>
      </trkpt>
      <trkpt lat="48.94086" lon="20.41599">
        <ele>834.19</ele>
      </trkpt>
      <trkpt lat="48.94092" lon="20.41586">
        <ele>837.62</ele>
      </trkpt>
      <trkpt lat="48.94088" lon="20.41568">
        <ele>838.37</ele>
      </trkpt>
      <trkpt lat="48.94081" lon="20.41545">
        <ele>841.76</ele>
      </trkpt>
      <trkpt lat="48.94077" lon="20.41521">
        <ele>848.16</ele>
      </trkpt>
      <trkpt lat="48.94074" lon="20.41488">
        <ele>849.55</ele>
      </trkpt>
      <trkpt lat="48.94072" lon="20.41464">
        <ele>848.08</ele>
      </trkpt>
      <trkpt lat="48.94068" lon="20.41439">
        <ele>846.54</ele>
      </trkpt>
      <trkpt lat="48.9405" lon="20.41391">
        <ele>847.65</ele>
      </trkpt>
      <trkpt lat="48.94036" lon="20.41365">
        <ele>849.93</ele>
      </trkpt>
      <trkpt lat="48.94026" lon="20.41354">
        <ele>849.03</ele>
      </trkpt>
      <trkpt lat="48.94025" lon="20.41349">
        <ele>848.64</ele>
      </trkpt>
      <trkpt lat="48.94024" lon="20.41336">
        <ele>848.91</ele>
      </trkpt>
      <trkpt lat="48.9402" lon="20.41323">
        <ele>845.84</ele>
      </trkpt>
      <trkpt lat="48.94017" lon="20.41316">
        <ele>843.9</ele>
      </trkpt>
      <trkpt lat="48.94017" lon="20.41316">
        <ele>843.9</ele>
      </trkpt>
      <trkpt lat="48.94017" lon="20.41316">
        <ele>843.9</ele>
      </trkpt>
      <trkpt lat="48.94016" lon="20.41313">
        <ele>843.27</ele>
      </trkpt>
      <trkpt lat="48.9401" lon="20.41307">
        <ele>840.94</ele>
      </trkpt>
      <trkpt lat="48.94004" lon="20.41305">
        <ele>839.05</ele>
      </trkpt>
      <trkpt lat="48.93991" lon="20.41305">
        <ele>830.79</ele>
      </trkpt>
      <trkpt lat="48.93985" lon="20.41303">
        <ele>825.81</ele>
      </trkpt>
      <trkpt lat="48.93979" lon="20.41298">
        <ele>820.62</ele>
      </trkpt>
      <trkpt lat="48.93974" lon="20.41292">
        <ele>816.34</ele>
      </trkpt>
      <trkpt lat="48.93974" lon="20.41286">
        <ele>815.86</ele>
      </trkpt>
      <trkpt lat="48.93977" lon="20.41276">
        <ele>816.78</ele>
      </trkpt>
      <trkpt lat="48.93986" lon="20.4124">
        <ele>813.71</ele>
      </trkpt>
      <trkpt lat="48.93991" lon="20.41226">
        <ele>813.87</ele>
      </trkpt>
      <trkpt lat="48.94002" lon="20.41205">
        <ele>817.03</ele>
      </trkpt>
      <trkpt lat="48.94016" lon="20.41175">
        <ele>815.86</ele>
      </trkpt>
      <trkpt lat="48.94021" lon="20.41164">
        <ele>815.18</ele>
      </trkpt>
      <trkpt lat="48.9403" lon="20.41155">
        <ele>816.07</ele>
      </trkpt>
      <trkpt lat="48.94038" lon="20.41145">
        <ele>816.18</ele>
      </trkpt>
      <trkpt lat="48.94044" lon="20.41134">
        <ele>814.97</ele>
      </trkpt>
      <trkpt lat="48.94049" lon="20.41116">
        <ele>808.96</ele>
      </trkpt>
      <trkpt lat="48.94052" lon="20.41089">
        <ele>802.82</ele>
      </trkpt>
      <trkpt lat="48.94056" lon="20.41063">
        <ele>801.56</ele>
      </trkpt>
      <trkpt lat="48.94061" lon="20.41028">
        <ele>806.92</ele>
      </trkpt>
      <trkpt lat="48.94067" lon="20.40995">
        <ele>817.35</ele>
      </trkpt>
      <trkpt lat="48.94067" lon="20.40986">
        <ele>820.63</ele>
      </trkpt>
      <trkpt lat="48.94065" lon="20.40978">
        <ele>823.15</ele>
      </trkpt>
      <trkpt lat="48.94061" lon="20.40975">
        <ele>823.62</ele>
      </trkpt>
      <trkpt lat="48.94052" lon="20.40972">
        <ele>822.88</ele>
      </trkpt>
      <trkpt lat="48.94042" lon="20.40963">
        <ele>821.9</ele>
      </trkpt>
      <trkpt lat="48.94023" lon="20.40961">
        <ele>817.82</ele>
      </trkpt>
      <trkpt lat="48.94008" lon="20.40965">
        <ele>811.77</ele>
      </trkpt>
      <trkpt lat="48.93991" lon="20.4097">
        <ele>805.35</ele>
      </trkpt>
      <trkpt lat="48.93984" lon="20.40972">
        <ele>802.83</ele>
      </trkpt>
      <trkpt lat="48.93978" lon="20.40974">
        <ele>800.55</ele>
      </trkpt>
      <trkpt lat="48.93968" lon="20.40986">
        <ele>791.46</ele>
      </trkpt>
      <trkpt lat="48.93965" lon="20.40988">
        <ele>787.83</ele>
      </trkpt>
      <trkpt lat="48.93951" lon="20.40989">
        <ele>772.61</ele>
      </trkpt>
      <trkpt lat="48.93956" lon="20.41001">
        <ele>775.88</ele>
      </trkpt>
      <trkpt lat="48.93967" lon="20.41004">
        <ele>786.62</ele>
      </trkpt>
      <trkpt lat="48.93977" lon="20.41">
        <ele>795.41</ele>
      </trkpt>
      <trkpt lat="48.93992" lon="20.41002">
        <ele>802.67</ele>
      </trkpt>
      <trkpt lat="48.9401" lon="20.41002">
        <ele>807.45</ele>
      </trkpt>
      <trkpt lat="48.94017" lon="20.41004">
        <ele>807.62</ele>
      </trkpt>
      <trkpt lat="48.94018" lon="20.41008">
        <ele>807.06</ele>
      </trkpt>
      <trkpt lat="48.94017" lon="20.41015">
        <ele>805.94</ele>
      </trkpt>
      <trkpt lat="48.94012" lon="20.4102">
        <ele>805.08</ele>
      </trkpt>
      <trkpt lat="48.93999" lon="20.41027">
        <ele>803.44</ele>
      </trkpt>
      <trkpt lat="48.93985" lon="20.41045">
        <ele>790.37</ele>
      </trkpt>
      <trkpt lat="48.93975" lon="20.41052">
        <ele>783.88</ele>
      </trkpt>
      <trkpt lat="48.93963" lon="20.41051">
        <ele>774.58</ele>
      </trkpt>
      <trkpt lat="48.9395" lon="20.4105">
        <ele>763.28</ele>
      </trkpt>
      <trkpt lat="48.9394" lon="20.41054">
        <ele>755.55</ele>
      </trkpt>
      <trkpt lat="48.93929" lon="20.41071">
        <ele>751.64</ele>
      </trkpt>
      <trkpt lat="48.93927" lon="20.41076">
        <ele>751.84</ele>
      </trkpt>
      <trkpt lat="48.93913" lon="20.41116">
        <ele>749.79</ele>
      </trkpt>
      <trkpt lat="48.93902" lon="20.41144">
        <ele>745.22</ele>
      </trkpt>
      <trkpt lat="48.93886" lon="20.41172">
        <ele>747.92</ele>
      </trkpt>
      <trkpt lat="48.93857" lon="20.41197">
        <ele>744.26</ele>
      </trkpt>
      <trkpt lat="48.93844" lon="20.41217">
        <ele>741.53</ele>
      </trkpt>
      <trkpt lat="48.9383" lon="20.41236">
        <ele>737.24</ele>
      </trkpt>
      <trkpt lat="48.93823" lon="20.41249">
        <ele>737.45</ele>
      </trkpt>
      <trkpt lat="48.9382" lon="20.41264">
        <ele>735.34</ele>
      </trkpt>
      <trkpt lat="48.93823" lon="20.41279">
        <ele>731.69</ele>
      </trkpt>
      <trkpt lat="48.93823" lon="20.41279">
        <ele>731.69</ele>
      </trkpt>
      <trkpt lat="48.93823" lon="20.41279">
        <ele>731.69</ele>
      </trkpt>
      <trkpt lat="48.9382" lon="20.41264">
        <ele>735.34</ele>
      </trkpt>
      <trkpt lat="48.93823" lon="20.41249">
        <ele>737.45</ele>
      </trkpt>
      <trkpt lat="48.9383" lon="20.41236">
        <ele>737.24</ele>
      </trkpt>
      <trkpt lat="48.93844" lon="20.41217">
        <ele>741.53</ele>
      </trkpt>
      <trkpt lat="48.93857" lon="20.41197">
        <ele>744.26</ele>
      </trkpt>
      <trkpt lat="48.93886" lon="20.41172">
        <ele>747.92</ele>
      </trkpt>
      <trkpt lat="48.93902" lon="20.41144">
        <ele>745.22</ele>
      </trkpt>
      <trkpt lat="48.93913" lon="20.41116">
        <ele>749.79</ele>
      </trkpt>
      <trkpt lat="48.93927" lon="20.41076">
        <ele>751.84</ele>
      </trkpt>
      <trkpt lat="48.93929" lon="20.41071">
        <ele>751.64</ele>
      </trkpt>
      <trkpt lat="48.9394" lon="20.41054">
        <ele>755.55</ele>
      </trkpt>
      <trkpt lat="48.9395" lon="20.4105">
        <ele>763.28</ele>
      </trkpt>
      <trkpt lat="48.93963" lon="20.41051">
        <ele>774.58</ele>
      </trkpt>
      <trkpt lat="48.93975" lon="20.41052">
        <ele>783.88</ele>
      </trkpt>
      <trkpt lat="48.93985" lon="20.41045">
        <ele>790.37</ele>
      </trkpt>
      <trkpt lat="48.93999" lon="20.41027">
        <ele>803.44</ele>
      </trkpt>
      <trkpt lat="48.94012" lon="20.4102">
        <ele>805.08</ele>
      </trkpt>
      <trkpt lat="48.94017" lon="20.41015">
        <ele>805.94</ele>
      </trkpt>
      <trkpt lat="48.94018" lon="20.41008">
        <ele>807.06</ele>
      </trkpt>
      <trkpt lat="48.94017" lon="20.41004">
        <ele>807.62</ele>
      </trkpt>
      <trkpt lat="48.9401" lon="20.41002">
        <ele>807.45</ele>
      </trkpt>
      <trkpt lat="48.93992" lon="20.41002">
        <ele>802.67</ele>
      </trkpt>
      <trkpt lat="48.93977" lon="20.41">
        <ele>795.41</ele>
      </trkpt>
      <trkpt lat="48.93967" lon="20.41004">
        <ele>786.62</ele>
      </trkpt>
      <trkpt lat="48.93956" lon="20.41001">
        <ele>775.88</ele>
      </trkpt>
      <trkpt lat="48.93951" lon="20.40989">
        <ele>772.61</ele>
      </trkpt>
      <trkpt lat="48.93943" lon="20.40988">
        <ele>764.84</ele>
      </trkpt>
      <trkpt lat="48.93938" lon="20.40985">
        <ele>762.22</ele>
      </trkpt>
      <trkpt lat="48.93934" lon="20.40976">
        <ele>761.06</ele>
      </trkpt>
      <trkpt lat="48.93932" lon="20.40965">
        <ele>762.31</ele>
      </trkpt>
      <trkpt lat="48.93932" lon="20.40956">
        <ele>764.71</ele>
      </trkpt>
      <trkpt lat="48.93936" lon="20.40931">
        <ele>774.68</ele>
      </trkpt>
      <trkpt lat="48.93937" lon="20.40918">
        <ele>778.9</ele>
      </trkpt>
      <trkpt lat="48.93936" lon="20.40901">
        <ele>780.05</ele>
      </trkpt>
      <trkpt lat="48.93932" lon="20.40889">
        <ele>777.44</ele>
      </trkpt>
      <trkpt lat="48.93929" lon="20.40884">
        <ele>775.59</ele>
      </trkpt>
      <trkpt lat="48.93929" lon="20.40884">
        <ele>775.59</ele>
      </trkpt>
      <trkpt lat="48.93929" lon="20.40884">
        <ele>775.59</ele>
      </trkpt>
      <trkpt lat="48.93922" lon="20.40873">
        <ele>771.27</ele>
      </trkpt>
      <trkpt lat="48.93916" lon="20.40863">
        <ele>768.48</ele>
      </trkpt>
      <trkpt lat="48.9391" lon="20.40858">
        <ele>770.18</ele>
      </trkpt>
      <trkpt lat="48.93902" lon="20.40857">
        <ele>769.58</ele>
      </trkpt>
      <trkpt lat="48.93891" lon="20.40859">
        <ele>768.1</ele>
      </trkpt>
      <trkpt lat="48.93884" lon="20.4086">
        <ele>767.29</ele>
      </trkpt>
      <trkpt lat="48.93881" lon="20.40855">
        <ele>766.96</ele>
      </trkpt>
      <trkpt lat="48.9388" lon="20.40841">
        <ele>767.15</ele>
      </trkpt>
      <trkpt lat="48.9388" lon="20.40824">
        <ele>768.77</ele>
      </trkpt>
      <trkpt lat="48.93878" lon="20.4081">
        <ele>771.08</ele>
      </trkpt>
      <trkpt lat="48.93873" lon="20.40794">
        <ele>773.75</ele>
      </trkpt>
      <trkpt lat="48.93868" lon="20.40781">
        <ele>774.48</ele>
      </trkpt>
      <trkpt lat="48.93862" lon="20.40778">
        <ele>773.22</ele>
      </trkpt>
      <trkpt lat="48.93856" lon="20.40774">
        <ele>774.75</ele>
      </trkpt>
      <trkpt lat="48.93845" lon="20.40773">
        <ele>776.19</ele>
      </trkpt>
      <trkpt lat="48.93839" lon="20.4077">
        <ele>777.69</ele>
      </trkpt>
      <trkpt lat="48.93832" lon="20.40764">
        <ele>780.26</ele>
      </trkpt>
      <trkpt lat="48.93818" lon="20.40746">
        <ele>786.15</ele>
      </trkpt>
      <trkpt lat="48.9381" lon="20.40733">
        <ele>788.45</ele>
      </trkpt>
      <trkpt lat="48.93804" lon="20.40723">
        <ele>789.75</ele>
      </trkpt>
      <trkpt lat="48.93793" lon="20.40715">
        <ele>789.83</ele>
      </trkpt>
      <trkpt lat="48.93784" lon="20.40707">
        <ele>789.99</ele>
      </trkpt>
      <trkpt lat="48.93766" lon="20.40695">
        <ele>788.0</ele>
      </trkpt>
      <trkpt lat="48.93742" lon="20.40684">
        <ele>788.6</ele>
      </trkpt>
      <trkpt lat="48.93738" lon="20.40684">
        <ele>788.83</ele>
      </trkpt>
      <trkpt lat="48.93732" lon="20.40682">
        <ele>789.56</ele>
      </trkpt>
      <trkpt lat="48.93722" lon="20.40678">
        <ele>790.21</ele>
      </trkpt>
      <trkpt lat="48.93712" lon="20.40657">
        <ele>795.3</ele>
      </trkpt>
      <trkpt lat="48.93706" lon="20.40645">
        <ele>799.18</ele>
      </trkpt>
      <trkpt lat="48.93697" lon="20.40638">
        <ele>803.13</ele>
      </trkpt>
      <trkpt lat="48.93681" lon="20.40635">
        <ele>805.25</ele>
      </trkpt>
      <trkpt lat="48.93667" lon="20.40639">
        <ele>801.97</ele>
      </trkpt>
      <trkpt lat="48.9365" lon="20.40636">
        <ele>798.28</ele>
      </trkpt>
      <trkpt lat="48.93639" lon="20.40629">
        <ele>798.38</ele>
      </trkpt>
      <trkpt lat="48.93626" lon="20.40617">
        <ele>805.68</ele>
      </trkpt>
      <trkpt lat="48.93606" lon="20.40596">
        <ele>811.16</ele>
      </trkpt>
      <trkpt lat="48.93585" lon="20.40568">
        <ele>815.76</ele>
      </trkpt>
      <trkpt lat="48.93566" lon="20.40548">
        <ele>817.83</ele>
      </trkpt>
      <trkpt lat="48.93556" lon="20.40538">
        <ele>818.57</ele>
      </trkpt>
      <trkpt lat="48.93545" lon="20.40528">
        <ele>821.26</ele>
      </trkpt>
      <trkpt lat="48.93535" lon="20.40515">
        <ele>822.9</ele>
      </trkpt>
      <trkpt lat="48.93506" lon="20.40487">
        <ele>820.48</ele>
      </trkpt>
      <trkpt lat="48.93486" lon="20.40448">
        <ele>806.57</ele>
      </trkpt>
      <trkpt lat="48.93481" lon="20.40435">
        <ele>805.04</ele>
      </trkpt>
      <trkpt lat="48.93477" lon="20.40419">
        <ele>804.23</ele>
      </trkpt>
      <trkpt lat="48.93469" lon="20.40402">
        <ele>807.55</ele>
      </trkpt>
      <trkpt lat="48.93467" lon="20.40399">
        <ele>808.45</ele>
      </trkpt>
      <trkpt lat="48.93459" lon="20.40388">
        <ele>810.82</ele>
      </trkpt>
      <trkpt lat="48.93448" lon="20.40367">
        <ele>814.29</ele>
      </trkpt>
      <trkpt lat="48.93444" lon="20.40362">
        <ele>813.94</ele>
      </trkpt>
      <trkpt lat="48.93442" lon="20.40359">
        <ele>814.76</ele>
      </trkpt>
      <trkpt lat="48.93438" lon="20.40354">
        <ele>816.05</ele>
      </trkpt>
      <trkpt lat="48.93415" lon="20.40326">
        <ele>817.88</ele>
      </trkpt>
      <trkpt lat="48.93403" lon="20.40314">
        <ele>818.51</ele>
      </trkpt>
      <trkpt lat="48.93398" lon="20.40307">
        <ele>818.04</ele>
      </trkpt>
      <trkpt lat="48.93386" lon="20.40294">
        <ele>816.02</ele>
      </trkpt>
      <trkpt lat="48.93376" lon="20.40266">
        <ele>815.09</ele>
      </trkpt>
      <trkpt lat="48.93374" lon="20.40257">
        <ele>815.88</ele>
      </trkpt>
      <trkpt lat="48.93374" lon="20.40257">
        <ele>815.88</ele>
      </trkpt>
      <trkpt lat="48.93375" lon="20.40257">
        <ele>815.87</ele>
      </trkpt>
      <trkpt lat="48.93372" lon="20.40243">
        <ele>817.31</ele>
      </trkpt>
      <trkpt lat="48.9337" lon="20.40236">
        <ele>818.01</ele>
      </trkpt>
      <trkpt lat="48.93367" lon="20.40213">
        <ele>820.42</ele>
      </trkpt>
      <trkpt lat="48.93355" lon="20.40198">
        <ele>823.32</ele>
      </trkpt>
      <trkpt lat="48.93349" lon="20.40188">
        <ele>824.98</ele>
      </trkpt>
      <trkpt lat="48.93346" lon="20.40173">
        <ele>825.32</ele>
      </trkpt>
      <trkpt lat="48.93342" lon="20.40149">
        <ele>824.24</ele>
      </trkpt>
      <trkpt lat="48.9334" lon="20.40126">
        <ele>826.62</ele>
      </trkpt>
      <trkpt lat="48.93336" lon="20.40091">
        <ele>837.24</ele>
      </trkpt>
      <trkpt lat="48.93331" lon="20.40074">
        <ele>839.61</ele>
      </trkpt>
      <trkpt lat="48.93322" lon="20.40061">
        <ele>839.12</ele>
      </trkpt>
      <trkpt lat="48.9331" lon="20.40055">
        <ele>839.12</ele>
      </trkpt>
      <trkpt lat="48.93297" lon="20.40047">
        <ele>842.67</ele>
      </trkpt>
      <trkpt lat="48.93294" lon="20.40043">
        <ele>843.61</ele>
      </trkpt>
      <trkpt lat="48.93286" lon="20.40027">
        <ele>844.64</ele>
      </trkpt>
      <trkpt lat="48.93278" lon="20.40007">
        <ele>844.78</ele>
      </trkpt>
      <trkpt lat="48.93274" lon="20.39997">
        <ele>846.76</ele>
      </trkpt>
      <trkpt lat="48.93273" lon="20.39995">
        <ele>847.59</ele>
      </trkpt>
      <trkpt lat="48.93261" lon="20.3999">
        <ele>851.43</ele>
      </trkpt>
      <trkpt lat="48.93256" lon="20.39989">
        <ele>852.65</ele>
      </trkpt>
      <trkpt lat="48.93235" lon="20.39983">
        <ele>857.62</ele>
      </trkpt>
      <trkpt lat="48.93224" lon="20.39982">
        <ele>859.38</ele>
      </trkpt>
      <trkpt lat="48.93221" lon="20.3998">
        <ele>860.07</ele>
      </trkpt>
      <trkpt lat="48.93212" lon="20.39969">
        <ele>863.85</ele>
      </trkpt>
      <trkpt lat="48.93184" lon="20.39948">
        <ele>870.46</ele>
      </trkpt>
      <trkpt lat="48.93172" lon="20.39947">
        <ele>869.36</ele>
      </trkpt>
      <trkpt lat="48.93165" lon="20.39953">
        <ele>868.62</ele>
      </trkpt>
      <trkpt lat="48.93161" lon="20.3996">
        <ele>868.7</ele>
      </trkpt>
      <trkpt lat="48.93157" lon="20.39964">
        <ele>868.98</ele>
      </trkpt>
      <trkpt lat="48.93147" lon="20.39964">
        <ele>870.42</ele>
      </trkpt>
      <trkpt lat="48.93135" lon="20.39956">
        <ele>872.09</ele>
      </trkpt>
      <trkpt lat="48.93115" lon="20.39943">
        <ele>872.42</ele>
      </trkpt>
      <trkpt lat="48.9309" lon="20.39917">
        <ele>876.23</ele>
      </trkpt>
      <trkpt lat="48.93073" lon="20.39889">
        <ele>881.37</ele>
      </trkpt>
      <trkpt lat="48.93068" lon="20.39879">
        <ele>883.69</ele>
      </trkpt>
      <trkpt lat="48.93057" lon="20.39873">
        <ele>885.38</ele>
      </trkpt>
      <trkpt lat="48.93056" lon="20.39871">
        <ele>885.85</ele>
      </trkpt>
      <trkpt lat="48.93055" lon="20.39869">
        <ele>886.41</ele>
      </trkpt>
      <trkpt lat="48.93054" lon="20.39863">
        <ele>887.79</ele>
      </trkpt>
      <trkpt lat="48.93052" lon="20.39856">
        <ele>888.82</ele>
      </trkpt>
      <trkpt lat="48.93044" lon="20.39849">
        <ele>889.65</ele>
      </trkpt>
      <trkpt lat="48.93041" lon="20.3984">
        <ele>889.86</ele>
      </trkpt>
      <trkpt lat="48.93036" lon="20.39838">
        <ele>889.68</ele>
      </trkpt>
      <trkpt lat="48.93029" lon="20.39831">
        <ele>889.03</ele>
      </trkpt>
      <trkpt lat="48.93015" lon="20.39811">
        <ele>889.67</ele>
      </trkpt>
      <trkpt lat="48.93011" lon="20.39806">
        <ele>889.84</ele>
      </trkpt>
      <trkpt lat="48.93007" lon="20.39801">
        <ele>889.92</ele>
      </trkpt>
      <trkpt lat="48.93002" lon="20.39775">
        <ele>887.92</ele>
      </trkpt>
      <trkpt lat="48.93" lon="20.39751">
        <ele>886.07</ele>
      </trkpt>
      <trkpt lat="48.92998" lon="20.39735">
        <ele>888.11</ele>
      </trkpt>
      <trkpt lat="48.93001" lon="20.39728">
        <ele>888.86</ele>
      </trkpt>
      <trkpt lat="48.93001" lon="20.39723">
        <ele>889.45</ele>
      </trkpt>
      <trkpt lat="48.93" lon="20.39717">
        <ele>889.38</ele>
      </trkpt>
      <trkpt lat="48.92996" lon="20.39705">
        <ele>890.78</ele>
      </trkpt>
      <trkpt lat="48.92996" lon="20.39697">
        <ele>891.27</ele>
      </trkpt>
      <trkpt lat="48.92993" lon="20.39687">
        <ele>894.43</ele>
      </trkpt>
      <trkpt lat="48.92991" lon="20.39682">
        <ele>896.19</ele>
      </trkpt>
      <trkpt lat="48.92971" lon="20.39645">
        <ele>903.75</ele>
      </trkpt>
      <trkpt lat="48.92952" lon="20.3962">
        <ele>912.52</ele>
      </trkpt>
      <trkpt lat="48.92949" lon="20.39619">
        <ele>912.87</ele>
      </trkpt>
      <trkpt lat="48.92947" lon="20.39621">
        <ele>912.74</ele>
      </trkpt>
      <trkpt lat="48.92932" lon="20.39614">
        <ele>914.32</ele>
      </trkpt>
      <trkpt lat="48.92924" lon="20.39603">
        <ele>914.68</ele>
      </trkpt>
      <trkpt lat="48.92919" lon="20.396">
        <ele>914.62</ele>
      </trkpt>
      <trkpt lat="48.92911" lon="20.39602">
        <ele>914.2</ele>
      </trkpt>
      <trkpt lat="48.9287" lon="20.39596">
        <ele>906.29</ele>
      </trkpt>
      <trkpt lat="48.92862" lon="20.39594">
        <ele>903.35</ele>
      </trkpt>
      <trkpt lat="48.92862" lon="20.39594">
        <ele>903.35</ele>
      </trkpt>
      <trkpt lat="48.92862" lon="20.39594">
        <ele>903.35</ele>
      </trkpt>
      <trkpt lat="48.92852" lon="20.39592">
        <ele>902.09</ele>
      </trkpt>
      <trkpt lat="48.92804" lon="20.3959">
        <ele>897.43</ele>
      </trkpt>
      <trkpt lat="48.92775" lon="20.39593">
        <ele>898.44</ele>
      </trkpt>
      <trkpt lat="48.92737" lon="20.3959">
        <ele>906.35</ele>
      </trkpt>
      <trkpt lat="48.92717" lon="20.39587">
        <ele>907.85</ele>
      </trkpt>
      <trkpt lat="48.92707" lon="20.39583">
        <ele>906.33</ele>
      </trkpt>
      <trkpt lat="48.92697" lon="20.39573">
        <ele>905.1</ele>
      </trkpt>
      <trkpt lat="48.92691" lon="20.39571">
        <ele>905.5</ele>
      </trkpt>
      <trkpt lat="48.92679" lon="20.3957">
        <ele>907.22</ele>
      </trkpt>
      <trkpt lat="48.92642" lon="20.39587">
        <ele>917.51</ele>
      </trkpt>
      <trkpt lat="48.92638" lon="20.39589">
        <ele>919.07</ele>
      </trkpt>
      <trkpt lat="48.92615" lon="20.39598">
        <ele>925.58</ele>
      </trkpt>
      <trkpt lat="48.92598" lon="20.39602">
        <ele>926.78</ele>
      </trkpt>
      <trkpt lat="48.9258" lon="20.39599">
        <ele>928.59</ele>
      </trkpt>
      <trkpt lat="48.92558" lon="20.39589">
        <ele>932.06</ele>
      </trkpt>
      <trkpt lat="48.92548" lon="20.39586">
        <ele>932.95</ele>
      </trkpt>
      <trkpt lat="48.92537" lon="20.3958">
        <ele>933.7</ele>
      </trkpt>
      <trkpt lat="48.92534" lon="20.39589">
        <ele>935.66</ele>
      </trkpt>
      <trkpt lat="48.92527" lon="20.39586">
        <ele>935.59</ele>
      </trkpt>
      <trkpt lat="48.92526" lon="20.39594">
        <ele>939.65</ele>
      </trkpt>
      <trkpt lat="48.92516" lon="20.39589">
        <ele>941.56</ele>
      </trkpt>
      <trkpt lat="48.92512" lon="20.39586">
        <ele>942.25</ele>
      </trkpt>
      <trkpt lat="48.92512" lon="20.39593">
        <ele>944.52</ele>
      </trkpt>
      <trkpt lat="48.92505" lon="20.39591">
        <ele>946.66</ele>
      </trkpt>
      <trkpt lat="48.92503" lon="20.39597">
        <ele>948.92</ele>
      </trkpt>
      <trkpt lat="48.92496" lon="20.396">
        <ele>951.32</ele>
      </trkpt>
      <trkpt lat="48.92494" lon="20.39592">
        <ele>949.95</ele>
      </trkpt>
      <trkpt lat="48.9247" lon="20.39584">
        <ele>953.1</ele>
      </trkpt>
      <trkpt lat="48.92466" lon="20.39579">
        <ele>954.27</ele>
      </trkpt>
      <trkpt lat="48.92462" lon="20.39571">
        <ele>955.62</ele>
      </trkpt>
      <trkpt lat="48.92457" lon="20.39567">
        <ele>958.16</ele>
      </trkpt>
      <trkpt lat="48.92452" lon="20.39569">
        <ele>960.93</ele>
      </trkpt>
      <trkpt lat="48.9244" lon="20.39585">
        <ele>965.56</ele>
      </trkpt>
      <trkpt lat="48.92433" lon="20.39604">
        <ele>970.4</ele>
      </trkpt>
      <trkpt lat="48.92429" lon="20.3962">
        <ele>972.94</ele>
      </trkpt>
      <trkpt lat="48.92424" lon="20.39653">
        <ele>976.36</ele>
      </trkpt>
      <trkpt lat="48.92416" lon="20.39683">
        <ele>980.96</ele>
      </trkpt>
      <trkpt lat="48.92412" lon="20.39661">
        <ele>978.0</ele>
      </trkpt>
      <trkpt lat="48.9241" lon="20.39641">
        <ele>977.08</ele>
      </trkpt>
      <trkpt lat="48.92408" lon="20.396">
        <ele>975.73</ele>
      </trkpt>
      <trkpt lat="48.92407" lon="20.39558">
        <ele>974.23</ele>
      </trkpt>
      <trkpt lat="48.92407" lon="20.39513">
        <ele>981.43</ele>
      </trkpt>
      <trkpt lat="48.92411" lon="20.39474">
        <ele>987.0</ele>
      </trkpt>
      <trkpt lat="48.92414" lon="20.39461">
        <ele>987.59</ele>
      </trkpt>
      <trkpt lat="48.92414" lon="20.39461">
        <ele>987.59</ele>
      </trkpt>
      <trkpt lat="48.92414" lon="20.39461">
        <ele>987.59</ele>
      </trkpt>
      <trkpt lat="48.92415" lon="20.39455">
        <ele>988.07</ele>
      </trkpt>
      <trkpt lat="48.9242" lon="20.3944">
        <ele>988.18</ele>
      </trkpt>
      <trkpt lat="48.92438" lon="20.39403">
        <ele>985.3</ele>
      </trkpt>
      <trkpt lat="48.92453" lon="20.39376">
        <ele>982.64</ele>
      </trkpt>
      <trkpt lat="48.92469" lon="20.3935">
        <ele>979.66</ele>
      </trkpt>
      <trkpt lat="48.92492" lon="20.39326">
        <ele>977.8</ele>
      </trkpt>
      <trkpt lat="48.92499" lon="20.39315">
        <ele>980.06</ele>
      </trkpt>
      <trkpt lat="48.92504" lon="20.39312">
        <ele>981.99</ele>
      </trkpt>
      <trkpt lat="48.92511" lon="20.39313">
        <ele>983.57</ele>
      </trkpt>
      <trkpt lat="48.92523" lon="20.39316">
        <ele>986.03</ele>
      </trkpt>
      <trkpt lat="48.92529" lon="20.39314">
        <ele>987.96</ele>
      </trkpt>
      <trkpt lat="48.92535" lon="20.39306">
        <ele>990.41</ele>
      </trkpt>
      <trkpt lat="48.92548" lon="20.39274">
        <ele>999.82</ele>
      </trkpt>
      <trkpt lat="48.92564" lon="20.3924">
        <ele>1009.63</ele>
      </trkpt>
      <trkpt lat="48.92575" lon="20.39228">
        <ele>1013.1</ele>
      </trkpt>
      <trkpt lat="48.92581" lon="20.39221">
        <ele>1015.12</ele>
      </trkpt>
      <trkpt lat="48.92595" lon="20.39212">
        <ele>1013.75</ele>
      </trkpt>
      <trkpt lat="48.92618" lon="20.39204">
        <ele>1009.96</ele>
      </trkpt>
      <trkpt lat="48.9264" lon="20.39191">
        <ele>1010.29</ele>
      </trkpt>
      <trkpt lat="48.92663" lon="20.39172">
        <ele>1008.19</ele>
      </trkpt>
      <trkpt lat="48.92674" lon="20.39164">
        <ele>1006.7</ele>
      </trkpt>
      <trkpt lat="48.92684" lon="20.3916">
        <ele>1004.98</ele>
      </trkpt>
      <trkpt lat="48.92697" lon="20.39155">
        <ele>1003.44</ele>
      </trkpt>
      <trkpt lat="48.92705" lon="20.39149">
        <ele>1004.67</ele>
      </trkpt>
      <trkpt lat="48.92713" lon="20.39138">
        <ele>1006.47</ele>
      </trkpt>
      <trkpt lat="48.92715" lon="20.39124">
        <ele>1008.76</ele>
      </trkpt>
      <trkpt lat="48.92717" lon="20.39105">
        <ele>1011.38</ele>
      </trkpt>
      <trkpt lat="48.92716" lon="20.39077">
        <ele>1013.73</ele>
      </trkpt>
      <trkpt lat="48.92711" lon="20.39043">
        <ele>1015.48</ele>
      </trkpt>
      <trkpt lat="48.92709" lon="20.39016">
        <ele>1014.5</ele>
      </trkpt>
      <trkpt lat="48.92705" lon="20.38974">
        <ele>1008.15</ele>
      </trkpt>
      <trkpt lat="48.92697" lon="20.38937">
        <ele>1005.59</ele>
      </trkpt>
      <trkpt lat="48.92692" lon="20.38907">
        <ele>1002.56</ele>
      </trkpt>
      <trkpt lat="48.92688" lon="20.38872">
        <ele>997.61</ele>
      </trkpt>
      <trkpt lat="48.92688" lon="20.38834">
        <ele>994.65</ele>
      </trkpt>
      <trkpt lat="48.92687" lon="20.38804">
        <ele>992.75</ele>
      </trkpt>
      <trkpt lat="48.92689" lon="20.38779">
        <ele>990.27</ele>
      </trkpt>
      <trkpt lat="48.92691" lon="20.38766">
        <ele>988.79</ele>
      </trkpt>
      <trkpt lat="48.92698" lon="20.38747">
        <ele>985.24</ele>
      </trkpt>
      <trkpt lat="48.92704" lon="20.38734">
        <ele>979.93</ele>
      </trkpt>
      <trkpt lat="48.9271" lon="20.38712">
        <ele>975.22</ele>
      </trkpt>
      <trkpt lat="48.9272" lon="20.38682">
        <ele>974.09</ele>
      </trkpt>
      <trkpt lat="48.92723" lon="20.3867">
        <ele>974.9</ele>
      </trkpt>
      <trkpt lat="48.92725" lon="20.38655">
        <ele>977.01</ele>
      </trkpt>
      <trkpt lat="48.92734" lon="20.38665">
        <ele>977.26</ele>
      </trkpt>
      <trkpt lat="48.92741" lon="20.38672">
        <ele>978.13</ele>
      </trkpt>
      <trkpt lat="48.92747" lon="20.38676">
        <ele>979.09</ele>
      </trkpt>
      <trkpt lat="48.92752" lon="20.38679">
        <ele>980.14</ele>
      </trkpt>
      <trkpt lat="48.92759" lon="20.38681">
        <ele>982.07</ele>
      </trkpt>
      <trkpt lat="48.92763" lon="20.38682">
        <ele>983.14</ele>
      </trkpt>
      <trkpt lat="48.92776" lon="20.38681">
        <ele>986.94</ele>
      </trkpt>
      <trkpt lat="48.92785" lon="20.38674">
        <ele>987.76</ele>
      </trkpt>
      <trkpt lat="48.92799" lon="20.38666">
        <ele>987.51</ele>
      </trkpt>
      <trkpt lat="48.92799" lon="20.38666">
        <ele>987.51</ele>
      </trkpt>
      <trkpt lat="48.92799" lon="20.38666">
        <ele>987.51</ele>
      </trkpt>
      <trkpt lat="48.92799" lon="20.38666">
        <ele>987.51</ele>
      </trkpt>
      <trkpt lat="48.92806" lon="20.38664">
        <ele>987.22</ele>
      </trkpt>
      <trkpt lat="48.9283" lon="20.38658">
        <ele>989.11</ele>
      </trkpt>
      <trkpt lat="48.92874" lon="20.38636">
        <ele>990.74</ele>
      </trkpt>
      <trkpt lat="48.92884" lon="20.38631">
        <ele>990.74</ele>
      </trkpt>
      <trkpt lat="48.92892" lon="20.38628">
        <ele>990.81</ele>
      </trkpt>
      <trkpt lat="48.92898" lon="20.38628">
        <ele>990.85</ele>
      </trkpt>
      <trkpt lat="48.92904" lon="20.38631">
        <ele>990.8</ele>
      </trkpt>
      <trkpt lat="48.9291" lon="20.38635">
        <ele>990.83</ele>
      </trkpt>
      <trkpt lat="48.92914" lon="20.38638">
        <ele>990.91</ele>
      </trkpt>
      <trkpt lat="48.92919" lon="20.38644">
        <ele>990.55</ele>
      </trkpt>
      <trkpt lat="48.92926" lon="20.38653">
        <ele>989.31</ele>
      </trkpt>
      <trkpt lat="48.92931" lon="20.38665">
        <ele>988.03</ele>
      </trkpt>
      <trkpt lat="48.92935" lon="20.38674">
        <ele>986.74</ele>
      </trkpt>
      <trkpt lat="48.92938" lon="20.38679">
        <ele>985.94</ele>
      </trkpt>
      <trkpt lat="48.92943" lon="20.38684">
        <ele>984.93</ele>
      </trkpt>
      <trkpt lat="48.92947" lon="20.38686">
        <ele>984.33</ele>
      </trkpt>
      <trkpt lat="48.92952" lon="20.38686">
        <ele>983.79</ele>
      </trkpt>
      <trkpt lat="48.92955" lon="20.38685">
        <ele>983.54</ele>
      </trkpt>
      <trkpt lat="48.92959" lon="20.38683">
        <ele>983.25</ele>
      </trkpt>
      <trkpt lat="48.92964" lon="20.38678">
        <ele>983.07</ele>
      </trkpt>
      <trkpt lat="48.92975" lon="20.38662">
        <ele>982.62</ele>
      </trkpt>
      <trkpt lat="48.92988" lon="20.38641">
        <ele>979.51</ele>
      </trkpt>
      <trkpt lat="48.92996" lon="20.38632">
        <ele>975.95</ele>
      </trkpt>
      <trkpt lat="48.93005" lon="20.38622">
        <ele>971.78</ele>
      </trkpt>
      <trkpt lat="48.9302" lon="20.38607">
        <ele>967.47</ele>
      </trkpt>
      <trkpt lat="48.93033" lon="20.38596">
        <ele>966.82</ele>
      </trkpt>
      <trkpt lat="48.93042" lon="20.38586">
        <ele>967.47</ele>
      </trkpt>
      <trkpt lat="48.93047" lon="20.38578">
        <ele>967.75</ele>
      </trkpt>
      <trkpt lat="48.93058" lon="20.3856">
        <ele>968.44</ele>
      </trkpt>
      <trkpt lat="48.93068" lon="20.38542">
        <ele>971.0</ele>
      </trkpt>
      <trkpt lat="48.93074" lon="20.38527">
        <ele>972.65</ele>
      </trkpt>
      <trkpt lat="48.93088" lon="20.385">
        <ele>972.66</ele>
      </trkpt>
      <trkpt lat="48.93101" lon="20.38475">
        <ele>970.17</ele>
      </trkpt>
      <trkpt lat="48.93126" lon="20.38432">
        <ele>965.58</ele>
      </trkpt>
      <trkpt lat="48.93143" lon="20.38403">
        <ele>962.14</ele>
      </trkpt>
      <trkpt lat="48.93153" lon="20.38389">
        <ele>960.48</ele>
      </trkpt>
      <trkpt lat="48.93161" lon="20.38379">
        <ele>959.12</ele>
      </trkpt>
      <trkpt lat="48.9317" lon="20.38372">
        <ele>957.64</ele>
      </trkpt>
      <trkpt lat="48.93179" lon="20.38367">
        <ele>956.72</ele>
      </trkpt>
      <trkpt lat="48.9321" lon="20.38346">
        <ele>955.03</ele>
      </trkpt>
      <trkpt lat="48.93224" lon="20.38337">
        <ele>955.3</ele>
      </trkpt>
      <trkpt lat="48.93239" lon="20.38326">
        <ele>957.0</ele>
      </trkpt>
      <trkpt lat="48.93249" lon="20.38319">
        <ele>958.48</ele>
      </trkpt>
      <trkpt lat="48.9326" lon="20.38313">
        <ele>957.13</ele>
      </trkpt>
      <trkpt lat="48.93272" lon="20.38307">
        <ele>955.13</ele>
      </trkpt>
      <trkpt lat="48.93287" lon="20.38304">
        <ele>951.88</ele>
      </trkpt>
      <trkpt lat="48.93308" lon="20.38302">
        <ele>947.2</ele>
      </trkpt>
      <trkpt lat="48.9333" lon="20.38304">
        <ele>944.87</ele>
      </trkpt>
      <trkpt lat="48.93351" lon="20.3831">
        <ele>947.07</ele>
      </trkpt>
      <trkpt lat="48.93372" lon="20.38314">
        <ele>948.84</ele>
      </trkpt>
      <trkpt lat="48.93401" lon="20.38325">
        <ele>949.47</ele>
      </trkpt>
      <trkpt lat="48.93412" lon="20.38268">
        <ele>950.01</ele>
      </trkpt>
      <trkpt lat="48.93421" lon="20.38216">
        <ele>944.93</ele>
      </trkpt>
      <trkpt lat="48.93426" lon="20.3817">
        <ele>942.07</ele>
      </trkpt>
      <trkpt lat="48.93432" lon="20.38151">
        <ele>941.66</ele>
      </trkpt>
      <trkpt lat="48.93438" lon="20.38139">
        <ele>941.46</ele>
      </trkpt>
      <trkpt lat="48.93449" lon="20.38127">
        <ele>940.17</ele>
      </trkpt>
      <trkpt lat="48.93473" lon="20.38107">
        <ele>936.56</ele>
      </trkpt>
      <trkpt lat="48.93483" lon="20.38109">
        <ele>936.83</ele>
      </trkpt>
      <trkpt lat="48.93572" lon="20.38105">
        <ele>937.08</ele>
      </trkpt>
      <trkpt lat="48.93604" lon="20.381">
        <ele>946.4</ele>
      </trkpt>
      <trkpt lat="48.9363" lon="20.38097">
        <ele>945.98</ele>
      </trkpt>
      <trkpt lat="48.93662" lon="20.38094">
        <ele>939.0</ele>
      </trkpt>
      <trkpt lat="48.93681" lon="20.3809">
        <ele>931.5</ele>
      </trkpt>
      <trkpt lat="48.93698" lon="20.38083">
        <ele>925.22</ele>
      </trkpt>
      <trkpt lat="48.9373" lon="20.38066">
        <ele>919.48</ele>
      </trkpt>
      <trkpt lat="48.93758" lon="20.38053">
        <ele>919.24</ele>
      </trkpt>
      <trkpt lat="48.93783" lon="20.38042">
        <ele>920.36</ele>
      </trkpt>
      <trkpt lat="48.93844" lon="20.3802">
        <ele>923.38</ele>
      </trkpt>
      <trkpt lat="48.93852" lon="20.38016">
        <ele>922.89</ele>
      </trkpt>
      <trkpt lat="48.93859" lon="20.3801">
        <ele>922.96</ele>
      </trkpt>
      <trkpt lat="48.93869" lon="20.37999">
        <ele>924.27</ele>
      </trkpt>
      <trkpt lat="48.93877" lon="20.37987">
        <ele>924.62</ele>
      </trkpt>
      <trkpt lat="48.93886" lon="20.37967">
        <ele>924.95</ele>
      </trkpt>
      <trkpt lat="48.93899" lon="20.37929">
        <ele>924.88</ele>
      </trkpt>
      <trkpt lat="48.93907" lon="20.37915">
        <ele>923.37</ele>
      </trkpt>
      <trkpt lat="48.93913" lon="20.37908">
        <ele>922.25</ele>
      </trkpt>
      <trkpt lat="48.93919" lon="20.37904">
        <ele>921.05</ele>
      </trkpt>
      <trkpt lat="48.93926" lon="20.37901">
        <ele>920.26</ele>
      </trkpt>
      <trkpt lat="48.93961" lon="20.37891">
        <ele>919.19</ele>
      </trkpt>
      <trkpt lat="48.93981" lon="20.37883">
        <ele>922.05</ele>
      </trkpt>
      <trkpt lat="48.93997" lon="20.37882">
        <ele>922.66</ele>
      </trkpt>
      <trkpt lat="48.94009" lon="20.37883">
        <ele>922.28</ele>
      </trkpt>
      <trkpt lat="48.94024" lon="20.37886">
        <ele>921.46</ele>
      </trkpt>
      <trkpt lat="48.94038" lon="20.37891">
        <ele>922.02</ele>
      </trkpt>
      <trkpt lat="48.94059" lon="20.37893">
        <ele>923.72</ele>
      </trkpt>
      <trkpt lat="48.94077" lon="20.37893">
        <ele>921.68</ele>
      </trkpt>
      <trkpt lat="48.94085" lon="20.37896">
        <ele>919.91</ele>
      </trkpt>
      <trkpt lat="48.94092" lon="20.37901">
        <ele>917.39</ele>
      </trkpt>
      <trkpt lat="48.94097" lon="20.37907">
        <ele>914.98</ele>
      </trkpt>
      <trkpt lat="48.94103" lon="20.37919">
        <ele>911.18</ele>
      </trkpt>
      <trkpt lat="48.9411" lon="20.37947">
        <ele>907.15</ele>
      </trkpt>
      <trkpt lat="48.94119" lon="20.37985">
        <ele>907.39</ele>
      </trkpt>
      <trkpt lat="48.9413" lon="20.38029">
        <ele>905.67</ele>
      </trkpt>
      <trkpt lat="48.9414" lon="20.38058">
        <ele>906.16</ele>
      </trkpt>
      <trkpt lat="48.94151" lon="20.38085">
        <ele>908.21</ele>
      </trkpt>
      <trkpt lat="48.94163" lon="20.38109">
        <ele>910.46</ele>
      </trkpt>
      <trkpt lat="48.94176" lon="20.38141">
        <ele>908.1</ele>
      </trkpt>
      <trkpt lat="48.942" lon="20.38198">
        <ele>902.18</ele>
      </trkpt>
      <trkpt lat="48.94213" lon="20.3822">
        <ele>904.15</ele>
      </trkpt>
      <trkpt lat="48.94226" lon="20.38239">
        <ele>903.02</ele>
      </trkpt>
      <trkpt lat="48.94253" lon="20.38264">
        <ele>902.72</ele>
      </trkpt>
      <trkpt lat="48.94262" lon="20.38268">
        <ele>899.44</ele>
      </trkpt>
      <trkpt lat="48.94272" lon="20.38269">
        <ele>896.67</ele>
      </trkpt>
      <trkpt lat="48.94279" lon="20.38264">
        <ele>896.1</ele>
      </trkpt>
      <trkpt lat="48.94282" lon="20.38261">
        <ele>895.92</ele>
      </trkpt>
      <trkpt lat="48.94282" lon="20.38261">
        <ele>895.92</ele>
      </trkpt>
      <trkpt lat="48.94282" lon="20.38261">
        <ele>895.92</ele>
      </trkpt>
      <trkpt lat="48.94285" lon="20.38255">
        <ele>896.45</ele>
      </trkpt>
      <trkpt lat="48.94303" lon="20.38207">
        <ele>894.24</ele>
      </trkpt>
      <trkpt lat="48.94327" lon="20.38147">
        <ele>893.91</ele>
      </trkpt>
      <trkpt lat="48.94336" lon="20.38132">
        <ele>893.42</ele>
      </trkpt>
      <trkpt lat="48.94345" lon="20.38123">
        <ele>892.77</ele>
      </trkpt>
      <trkpt lat="48.94368" lon="20.3811">
        <ele>890.42</ele>
      </trkpt>
      <trkpt lat="48.94378" lon="20.38102">
        <ele>890.49</ele>
      </trkpt>
      <trkpt lat="48.94385" lon="20.38093">
        <ele>891.03</ele>
      </trkpt>
      <trkpt lat="48.94401" lon="20.38069">
        <ele>894.36</ele>
      </trkpt>
      <trkpt lat="48.94418" lon="20.38047">
        <ele>896.52</ele>
      </trkpt>
      <trkpt lat="48.94427" lon="20.38041">
        <ele>896.3</ele>
      </trkpt>
      <trkpt lat="48.94446" lon="20.38036">
        <ele>895.35</ele>
      </trkpt>
      <trkpt lat="48.94498" lon="20.38034">
        <ele>894.76</ele>
      </trkpt>
      <trkpt lat="48.94511" lon="20.38027">
        <ele>894.98</ele>
      </trkpt>
      <trkpt lat="48.94522" lon="20.38011">
        <ele>894.04</ele>
      </trkpt>
      <trkpt lat="48.94533" lon="20.37989">
        <ele>891.25</ele>
      </trkpt>
      <trkpt lat="48.94546" lon="20.37969">
        <ele>886.25</ele>
      </trkpt>
      <trkpt lat="48.94556" lon="20.37959">
        <ele>883.34</ele>
      </trkpt>
      <trkpt lat="48.94577" lon="20.37943">
        <ele>877.29</ele>
      </trkpt>
      <trkpt lat="48.94605" lon="20.37914">
        <ele>873.42</ele>
      </trkpt>
      <trkpt lat="48.9461" lon="20.37911">
        <ele>872.03</ele>
      </trkpt>
      <trkpt lat="48.94617" lon="20.37909">
        <ele>870.98</ele>
      </trkpt>
      <trkpt lat="48.94658" lon="20.37909">
        <ele>864.39</ele>
      </trkpt>
      <trkpt lat="48.94696" lon="20.37913">
        <ele>858.17</ele>
      </trkpt>
      <trkpt lat="48.94706" lon="20.37913">
        <ele>858.02</ele>
      </trkpt>
      <trkpt lat="48.94715" lon="20.3791">
        <ele>858.63</ele>
      </trkpt>
      <trkpt lat="48.94723" lon="20.37904">
        <ele>859.76</ele>
      </trkpt>
      <trkpt lat="48.94731" lon="20.37893">
        <ele>862.65</ele>
      </trkpt>
      <trkpt lat="48.94736" lon="20.37879">
        <ele>866.13</ele>
      </trkpt>
      <trkpt lat="48.94741" lon="20.37866">
        <ele>869.3</ele>
      </trkpt>
      <trkpt lat="48.94752" lon="20.37856">
        <ele>871.84</ele>
      </trkpt>
      <trkpt lat="48.94763" lon="20.3785">
        <ele>870.8</ele>
      </trkpt>
      <trkpt lat="48.94798" lon="20.3784">
        <ele>863.71</ele>
      </trkpt>
      <trkpt lat="48.94826" lon="20.37829">
        <ele>861.35</ele>
      </trkpt>
      <trkpt lat="48.94854" lon="20.37821">
        <ele>865.59</ele>
      </trkpt>
      <trkpt lat="48.94876" lon="20.37814">
        <ele>867.53</ele>
      </trkpt>
      <trkpt lat="48.94895" lon="20.37809">
        <ele>866.77</ele>
      </trkpt>
      <trkpt lat="48.94906" lon="20.37806">
        <ele>865.8</ele>
      </trkpt>
      <trkpt lat="48.94914" lon="20.37802">
        <ele>864.99</ele>
      </trkpt>
      <trkpt lat="48.94932" lon="20.37789">
        <ele>861.74</ele>
      </trkpt>
      <trkpt lat="48.94948" lon="20.37778">
        <ele>859.31</ele>
      </trkpt>
      <trkpt lat="48.94957" lon="20.37773">
        <ele>859.49</ele>
      </trkpt>
      <trkpt lat="48.94966" lon="20.37772">
        <ele>857.97</ele>
      </trkpt>
      <trkpt lat="48.94981" lon="20.37771">
        <ele>853.24</ele>
      </trkpt>
      <trkpt lat="48.94998" lon="20.37771">
        <ele>846.04</ele>
      </trkpt>
      <trkpt lat="48.95017" lon="20.37773">
        <ele>845.16</ele>
      </trkpt>
      <trkpt lat="48.95047" lon="20.37775">
        <ele>841.58</ele>
      </trkpt>
      <trkpt lat="48.95055" lon="20.37776">
        <ele>839.8</ele>
      </trkpt>
      <trkpt lat="48.95064" lon="20.37779">
        <ele>841.64</ele>
      </trkpt>
      <trkpt lat="48.95083" lon="20.37789">
        <ele>845.1</ele>
      </trkpt>
      <trkpt lat="48.95114" lon="20.37802">
        <ele>849.8</ele>
      </trkpt>
      <trkpt lat="48.95128" lon="20.37809">
        <ele>847.98</ele>
      </trkpt>
      <trkpt lat="48.95143" lon="20.37823">
        <ele>845.64</ele>
      </trkpt>
      <trkpt lat="48.95161" lon="20.37843">
        <ele>831.6</ele>
      </trkpt>
      <trkpt lat="48.95173" lon="20.37851">
        <ele>824.13</ele>
      </trkpt>
      <trkpt lat="48.95197" lon="20.37864">
        <ele>812.34</ele>
      </trkpt>
      <trkpt lat="48.95215" lon="20.3787">
        <ele>811.96</ele>
      </trkpt>
      <trkpt lat="48.95232" lon="20.37877">
        <ele>807.31</ele>
      </trkpt>
      <trkpt lat="48.95243" lon="20.3788">
        <ele>804.41</ele>
      </trkpt>
      <trkpt lat="48.95253" lon="20.3788">
        <ele>803.34</ele>
      </trkpt>
      <trkpt lat="48.95265" lon="20.37878">
        <ele>803.64</ele>
      </trkpt>
      <trkpt lat="48.95286" lon="20.37868">
        <ele>806.59</ele>
      </trkpt>
      <trkpt lat="48.95355" lon="20.37974">
        <ele>778.05</ele>
      </trkpt>
      <trkpt lat="48.95376" lon="20.37986">
        <ele>772.7</ele>
      </trkpt>
      <trkpt lat="48.95441" lon="20.37985">
        <ele>752.65</ele>
      </trkpt>
      <trkpt lat="48.95503" lon="20.37965">
        <ele>748.31</ele>
      </trkpt>
      <trkpt lat="48.95568" lon="20.37974">
        <ele>734.13</ele>
      </trkpt>
      <trkpt lat="48.95563" lon="20.37962">
        <ele>737.23</ele>
      </trkpt>
      <trkpt lat="48.95567" lon="20.37961">
        <ele>736.9</ele>
      </trkpt>
      <trkpt lat="48.95571" lon="20.37958">
        <ele>736.88</ele>
      </trkpt>
      <trkpt lat="48.95574" lon="20.37952">
        <ele>737.49</ele>
      </trkpt>
      <trkpt lat="48.95579" lon="20.37933">
        <ele>737.46</ele>
      </trkpt>
      <trkpt lat="48.95582" lon="20.3791">
        <ele>735.38</ele>
      </trkpt>
      <trkpt lat="48.95589" lon="20.37875">
        <ele>734.59</ele>
      </trkpt>
      <trkpt lat="48.95595" lon="20.37857">
        <ele>734.9</ele>
      </trkpt>
      <trkpt lat="48.95628" lon="20.37803">
        <ele>735.52</ele>
      </trkpt>
      <trkpt lat="48.95641" lon="20.37772">
        <ele>733.21</ele>
      </trkpt>
      <trkpt lat="48.95647" lon="20.37753">
        <ele>730.56</ele>
      </trkpt>
      <trkpt lat="48.95651" lon="20.37731">
        <ele>726.33</ele>
      </trkpt>
      <trkpt lat="48.95652" lon="20.37709">
        <ele>721.08</ele>
      </trkpt>
      <trkpt lat="48.95654" lon="20.3768">
        <ele>711.97</ele>
      </trkpt>
      <trkpt lat="48.95653" lon="20.37659">
        <ele>709.05</ele>
      </trkpt>
      <trkpt lat="48.95653" lon="20.37657">
        <ele>708.98</ele>
      </trkpt>
      <trkpt lat="48.95653" lon="20.37657">
        <ele>708.98</ele>
      </trkpt>
      <trkpt lat="48.95653" lon="20.37657">
        <ele>708.98</ele>
      </trkpt>
      <trkpt lat="48.95651" lon="20.3764">
        <ele>709.77</ele>
      </trkpt>
      <trkpt lat="48.95643" lon="20.37606">
        <ele>709.03</ele>
      </trkpt>
      <trkpt lat="48.9564" lon="20.37594">
        <ele>707.5</ele>
      </trkpt>
      <trkpt lat="48.9564" lon="20.37585">
        <ele>704.99</ele>
      </trkpt>
      <trkpt lat="48.95642" lon="20.37574">
        <ele>704.44</ele>
      </trkpt>
      <trkpt lat="48.95647" lon="20.37565">
        <ele>703.39</ele>
      </trkpt>
      <trkpt lat="48.95653" lon="20.37559">
        <ele>701.99</ele>
      </trkpt>
      <trkpt lat="48.9566" lon="20.37557">
        <ele>699.94</ele>
      </trkpt>
      <trkpt lat="48.95668" lon="20.37557">
        <ele>697.93</ele>
      </trkpt>
      <trkpt lat="48.95676" lon="20.3756">
        <ele>698.44</ele>
      </trkpt>
      <trkpt lat="48.95701" lon="20.37578">
        <ele>696.21</ele>
      </trkpt>
      <trkpt lat="48.95733" lon="20.37608">
        <ele>689.4</ele>
      </trkpt>
      <trkpt lat="48.95766" lon="20.37639">
        <ele>680.81</ele>
      </trkpt>
      <trkpt lat="48.95773" lon="20.37644">
        <ele>678.4</ele>
      </trkpt>
      <trkpt lat="48.95778" lon="20.37645">
        <ele>676.75</ele>
      </trkpt>
      <trkpt lat="48.95784" lon="20.37641">
        <ele>675.72</ele>
      </trkpt>
      <trkpt lat="48.95788" lon="20.37634">
        <ele>674.26</ele>
      </trkpt>
      <trkpt lat="48.95792" lon="20.37622">
        <ele>671.11</ele>
      </trkpt>
      <trkpt lat="48.95793" lon="20.37613">
        <ele>669.03</ele>
      </trkpt>
      <trkpt lat="48.95793" lon="20.37602">
        <ele>666.87</ele>
      </trkpt>
      <trkpt lat="48.95792" lon="20.37588">
        <ele>664.4</ele>
      </trkpt>
      <trkpt lat="48.95791" lon="20.37573">
        <ele>663.15</ele>
      </trkpt>
      <trkpt lat="48.9579" lon="20.37526">
        <ele>662.26</ele>
      </trkpt>
      <trkpt lat="48.95792" lon="20.37443">
        <ele>666.55</ele>
      </trkpt>
      <trkpt lat="48.9579" lon="20.37294">
        <ele>665.75</ele>
      </trkpt>
      <trkpt lat="48.9579" lon="20.37275">
        <ele>665.5</ele>
      </trkpt>
      <trkpt lat="48.95792" lon="20.37262">
        <ele>664.3</ele>
      </trkpt>
      <trkpt lat="48.95795" lon="20.37251">
        <ele>662.75</ele>
      </trkpt>
      <trkpt lat="48.95798" lon="20.37246">
        <ele>661.73</ele>
      </trkpt>
      <trkpt lat="48.95802" lon="20.37243">
        <ele>660.49</ele>
      </trkpt>
      <trkpt lat="48.95808" lon="20.37241">
        <ele>659.5</ele>
      </trkpt>
      <trkpt lat="48.95813" lon="20.37241">
        <ele>659.8</ele>
      </trkpt>
      <trkpt lat="48.95818" lon="20.37242">
        <ele>660.19</ele>
      </trkpt>
      <trkpt lat="48.95824" lon="20.37245">
        <ele>660.85</ele>
      </trkpt>
      <trkpt lat="48.9583" lon="20.3725">
        <ele>661.76</ele>
      </trkpt>
      <trkpt lat="48.95833" lon="20.37254">
        <ele>662.13</ele>
      </trkpt>
      <trkpt lat="48.95836" lon="20.37261">
        <ele>661.82</ele>
      </trkpt>
      <trkpt lat="48.95841" lon="20.3727">
        <ele>661.06</ele>
      </trkpt>
      <trkpt lat="48.95847" lon="20.37285">
        <ele>660.97</ele>
      </trkpt>
      <trkpt lat="48.95854" lon="20.37308">
        <ele>661.01</ele>
      </trkpt>
      <trkpt lat="48.95859" lon="20.37324">
        <ele>660.68</ele>
      </trkpt>
      <trkpt lat="48.95862" lon="20.37337">
        <ele>660.36</ele>
      </trkpt>
      <trkpt lat="48.95867" lon="20.37415">
        <ele>657.03</ele>
      </trkpt>
      <trkpt lat="48.95871" lon="20.37441">
        <ele>649.31</ele>
      </trkpt>
      <trkpt lat="48.95877" lon="20.37468">
        <ele>637.92</ele>
      </trkpt>
      <trkpt lat="48.95885" lon="20.37495">
        <ele>632.37</ele>
      </trkpt>
      <trkpt lat="48.959" lon="20.3754">
        <ele>631.07</ele>
      </trkpt>
      <trkpt lat="48.95927" lon="20.37612">
        <ele>643.27</ele>
      </trkpt>
      <trkpt lat="48.95934" lon="20.37635">
        <ele>640.97</ele>
      </trkpt>
      <trkpt lat="48.95941" lon="20.3766">
        <ele>637.38</ele>
      </trkpt>
      <trkpt lat="48.95968" lon="20.37785">
        <ele>629.66</ele>
      </trkpt>
      <trkpt lat="48.95971" lon="20.37808">
        <ele>628.23</ele>
      </trkpt>
      <trkpt lat="48.95974" lon="20.37822">
        <ele>626.47</ele>
      </trkpt>
      <trkpt lat="48.95977" lon="20.37827">
        <ele>625.7</ele>
      </trkpt>
      <trkpt lat="48.95982" lon="20.37831">
        <ele>624.93</ele>
      </trkpt>
      <trkpt lat="48.95986" lon="20.37835">
        <ele>624.75</ele>
      </trkpt>
      <trkpt lat="48.95986" lon="20.3784">
        <ele>625.48</ele>
      </trkpt>
      <trkpt lat="48.95986" lon="20.37849">
        <ele>626.78</ele>
      </trkpt>
      <trkpt lat="48.95983" lon="20.37857">
        <ele>628.63</ele>
      </trkpt>
      <trkpt lat="48.9598" lon="20.37863">
        <ele>630.08</ele>
      </trkpt>
      <trkpt lat="48.95973" lon="20.37867">
        <ele>632.2</ele>
      </trkpt>
      <trkpt lat="48.95951" lon="20.37868">
        <ele>633.26</ele>
      </trkpt>
      <trkpt lat="48.95944" lon="20.3787">
        <ele>633.67</ele>
      </trkpt>
      <trkpt lat="48.95941" lon="20.37875">
        <ele>634.12</ele>
      </trkpt>
      <trkpt lat="48.95939" lon="20.37883">
        <ele>634.43</ele>
      </trkpt>
      <trkpt lat="48.9594" lon="20.37891">
        <ele>634.35</ele>
      </trkpt>
      <trkpt lat="48.95943" lon="20.37902">
        <ele>632.31</ele>
      </trkpt>
      <trkpt lat="48.95947" lon="20.3791">
        <ele>629.58</ele>
      </trkpt>
      <trkpt lat="48.95954" lon="20.37918">
        <ele>624.64</ele>
      </trkpt>
      <trkpt lat="48.95978" lon="20.37935">
        <ele>616.06</ele>
      </trkpt>
      <trkpt lat="48.96048" lon="20.37986">
        <ele>601.33</ele>
      </trkpt>
      <trkpt lat="48.96075" lon="20.38005">
        <ele>600.09</ele>
      </trkpt>
      <trkpt lat="48.9609" lon="20.38016">
        <ele>600.74</ele>
      </trkpt>
      <trkpt lat="48.96104" lon="20.38031">
        <ele>604.15</ele>
      </trkpt>
      <trkpt lat="48.96121" lon="20.38055">
        <ele>602.55</ele>
      </trkpt>
      <trkpt lat="48.96148" lon="20.3809">
        <ele>594.77</ele>
      </trkpt>
      <trkpt lat="48.96167" lon="20.38118">
        <ele>588.55</ele>
      </trkpt>
      <trkpt lat="48.96172" lon="20.38126">
        <ele>586.55</ele>
      </trkpt>
      <trkpt lat="48.96172" lon="20.38126">
        <ele>586.55</ele>
      </trkpt>
      <trkpt lat="48.96172" lon="20.38126">
        <ele>586.55</ele>
      </trkpt>
      <trkpt lat="48.96178" lon="20.38135">
        <ele>584.35</ele>
      </trkpt>
      <trkpt lat="48.96188" lon="20.38158">
        <ele>582.07</ele>
      </trkpt>
      <trkpt lat="48.96202" lon="20.38192">
        <ele>578.38</ele>
      </trkpt>
      <trkpt lat="48.96208" lon="20.38209">
        <ele>575.97</ele>
      </trkpt>
      <trkpt lat="48.9621" lon="20.38223">
        <ele>575.64</ele>
      </trkpt>
      <trkpt lat="48.96213" lon="20.38263">
        <ele>576.9</ele>
      </trkpt>
      <trkpt lat="48.96215" lon="20.38274">
        <ele>577.01</ele>
      </trkpt>
      <trkpt lat="48.96219" lon="20.38288">
        <ele>576.94</ele>
      </trkpt>
      <trkpt lat="48.96224" lon="20.38301">
        <ele>576.22</ele>
      </trkpt>
      <trkpt lat="48.9623" lon="20.3831">
        <ele>572.43</ele>
      </trkpt>
      <trkpt lat="48.96241" lon="20.38325">
        <ele>565.17</ele>
      </trkpt>
      <trkpt lat="48.96247" lon="20.38337">
        <ele>562.11</ele>
      </trkpt>
      <trkpt lat="48.96251" lon="20.38348">
        <ele>560.22</ele>
      </trkpt>
      <trkpt lat="48.96254" lon="20.38364">
        <ele>558.64</ele>
      </trkpt>
      <trkpt lat="48.96258" lon="20.38397">
        <ele>552.66</ele>
      </trkpt>
      <trkpt lat="48.96261" lon="20.38408">
        <ele>549.6</ele>
      </trkpt>
      <trkpt lat="48.96264" lon="20.38419">
        <ele>546.79</ele>
      </trkpt>
      <trkpt lat="48.96267" lon="20.38428">
        <ele>544.97</ele>
      </trkpt>
      <trkpt lat="48.96272" lon="20.38438">
        <ele>542.1</ele>
      </trkpt>
      <trkpt lat="48.96277" lon="20.38445">
        <ele>539.34</ele>
      </trkpt>
      <trkpt lat="48.96284" lon="20.38453">
        <ele>537.57</ele>
      </trkpt>
      <trkpt lat="48.96292" lon="20.38459">
        <ele>535.95</ele>
      </trkpt>
      <trkpt lat="48.963" lon="20.38462">
        <ele>534.41</ele>
      </trkpt>
      <trkpt lat="48.96307" lon="20.38465">
        <ele>533.3</ele>
      </trkpt>
      <trkpt lat="48.96325" lon="20.3847">
        <ele>530.68</ele>
      </trkpt>
      <trkpt lat="48.96337" lon="20.38473">
        <ele>529.62</ele>
      </trkpt>
      <trkpt lat="48.96351" lon="20.38475">
        <ele>531.91</ele>
      </trkpt>
      <trkpt lat="48.96362" lon="20.38478">
        <ele>534.04</ele>
      </trkpt>
      <trkpt lat="48.96369" lon="20.3848">
        <ele>535.87</ele>
      </trkpt>
      <trkpt lat="48.96379" lon="20.38484">
        <ele>538.38</ele>
      </trkpt>
      <trkpt lat="48.96387" lon="20.38488">
        <ele>540.21</ele>
      </trkpt>
      <trkpt lat="48.964" lon="20.38496">
        <ele>541.09</ele>
      </trkpt>
      <trkpt lat="48.96425" lon="20.38513">
        <ele>540.37</ele>
      </trkpt>
      <trkpt lat="48.96455" lon="20.38531">
        <ele>542.66</ele>
      </trkpt>
      <trkpt lat="48.96472" lon="20.38548">
        <ele>546.94</ele>
      </trkpt>
      <trkpt lat="48.96481" lon="20.38558">
        <ele>547.58</ele>
      </trkpt>
      <trkpt lat="48.96486" lon="20.38568">
        <ele>547.55</ele>
      </trkpt>
      <trkpt lat="48.96491" lon="20.38577">
        <ele>547.31</ele>
      </trkpt>
      <trkpt lat="48.96496" lon="20.38583">
        <ele>547.02</ele>
      </trkpt>
      <trkpt lat="48.96502" lon="20.38587">
        <ele>545.93</ele>
      </trkpt>
      <trkpt lat="48.9651" lon="20.38593">
        <ele>543.35</ele>
      </trkpt>
      <trkpt lat="48.9652" lon="20.38589">
        <ele>541.95</ele>
      </trkpt>
      <trkpt lat="48.96534" lon="20.38586">
        <ele>539.21</ele>
      </trkpt>
      <trkpt lat="48.96544" lon="20.38584">
        <ele>536.88</ele>
      </trkpt>
      <trkpt lat="48.96556" lon="20.38581">
        <ele>534.14</ele>
      </trkpt>
      <trkpt lat="48.96579" lon="20.38576">
        <ele>529.11</ele>
      </trkpt>
      <trkpt lat="48.96581" lon="20.38588">
        <ele>527.74</ele>
      </trkpt>
      <trkpt lat="48.96596" lon="20.38585">
        <ele>526.58</ele>
      </trkpt>
    </trkseg>
  </trk>
</gpx>
