<?xml version="1.0" encoding="UTF-8"?>
<gpx xmlns="http://www.topografix.com/GPX/1/1" xmlns:gpsies="https://www.gpsies.com/GPX/1/0" creator="GPSies https://www.gpsies.com - GPSies Track" version="1.1" xmlns:xsi="http://www.w3.org/2001/XMLSchema-instance" xsi:schemaLocation="http://www.topografix.com/GPX/1/1 http://www.topografix.com/GPX/1/1/gpx.xsd https://www.gpsies.com/GPX/1/0 https://www.gpsies.com/gpsies.xsd">
  <metadata>
    <name>GPSies Track</name>
    <link href="https://www.gpsies.com/">
      <text>GPSies Track on GPSies.com</text>
    </link>
    <time>2018-06-15T15:42:48Z</time>
  </metadata>
  <trk>
    <name>GPSies Track on GPSies.com</name>
    <trkseg>
      <trkpt lat="48.96579381" lon="20.38581848">
        <ele>543.00000</ele>
        <time>2010-01-01T00:00:00Z</time>
      </trkpt>
      <trkpt lat="48.96579000" lon="20.38579000">
        <ele>543.00000</ele>
        <time>2010-01-01T00:00:00Z</time>
      </trkpt>
      <trkpt lat="48.96510000" lon="20.38593000">
        <ele>543.00000</ele>
        <time>2010-01-01T00:00:28Z</time>
      </trkpt>
      <trkpt lat="48.96489000" lon="20.38595000">
        <ele>543.00000</ele>
        <time>2010-01-01T00:00:37Z</time>
      </trkpt>
      <trkpt lat="48.96457000" lon="20.38608000">
        <ele>543.00000</ele>
        <time>2010-01-01T00:00:50Z</time>
      </trkpt>
      <trkpt lat="48.96437000" lon="20.38612000">
        <ele>544.00000</ele>
        <time>2010-01-01T00:00:58Z</time>
      </trkpt>
      <trkpt lat="48.96342000" lon="20.38842000">
        <ele>549.00000</ele>
        <time>2010-01-01T00:02:09Z</time>
      </trkpt>
      <trkpt lat="48.96313000" lon="20.38934000">
        <ele>548.00000</ele>
        <time>2010-01-01T00:02:36Z</time>
      </trkpt>
      <trkpt lat="48.96303000" lon="20.38982000">
        <ele>554.00000</ele>
        <time>2010-01-01T00:02:49Z</time>
      </trkpt>
      <trkpt lat="48.96300000" lon="20.39019000">
        <ele>557.00000</ele>
        <time>2010-01-01T00:02:59Z</time>
      </trkpt>
      <trkpt lat="48.96300000" lon="20.39053000">
        <ele>557.00000</ele>
        <time>2010-01-01T00:03:08Z</time>
      </trkpt>
      <trkpt lat="48.96310000" lon="20.39216000">
        <ele>553.00000</ele>
        <time>2010-01-01T00:03:51Z</time>
      </trkpt>
      <trkpt lat="48.96322000" lon="20.39320000">
        <ele>550.00000</ele>
        <time>2010-01-01T00:04:19Z</time>
      </trkpt>
      <trkpt lat="48.96336000" lon="20.39387000">
        <ele>549.00000</ele>
        <time>2010-01-01T00:04:37Z</time>
      </trkpt>
      <trkpt lat="48.96337000" lon="20.39409000">
        <ele>548.00000</ele>
        <time>2010-01-01T00:04:43Z</time>
      </trkpt>
      <trkpt lat="48.96337000" lon="20.39425000">
        <ele>547.00000</ele>
        <time>2010-01-01T00:04:47Z</time>
      </trkpt>
      <trkpt lat="48.96299000" lon="20.39540000">
        <ele>555.00000</ele>
        <time>2010-01-01T00:05:21Z</time>
      </trkpt>
      <trkpt lat="48.96281000" lon="20.39572000">
        <ele>561.00000</ele>
        <time>2010-01-01T00:05:32Z</time>
      </trkpt>
      <trkpt lat="48.96207000" lon="20.39655000">
        <ele>578.00000</ele>
        <time>2010-01-01T00:06:09Z</time>
      </trkpt>
      <trkpt lat="48.96179000" lon="20.39682000">
        <ele>583.00000</ele>
        <time>2010-01-01T00:06:22Z</time>
      </trkpt>
      <trkpt lat="48.96166000" lon="20.39703000">
        <ele>582.00000</ele>
        <time>2010-01-01T00:06:30Z</time>
      </trkpt>
      <trkpt lat="48.96141000" lon="20.39761000">
        <ele>577.00000</ele>
        <time>2010-01-01T00:06:48Z</time>
      </trkpt>
      <trkpt lat="48.96126000" lon="20.39831000">
        <ele>568.00000</ele>
        <time>2010-01-01T00:07:07Z</time>
      </trkpt>
      <trkpt lat="48.96122000" lon="20.39843000">
        <ele>568.00000</ele>
        <time>2010-01-01T00:07:11Z</time>
      </trkpt>
      <trkpt lat="48.96105000" lon="20.39869000">
        <ele>569.00000</ele>
        <time>2010-01-01T00:07:21Z</time>
      </trkpt>
      <trkpt lat="48.96073000" lon="20.39896000">
        <ele>574.00000</ele>
        <time>2010-01-01T00:07:35Z</time>
      </trkpt>
      <trkpt lat="48.96045000" lon="20.39912000">
        <ele>580.00000</ele>
        <time>2010-01-01T00:07:47Z</time>
      </trkpt>
      <trkpt lat="48.96020000" lon="20.39926000">
        <ele>583.00000</ele>
        <time>2010-01-01T00:07:58Z</time>
      </trkpt>
      <trkpt lat="48.96032000" lon="20.39954000">
        <ele>574.00000</ele>
        <time>2010-01-01T00:08:07Z</time>
      </trkpt>
      <trkpt lat="48.96052000" lon="20.39968000">
        <ele>569.00000</ele>
        <time>2010-01-01T00:08:16Z</time>
      </trkpt>
      <trkpt lat="48.96119000" lon="20.40009000">
        <ele>566.00000</ele>
        <time>2010-01-01T00:08:44Z</time>
      </trkpt>
      <trkpt lat="48.96119000" lon="20.40008000">
        <ele>566.00000</ele>
        <time>2010-01-01T00:08:45Z</time>
      </trkpt>
      <trkpt lat="48.96150000" lon="20.40028000">
        <ele>565.00000</ele>
        <time>2010-01-01T00:08:58Z</time>
      </trkpt>
      <trkpt lat="48.96181000" lon="20.40068000">
        <ele>558.00000</ele>
        <time>2010-01-01T00:09:14Z</time>
      </trkpt>
      <trkpt lat="48.96195000" lon="20.40101000">
        <ele>553.00000</ele>
        <time>2010-01-01T00:09:25Z</time>
      </trkpt>
      <trkpt lat="48.96207000" lon="20.40148000">
        <ele>545.00000</ele>
        <time>2010-01-01T00:09:38Z</time>
      </trkpt>
      <trkpt lat="48.96222000" lon="20.40192000">
        <ele>540.00000</ele>
        <time>2010-01-01T00:09:51Z</time>
      </trkpt>
      <trkpt lat="48.96226000" lon="20.40199000">
        <ele>539.00000</ele>
        <time>2010-01-01T00:09:54Z</time>
      </trkpt>
      <trkpt lat="48.96231000" lon="20.40200000">
        <ele>539.00000</ele>
        <time>2010-01-01T00:09:56Z</time>
      </trkpt>
      <trkpt lat="48.96236000" lon="20.40206000">
        <ele>538.00000</ele>
        <time>2010-01-01T00:09:58Z</time>
      </trkpt>
      <trkpt lat="48.96238000" lon="20.40220000">
        <ele>537.00000</ele>
        <time>2010-01-01T00:10:02Z</time>
      </trkpt>
      <trkpt lat="48.96237000" lon="20.40238000">
        <ele>536.00000</ele>
        <time>2010-01-01T00:10:07Z</time>
      </trkpt>
      <trkpt lat="48.96233000" lon="20.40263000">
        <ele>536.00000</ele>
        <time>2010-01-01T00:10:13Z</time>
      </trkpt>
      <trkpt lat="48.96224000" lon="20.40295000">
        <ele>541.00000</ele>
        <time>2010-01-01T00:10:22Z</time>
      </trkpt>
      <trkpt lat="48.96196000" lon="20.40252000">
        <ele>545.00000</ele>
        <time>2010-01-01T00:10:38Z</time>
      </trkpt>
      <trkpt lat="48.96158000" lon="20.40207000">
        <ele>544.00000</ele>
        <time>2010-01-01T00:10:58Z</time>
      </trkpt>
      <trkpt lat="48.96119000" lon="20.40198000">
        <ele>547.00000</ele>
        <time>2010-01-01T00:11:13Z</time>
      </trkpt>
      <trkpt lat="48.96035000" lon="20.40144000">
        <ele>552.00000</ele>
        <time>2010-01-01T00:11:50Z</time>
      </trkpt>
      <trkpt lat="48.96024000" lon="20.40142000">
        <ele>553.00000</ele>
        <time>2010-01-01T00:11:54Z</time>
      </trkpt>
      <trkpt lat="48.96024000" lon="20.40141000">
        <ele>552.00000</ele>
        <time>2010-01-01T00:11:55Z</time>
      </trkpt>
      <trkpt lat="48.96000000" lon="20.40135000">
        <ele>553.00000</ele>
        <time>2010-01-01T00:12:04Z</time>
      </trkpt>
      <trkpt lat="48.95975000" lon="20.40133000">
        <ele>554.00000</ele>
        <time>2010-01-01T00:12:14Z</time>
      </trkpt>
      <trkpt lat="48.95950000" lon="20.40140000">
        <ele>553.00000</ele>
        <time>2010-01-01T00:12:25Z</time>
      </trkpt>
      <trkpt lat="48.95931000" lon="20.40156000">
        <ele>556.00000</ele>
        <time>2010-01-01T00:12:33Z</time>
      </trkpt>
      <trkpt lat="48.95892000" lon="20.40218000">
        <ele>555.00000</ele>
        <time>2010-01-01T00:12:56Z</time>
      </trkpt>
      <trkpt lat="48.95877000" lon="20.40256000">
        <ele>552.00000</ele>
        <time>2010-01-01T00:13:08Z</time>
      </trkpt>
      <trkpt lat="48.95877000" lon="20.40319000">
        <ele>550.00000</ele>
        <time>2010-01-01T00:13:24Z</time>
      </trkpt>
      <trkpt lat="48.95869000" lon="20.40354000">
        <ele>552.00000</ele>
        <time>2010-01-01T00:13:34Z</time>
      </trkpt>
      <trkpt lat="48.95859000" lon="20.40380000">
        <ele>553.00000</ele>
        <time>2010-01-01T00:13:42Z</time>
      </trkpt>
      <trkpt lat="48.95834000" lon="20.40409000">
        <ele>548.00000</ele>
        <time>2010-01-01T00:13:54Z</time>
      </trkpt>
      <trkpt lat="48.95829000" lon="20.40419000">
        <ele>548.00000</ele>
        <time>2010-01-01T00:13:58Z</time>
      </trkpt>
      <trkpt lat="48.95781000" lon="20.40462000">
        <ele>549.00000</ele>
        <time>2010-01-01T00:14:20Z</time>
      </trkpt>
      <trkpt lat="48.95774000" lon="20.40489000">
        <ele>552.00000</ele>
        <time>2010-01-01T00:14:28Z</time>
      </trkpt>
      <trkpt lat="48.95757000" lon="20.40589000">
        <ele>556.00000</ele>
        <time>2010-01-01T00:14:55Z</time>
      </trkpt>
      <trkpt lat="48.95725000" lon="20.40643000">
        <ele>559.00000</ele>
        <time>2010-01-01T00:15:14Z</time>
      </trkpt>
      <trkpt lat="48.95700000" lon="20.40667000">
        <ele>556.00000</ele>
        <time>2010-01-01T00:15:26Z</time>
      </trkpt>
      <trkpt lat="48.95677000" lon="20.40692000">
        <ele>552.00000</ele>
        <time>2010-01-01T00:15:37Z</time>
      </trkpt>
      <trkpt lat="48.95657000" lon="20.40741000">
        <ele>550.00000</ele>
        <time>2010-01-01T00:15:52Z</time>
      </trkpt>
      <trkpt lat="48.95657000" lon="20.40785000">
        <ele>554.00000</ele>
        <time>2010-01-01T00:16:04Z</time>
      </trkpt>
      <trkpt lat="48.95660000" lon="20.40824000">
        <ele>557.00000</ele>
        <time>2010-01-01T00:16:14Z</time>
      </trkpt>
      <trkpt lat="48.95699000" lon="20.40899000">
        <ele>560.00000</ele>
        <time>2010-01-01T00:16:39Z</time>
      </trkpt>
      <trkpt lat="48.95695000" lon="20.40941000">
        <ele>558.00000</ele>
        <time>2010-01-01T00:16:50Z</time>
      </trkpt>
      <trkpt lat="48.95703000" lon="20.40968000">
        <ele>560.00000</ele>
        <time>2010-01-01T00:16:58Z</time>
      </trkpt>
      <trkpt lat="48.95699000" lon="20.41006000">
        <ele>557.00000</ele>
        <time>2010-01-01T00:17:08Z</time>
      </trkpt>
      <trkpt lat="48.95717000" lon="20.41094000">
        <ele>552.00000</ele>
        <time>2010-01-01T00:17:32Z</time>
      </trkpt>
      <trkpt lat="48.95760000" lon="20.41144000">
        <ele>553.00000</ele>
        <time>2010-01-01T00:17:54Z</time>
      </trkpt>
      <trkpt lat="48.95782000" lon="20.41212000">
        <ele>548.00000</ele>
        <time>2010-01-01T00:18:14Z</time>
      </trkpt>
      <trkpt lat="48.95792000" lon="20.41222000">
        <ele>552.00000</ele>
        <time>2010-01-01T00:18:19Z</time>
      </trkpt>
      <trkpt lat="48.95802000" lon="20.41255000">
        <ele>556.00000</ele>
        <time>2010-01-01T00:18:28Z</time>
      </trkpt>
      <trkpt lat="48.95807000" lon="20.41336000">
        <ele>553.00000</ele>
        <time>2010-01-01T00:18:50Z</time>
      </trkpt>
      <trkpt lat="48.95797000" lon="20.41451000">
        <ele>556.00000</ele>
        <time>2010-01-01T00:19:20Z</time>
      </trkpt>
      <trkpt lat="48.95793000" lon="20.41465000">
        <ele>556.00000</ele>
        <time>2010-01-01T00:19:24Z</time>
      </trkpt>
      <trkpt lat="48.95786000" lon="20.41481000">
        <ele>557.00000</ele>
        <time>2010-01-01T00:19:29Z</time>
      </trkpt>
      <trkpt lat="48.95775000" lon="20.41489000">
        <ele>557.00000</ele>
        <time>2010-01-01T00:19:34Z</time>
      </trkpt>
      <trkpt lat="48.95670000" lon="20.41497000">
        <ele>550.00000</ele>
        <time>2010-01-01T00:20:16Z</time>
      </trkpt>
      <trkpt lat="48.95640000" lon="20.41485000">
        <ele>551.00000</ele>
        <time>2010-01-01T00:20:29Z</time>
      </trkpt>
      <trkpt lat="48.95583000" lon="20.41448000">
        <ele>551.00000</ele>
        <time>2010-01-01T00:20:53Z</time>
      </trkpt>
      <trkpt lat="48.95546000" lon="20.41440000">
        <ele>552.00000</ele>
        <time>2010-01-01T00:21:08Z</time>
      </trkpt>
      <trkpt lat="48.95531000" lon="20.41451000">
        <ele>555.00000</ele>
        <time>2010-01-01T00:21:15Z</time>
      </trkpt>
      <trkpt lat="48.95521000" lon="20.41480000">
        <ele>557.00000</ele>
        <time>2010-01-01T00:21:24Z</time>
      </trkpt>
      <trkpt lat="48.95512000" lon="20.41524000">
        <ele>555.00000</ele>
        <time>2010-01-01T00:21:36Z</time>
      </trkpt>
      <trkpt lat="48.95495000" lon="20.41524000">
        <ele>558.00000</ele>
        <time>2010-01-01T00:21:43Z</time>
      </trkpt>
      <trkpt lat="48.95501000" lon="20.41591000">
        <ele>549.00000</ele>
        <time>2010-01-01T00:22:00Z</time>
      </trkpt>
      <trkpt lat="48.95500000" lon="20.41629000">
        <ele>548.00000</ele>
        <time>2010-01-01T00:22:10Z</time>
      </trkpt>
      <trkpt lat="48.95485000" lon="20.41685000">
        <ele>550.00000</ele>
        <time>2010-01-01T00:22:26Z</time>
      </trkpt>
      <trkpt lat="48.95449000" lon="20.41772000">
        <ele>547.00000</ele>
        <time>2010-01-01T00:22:53Z</time>
      </trkpt>
      <trkpt lat="48.95419000" lon="20.41779000">
        <ele>542.00000</ele>
        <time>2010-01-01T00:23:05Z</time>
      </trkpt>
      <trkpt lat="48.95395000" lon="20.41751000">
        <ele>543.00000</ele>
        <time>2010-01-01T00:23:18Z</time>
      </trkpt>
      <trkpt lat="48.95378000" lon="20.41738000">
        <ele>545.00000</ele>
        <time>2010-01-01T00:23:25Z</time>
      </trkpt>
      <trkpt lat="48.95343000" lon="20.41716000">
        <ele>553.00000</ele>
        <time>2010-01-01T00:23:40Z</time>
      </trkpt>
      <trkpt lat="48.95327000" lon="20.41712000">
        <ele>559.00000</ele>
        <time>2010-01-01T00:23:47Z</time>
      </trkpt>
      <trkpt lat="48.95319000" lon="20.41708000">
        <ele>564.00000</ele>
        <time>2010-01-01T00:23:50Z</time>
      </trkpt>
      <trkpt lat="48.95308000" lon="20.41719000">
        <ele>565.00000</ele>
        <time>2010-01-01T00:23:55Z</time>
      </trkpt>
      <trkpt lat="48.95293000" lon="20.41723000">
        <ele>572.00000</ele>
        <time>2010-01-01T00:24:02Z</time>
      </trkpt>
      <trkpt lat="48.95286000" lon="20.41737000">
        <ele>568.00000</ele>
        <time>2010-01-01T00:24:06Z</time>
      </trkpt>
      <trkpt lat="48.95278000" lon="20.41747000">
        <ele>566.00000</ele>
        <time>2010-01-01T00:24:10Z</time>
      </trkpt>
      <trkpt lat="48.95277000" lon="20.41760000">
        <ele>561.00000</ele>
        <time>2010-01-01T00:24:14Z</time>
      </trkpt>
      <trkpt lat="48.95266000" lon="20.41786000">
        <ele>564.00000</ele>
        <time>2010-01-01T00:24:22Z</time>
      </trkpt>
      <trkpt lat="48.95268000" lon="20.41797000">
        <ele>562.00000</ele>
        <time>2010-01-01T00:24:25Z</time>
      </trkpt>
      <trkpt lat="48.95272000" lon="20.41803000">
        <ele>559.00000</ele>
        <time>2010-01-01T00:24:27Z</time>
      </trkpt>
      <trkpt lat="48.95271000" lon="20.41810000">
        <ele>559.00000</ele>
        <time>2010-01-01T00:24:29Z</time>
      </trkpt>
      <trkpt lat="48.95275000" lon="20.41880000">
        <ele>552.00000</ele>
        <time>2010-01-01T00:24:48Z</time>
      </trkpt>
      <trkpt lat="48.95285000" lon="20.41921000">
        <ele>546.00000</ele>
        <time>2010-01-01T00:24:59Z</time>
      </trkpt>
      <trkpt lat="48.95291000" lon="20.41982000">
        <ele>545.00000</ele>
        <time>2010-01-01T00:25:15Z</time>
      </trkpt>
      <trkpt lat="48.95302000" lon="20.42048000">
        <ele>548.00000</ele>
        <time>2010-01-01T00:25:33Z</time>
      </trkpt>
      <trkpt lat="48.95302000" lon="20.42047000">
        <ele>548.00000</ele>
        <time>2010-01-01T00:25:33Z</time>
      </trkpt>
      <trkpt lat="48.95305000" lon="20.42097000">
        <ele>545.00000</ele>
        <time>2010-01-01T00:25:47Z</time>
      </trkpt>
      <trkpt lat="48.95286000" lon="20.42151000">
        <ele>545.00000</ele>
        <time>2010-01-01T00:26:03Z</time>
      </trkpt>
      <trkpt lat="48.95276000" lon="20.42198000">
        <ele>554.00000</ele>
        <time>2010-01-01T00:26:16Z</time>
      </trkpt>
      <trkpt lat="48.95275000" lon="20.42223000">
        <ele>554.00000</ele>
        <time>2010-01-01T00:26:22Z</time>
      </trkpt>
      <trkpt lat="48.95288000" lon="20.42261000">
        <ele>542.00000</ele>
        <time>2010-01-01T00:26:34Z</time>
      </trkpt>
      <trkpt lat="48.95300000" lon="20.42306000">
        <ele>534.00000</ele>
        <time>2010-01-01T00:26:46Z</time>
      </trkpt>
      <trkpt lat="48.95295000" lon="20.42312000">
        <ele>534.00000</ele>
        <time>2010-01-01T00:26:49Z</time>
      </trkpt>
      <trkpt lat="48.95290000" lon="20.42313000">
        <ele>535.00000</ele>
        <time>2010-01-01T00:26:51Z</time>
      </trkpt>
      <trkpt lat="48.95288000" lon="20.42306000">
        <ele>536.00000</ele>
        <time>2010-01-01T00:26:53Z</time>
      </trkpt>
      <trkpt lat="48.95272000" lon="20.42316000">
        <ele>539.00000</ele>
        <time>2010-01-01T00:27:00Z</time>
      </trkpt>
      <trkpt lat="48.95253000" lon="20.42313000">
        <ele>547.00000</ele>
        <time>2010-01-01T00:27:07Z</time>
      </trkpt>
      <trkpt lat="48.95235000" lon="20.42306000">
        <ele>554.00000</ele>
        <time>2010-01-01T00:27:15Z</time>
      </trkpt>
      <trkpt lat="48.95203000" lon="20.42286000">
        <ele>563.00000</ele>
        <time>2010-01-01T00:27:29Z</time>
      </trkpt>
      <trkpt lat="48.95201000" lon="20.42282000">
        <ele>563.00000</ele>
        <time>2010-01-01T00:27:30Z</time>
      </trkpt>
      <trkpt lat="48.95188000" lon="20.42279000">
        <ele>566.00000</ele>
        <time>2010-01-01T00:27:35Z</time>
      </trkpt>
      <trkpt lat="48.95181000" lon="20.42275000">
        <ele>567.00000</ele>
        <time>2010-01-01T00:27:38Z</time>
      </trkpt>
      <trkpt lat="48.95160000" lon="20.42247000">
        <ele>573.00000</ele>
        <time>2010-01-01T00:27:49Z</time>
      </trkpt>
      <trkpt lat="48.95148000" lon="20.42222000">
        <ele>581.00000</ele>
        <time>2010-01-01T00:27:58Z</time>
      </trkpt>
      <trkpt lat="48.95133000" lon="20.42215000">
        <ele>591.00000</ele>
        <time>2010-01-01T00:28:04Z</time>
      </trkpt>
      <trkpt lat="48.95125000" lon="20.42204000">
        <ele>598.00000</ele>
        <time>2010-01-01T00:28:08Z</time>
      </trkpt>
      <trkpt lat="48.95116000" lon="20.42199000">
        <ele>602.00000</ele>
        <time>2010-01-01T00:28:12Z</time>
      </trkpt>
      <trkpt lat="48.95093000" lon="20.42198000">
        <ele>610.00000</ele>
        <time>2010-01-01T00:28:21Z</time>
      </trkpt>
      <trkpt lat="48.95074000" lon="20.42207000">
        <ele>616.00000</ele>
        <time>2010-01-01T00:28:29Z</time>
      </trkpt>
      <trkpt lat="48.95045000" lon="20.42211000">
        <ele>626.00000</ele>
        <time>2010-01-01T00:28:41Z</time>
      </trkpt>
      <trkpt lat="48.95037000" lon="20.42209000">
        <ele>629.00000</ele>
        <time>2010-01-01T00:28:44Z</time>
      </trkpt>
      <trkpt lat="48.95029000" lon="20.42210000">
        <ele>631.00000</ele>
        <time>2010-01-01T00:28:47Z</time>
      </trkpt>
      <trkpt lat="48.95014000" lon="20.42217000">
        <ele>638.00000</ele>
        <time>2010-01-01T00:28:54Z</time>
      </trkpt>
      <trkpt lat="48.94973000" lon="20.42214000">
        <ele>651.00000</ele>
        <time>2010-01-01T00:29:10Z</time>
      </trkpt>
      <trkpt lat="48.94964000" lon="20.42206000">
        <ele>654.00000</ele>
        <time>2010-01-01T00:29:14Z</time>
      </trkpt>
      <trkpt lat="48.94945000" lon="20.42200000">
        <ele>661.00000</ele>
        <time>2010-01-01T00:29:22Z</time>
      </trkpt>
      <trkpt lat="48.94932000" lon="20.42187000">
        <ele>666.00000</ele>
        <time>2010-01-01T00:29:28Z</time>
      </trkpt>
      <trkpt lat="48.94921000" lon="20.42181000">
        <ele>671.00000</ele>
        <time>2010-01-01T00:29:33Z</time>
      </trkpt>
      <trkpt lat="48.94905000" lon="20.42179000">
        <ele>676.00000</ele>
        <time>2010-01-01T00:29:39Z</time>
      </trkpt>
      <trkpt lat="48.94875000" lon="20.42182000">
        <ele>683.00000</ele>
        <time>2010-01-01T00:29:51Z</time>
      </trkpt>
      <trkpt lat="48.94858000" lon="20.42186000">
        <ele>685.00000</ele>
        <time>2010-01-01T00:29:58Z</time>
      </trkpt>
      <trkpt lat="48.94852000" lon="20.42187000">
        <ele>686.00000</ele>
        <time>2010-01-01T00:30:01Z</time>
      </trkpt>
      <trkpt lat="48.94843000" lon="20.42181000">
        <ele>687.00000</ele>
        <time>2010-01-01T00:30:05Z</time>
      </trkpt>
      <trkpt lat="48.94809000" lon="20.42191000">
        <ele>695.00000</ele>
        <time>2010-01-01T00:30:18Z</time>
      </trkpt>
      <trkpt lat="48.94797000" lon="20.42187000">
        <ele>698.00000</ele>
        <time>2010-01-01T00:30:23Z</time>
      </trkpt>
      <trkpt lat="48.94762000" lon="20.42196000">
        <ele>707.00000</ele>
        <time>2010-01-01T00:30:38Z</time>
      </trkpt>
      <trkpt lat="48.94756000" lon="20.42203000">
        <ele>709.00000</ele>
        <time>2010-01-01T00:30:41Z</time>
      </trkpt>
      <trkpt lat="48.94748000" lon="20.42201000">
        <ele>712.00000</ele>
        <time>2010-01-01T00:30:44Z</time>
      </trkpt>
      <trkpt lat="48.94743000" lon="20.42196000">
        <ele>713.00000</ele>
        <time>2010-01-01T00:30:46Z</time>
      </trkpt>
      <trkpt lat="48.94693000" lon="20.42197000">
        <ele>727.00000</ele>
        <time>2010-01-01T00:31:06Z</time>
      </trkpt>
      <trkpt lat="48.94682000" lon="20.42209000">
        <ele>729.00000</ele>
        <time>2010-01-01T00:31:12Z</time>
      </trkpt>
      <trkpt lat="48.94680000" lon="20.42225000">
        <ele>730.00000</ele>
        <time>2010-01-01T00:31:16Z</time>
      </trkpt>
      <trkpt lat="48.94665000" lon="20.42242000">
        <ele>733.00000</ele>
        <time>2010-01-01T00:31:23Z</time>
      </trkpt>
      <trkpt lat="48.94660000" lon="20.42235000">
        <ele>733.00000</ele>
        <time>2010-01-01T00:31:26Z</time>
      </trkpt>
      <trkpt lat="48.94651000" lon="20.42230000">
        <ele>735.00000</ele>
        <time>2010-01-01T00:31:30Z</time>
      </trkpt>
      <trkpt lat="48.94631000" lon="20.42228000">
        <ele>738.00000</ele>
        <time>2010-01-01T00:31:38Z</time>
      </trkpt>
      <trkpt lat="48.94607000" lon="20.42247000">
        <ele>743.00000</ele>
        <time>2010-01-01T00:31:49Z</time>
      </trkpt>
      <trkpt lat="48.94587000" lon="20.42247000">
        <ele>749.00000</ele>
        <time>2010-01-01T00:31:57Z</time>
      </trkpt>
      <trkpt lat="48.94582000" lon="20.42261000">
        <ele>750.00000</ele>
        <time>2010-01-01T00:32:01Z</time>
      </trkpt>
      <trkpt lat="48.94580000" lon="20.42276000">
        <ele>750.00000</ele>
        <time>2010-01-01T00:32:05Z</time>
      </trkpt>
      <trkpt lat="48.94572000" lon="20.42294000">
        <ele>751.00000</ele>
        <time>2010-01-01T00:32:11Z</time>
      </trkpt>
      <trkpt lat="48.94558000" lon="20.42301000">
        <ele>753.00000</ele>
        <time>2010-01-01T00:32:17Z</time>
      </trkpt>
      <trkpt lat="48.94530000" lon="20.42309000">
        <ele>756.00000</ele>
        <time>2010-01-01T00:32:28Z</time>
      </trkpt>
      <trkpt lat="48.94510000" lon="20.42320000">
        <ele>758.00000</ele>
        <time>2010-01-01T00:32:37Z</time>
      </trkpt>
      <trkpt lat="48.94493000" lon="20.42322000">
        <ele>759.00000</ele>
        <time>2010-01-01T00:32:43Z</time>
      </trkpt>
      <trkpt lat="48.94435000" lon="20.42334000">
        <ele>763.00000</ele>
        <time>2010-01-01T00:33:07Z</time>
      </trkpt>
      <trkpt lat="48.94426000" lon="20.42333000">
        <ele>764.00000</ele>
        <time>2010-01-01T00:33:10Z</time>
      </trkpt>
      <trkpt lat="48.94406000" lon="20.42325000">
        <ele>764.00000</ele>
        <time>2010-01-01T00:33:19Z</time>
      </trkpt>
      <trkpt lat="48.94329000" lon="20.42277000">
        <ele>766.00000</ele>
        <time>2010-01-01T00:33:52Z</time>
      </trkpt>
      <trkpt lat="48.94292000" lon="20.42242000">
        <ele>772.00000</ele>
        <time>2010-01-01T00:34:09Z</time>
      </trkpt>
      <trkpt lat="48.94294000" lon="20.42227000">
        <ele>772.00000</ele>
        <time>2010-01-01T00:34:14Z</time>
      </trkpt>
      <trkpt lat="48.94298000" lon="20.42195000">
        <ele>771.00000</ele>
        <time>2010-01-01T00:34:22Z</time>
      </trkpt>
      <trkpt lat="48.94309000" lon="20.42178000">
        <ele>770.00000</ele>
        <time>2010-01-01T00:34:28Z</time>
      </trkpt>
      <trkpt lat="48.94322000" lon="20.42146000">
        <ele>771.00000</ele>
        <time>2010-01-01T00:34:38Z</time>
      </trkpt>
      <trkpt lat="48.94343000" lon="20.42129000">
        <ele>769.00000</ele>
        <time>2010-01-01T00:34:48Z</time>
      </trkpt>
      <trkpt lat="48.94343000" lon="20.42130000">
        <ele>769.00000</ele>
        <time>2010-01-01T00:34:48Z</time>
      </trkpt>
      <trkpt lat="48.94372000" lon="20.42107000">
        <ele>769.00000</ele>
        <time>2010-01-01T00:35:01Z</time>
      </trkpt>
      <trkpt lat="48.94393000" lon="20.42087000">
        <ele>768.00000</ele>
        <time>2010-01-01T00:35:11Z</time>
      </trkpt>
      <trkpt lat="48.94441000" lon="20.42038000">
        <ele>770.00000</ele>
        <time>2010-01-01T00:35:34Z</time>
      </trkpt>
      <trkpt lat="48.94459000" lon="20.41992000">
        <ele>775.00000</ele>
        <time>2010-01-01T00:35:48Z</time>
      </trkpt>
      <trkpt lat="48.94467000" lon="20.41869000">
        <ele>776.00000</ele>
        <time>2010-01-01T00:36:21Z</time>
      </trkpt>
      <trkpt lat="48.94487000" lon="20.41805000">
        <ele>783.00000</ele>
        <time>2010-01-01T00:36:39Z</time>
      </trkpt>
      <trkpt lat="48.94523000" lon="20.41763000">
        <ele>784.00000</ele>
        <time>2010-01-01T00:36:58Z</time>
      </trkpt>
      <trkpt lat="48.94559000" lon="20.41742000">
        <ele>780.00000</ele>
        <time>2010-01-01T00:37:13Z</time>
      </trkpt>
      <trkpt lat="48.94589000" lon="20.41673000">
        <ele>777.00000</ele>
        <time>2010-01-01T00:37:35Z</time>
      </trkpt>
      <trkpt lat="48.94630000" lon="20.41521000">
        <ele>779.00000</ele>
        <time>2010-01-01T00:38:18Z</time>
      </trkpt>
      <trkpt lat="48.94669000" lon="20.41368000">
        <ele>786.00000</ele>
        <time>2010-01-01T00:39:01Z</time>
      </trkpt>
      <trkpt lat="48.94675000" lon="20.41294000">
        <ele>786.00000</ele>
        <time>2010-01-01T00:39:21Z</time>
      </trkpt>
      <trkpt lat="48.94698000" lon="20.41210000">
        <ele>784.00000</ele>
        <time>2010-01-01T00:39:45Z</time>
      </trkpt>
      <trkpt lat="48.94777000" lon="20.41088000">
        <ele>774.00000</ele>
        <time>2010-01-01T00:40:30Z</time>
      </trkpt>
      <trkpt lat="48.94862000" lon="20.41004000">
        <ele>767.00000</ele>
        <time>2010-01-01T00:41:10Z</time>
      </trkpt>
      <trkpt lat="48.94941000" lon="20.40987000">
        <ele>761.00000</ele>
        <time>2010-01-01T00:41:42Z</time>
      </trkpt>
      <trkpt lat="48.94964000" lon="20.40993000">
        <ele>756.00000</ele>
        <time>2010-01-01T00:41:51Z</time>
      </trkpt>
      <trkpt lat="48.95042000" lon="20.40960000">
        <ele>740.00000</ele>
        <time>2010-01-01T00:42:24Z</time>
      </trkpt>
      <trkpt lat="48.95057000" lon="20.40939000">
        <ele>737.00000</ele>
        <time>2010-01-01T00:42:32Z</time>
      </trkpt>
      <trkpt lat="48.95082000" lon="20.40871000">
        <ele>736.00000</ele>
        <time>2010-01-01T00:42:53Z</time>
      </trkpt>
      <trkpt lat="48.95111000" lon="20.40845000">
        <ele>733.00000</ele>
        <time>2010-01-01T00:43:06Z</time>
      </trkpt>
      <trkpt lat="48.95124000" lon="20.40831000">
        <ele>733.00000</ele>
        <time>2010-01-01T00:43:12Z</time>
      </trkpt>
      <trkpt lat="48.95154000" lon="20.40796000">
        <ele>732.00000</ele>
        <time>2010-01-01T00:43:28Z</time>
      </trkpt>
      <trkpt lat="48.95188000" lon="20.40740000">
        <ele>729.00000</ele>
        <time>2010-01-01T00:43:48Z</time>
      </trkpt>
      <trkpt lat="48.95200000" lon="20.40714000">
        <ele>722.00000</ele>
        <time>2010-01-01T00:43:56Z</time>
      </trkpt>
      <trkpt lat="48.95202000" lon="20.40700000">
        <ele>717.00000</ele>
        <time>2010-01-01T00:44:00Z</time>
      </trkpt>
      <trkpt lat="48.95201000" lon="20.40667000">
        <ele>708.00000</ele>
        <time>2010-01-01T00:44:08Z</time>
      </trkpt>
      <trkpt lat="48.95190000" lon="20.40613000">
        <ele>703.00000</ele>
        <time>2010-01-01T00:44:23Z</time>
      </trkpt>
      <trkpt lat="48.95159000" lon="20.40562000">
        <ele>709.00000</ele>
        <time>2010-01-01T00:44:41Z</time>
      </trkpt>
      <trkpt lat="48.95162000" lon="20.40553000">
        <ele>710.00000</ele>
        <time>2010-01-01T00:44:44Z</time>
      </trkpt>
      <trkpt lat="48.95174000" lon="20.40552000">
        <ele>709.00000</ele>
        <time>2010-01-01T00:44:49Z</time>
      </trkpt>
      <trkpt lat="48.95252000" lon="20.40579000">
        <ele>701.00000</ele>
        <time>2010-01-01T00:45:21Z</time>
      </trkpt>
      <trkpt lat="48.95295000" lon="20.40572000">
        <ele>693.00000</ele>
        <time>2010-01-01T00:45:38Z</time>
      </trkpt>
      <trkpt lat="48.95301000" lon="20.40561000">
        <ele>696.00000</ele>
        <time>2010-01-01T00:45:42Z</time>
      </trkpt>
      <trkpt lat="48.95305000" lon="20.40537000">
        <ele>703.00000</ele>
        <time>2010-01-01T00:45:49Z</time>
      </trkpt>
      <trkpt lat="48.95325000" lon="20.40471000">
        <ele>715.00000</ele>
        <time>2010-01-01T00:46:08Z</time>
      </trkpt>
      <trkpt lat="48.95350000" lon="20.40439000">
        <ele>714.00000</ele>
        <time>2010-01-01T00:46:21Z</time>
      </trkpt>
      <trkpt lat="48.95384000" lon="20.40370000">
        <ele>716.00000</ele>
        <time>2010-01-01T00:46:43Z</time>
      </trkpt>
      <trkpt lat="48.95406000" lon="20.40344000">
        <ele>714.00000</ele>
        <time>2010-01-01T00:46:55Z</time>
      </trkpt>
      <trkpt lat="48.95474000" lon="20.40297000">
        <ele>706.00000</ele>
        <time>2010-01-01T00:47:24Z</time>
      </trkpt>
      <trkpt lat="48.95507000" lon="20.40262000">
        <ele>700.00000</ele>
        <time>2010-01-01T00:47:41Z</time>
      </trkpt>
      <trkpt lat="48.95535000" lon="20.40218000">
        <ele>696.00000</ele>
        <time>2010-01-01T00:47:57Z</time>
      </trkpt>
      <trkpt lat="48.95559000" lon="20.40186000">
        <ele>691.00000</ele>
        <time>2010-01-01T00:48:09Z</time>
      </trkpt>
      <trkpt lat="48.95583000" lon="20.40167000">
        <ele>683.00000</ele>
        <time>2010-01-01T00:48:20Z</time>
      </trkpt>
      <trkpt lat="48.95628000" lon="20.40136000">
        <ele>673.00000</ele>
        <time>2010-01-01T00:48:40Z</time>
      </trkpt>
      <trkpt lat="48.95646000" lon="20.40130000">
        <ele>668.00000</ele>
        <time>2010-01-01T00:48:47Z</time>
      </trkpt>
      <trkpt lat="48.95668000" lon="20.40124000">
        <ele>663.00000</ele>
        <time>2010-01-01T00:48:56Z</time>
      </trkpt>
      <trkpt lat="48.95698000" lon="20.40120000">
        <ele>658.00000</ele>
        <time>2010-01-01T00:49:08Z</time>
      </trkpt>
      <trkpt lat="48.95717000" lon="20.40126000">
        <ele>651.00000</ele>
        <time>2010-01-01T00:49:16Z</time>
      </trkpt>
      <trkpt lat="48.95728000" lon="20.40119000">
        <ele>647.00000</ele>
        <time>2010-01-01T00:49:21Z</time>
      </trkpt>
      <trkpt lat="48.95729000" lon="20.40101000">
        <ele>646.00000</ele>
        <time>2010-01-01T00:49:26Z</time>
      </trkpt>
      <trkpt lat="48.95726000" lon="20.40079000">
        <ele>646.00000</ele>
        <time>2010-01-01T00:49:32Z</time>
      </trkpt>
      <trkpt lat="48.95727000" lon="20.40049000">
        <ele>641.00000</ele>
        <time>2010-01-01T00:49:39Z</time>
      </trkpt>
      <trkpt lat="48.95738000" lon="20.40025000">
        <ele>632.00000</ele>
        <time>2010-01-01T00:49:47Z</time>
      </trkpt>
      <trkpt lat="48.95784000" lon="20.40035000">
        <ele>613.00000</ele>
        <time>2010-01-01T00:50:06Z</time>
      </trkpt>
      <trkpt lat="48.95789000" lon="20.40032000">
        <ele>611.00000</ele>
        <time>2010-01-01T00:50:08Z</time>
      </trkpt>
      <trkpt lat="48.95789000" lon="20.40022000">
        <ele>610.00000</ele>
        <time>2010-01-01T00:50:11Z</time>
      </trkpt>
      <trkpt lat="48.95749000" lon="20.39925000">
        <ele>598.00000</ele>
        <time>2010-01-01T00:50:41Z</time>
      </trkpt>
      <trkpt lat="48.95750000" lon="20.39891000">
        <ele>598.00000</ele>
        <time>2010-01-01T00:50:50Z</time>
      </trkpt>
      <trkpt lat="48.95777000" lon="20.39885000">
        <ele>604.00000</ele>
        <time>2010-01-01T00:51:01Z</time>
      </trkpt>
      <trkpt lat="48.95849000" lon="20.39888000">
        <ele>615.00000</ele>
        <time>2010-01-01T00:51:29Z</time>
      </trkpt>
      <trkpt lat="48.95848000" lon="20.39888000">
        <ele>615.00000</ele>
        <time>2010-01-01T00:51:30Z</time>
      </trkpt>
      <trkpt lat="48.95881000" lon="20.39890000">
        <ele>613.00000</ele>
        <time>2010-01-01T00:51:43Z</time>
      </trkpt>
      <trkpt lat="48.95922000" lon="20.39862000">
        <ele>612.00000</ele>
        <time>2010-01-01T00:52:01Z</time>
      </trkpt>
      <trkpt lat="48.95932000" lon="20.39863000">
        <ele>611.00000</ele>
        <time>2010-01-01T00:52:05Z</time>
      </trkpt>
      <trkpt lat="48.95972000" lon="20.39891000">
        <ele>600.00000</ele>
        <time>2010-01-01T00:52:23Z</time>
      </trkpt>
      <trkpt lat="48.95991000" lon="20.39918000">
        <ele>590.00000</ele>
        <time>2010-01-01T00:52:33Z</time>
      </trkpt>
      <trkpt lat="48.96020000" lon="20.39926000">
        <ele>583.00000</ele>
        <time>2010-01-01T00:52:45Z</time>
      </trkpt>
      <trkpt lat="48.96073000" lon="20.39896000">
        <ele>574.00000</ele>
        <time>2010-01-01T00:53:07Z</time>
      </trkpt>
      <trkpt lat="48.96105000" lon="20.39869000">
        <ele>569.00000</ele>
        <time>2010-01-01T00:53:22Z</time>
      </trkpt>
      <trkpt lat="48.96122000" lon="20.39843000">
        <ele>568.00000</ele>
        <time>2010-01-01T00:53:32Z</time>
      </trkpt>
      <trkpt lat="48.96126000" lon="20.39831000">
        <ele>568.00000</ele>
        <time>2010-01-01T00:53:35Z</time>
      </trkpt>
      <trkpt lat="48.96141000" lon="20.39761000">
        <ele>577.00000</ele>
        <time>2010-01-01T00:53:55Z</time>
      </trkpt>
      <trkpt lat="48.96166000" lon="20.39703000">
        <ele>582.00000</ele>
        <time>2010-01-01T00:54:13Z</time>
      </trkpt>
      <trkpt lat="48.96179000" lon="20.39682000">
        <ele>583.00000</ele>
        <time>2010-01-01T00:54:20Z</time>
      </trkpt>
      <trkpt lat="48.96209000" lon="20.39653000">
        <ele>577.00000</ele>
        <time>2010-01-01T00:54:35Z</time>
      </trkpt>
      <trkpt lat="48.96281000" lon="20.39572000">
        <ele>561.00000</ele>
        <time>2010-01-01T00:55:10Z</time>
      </trkpt>
      <trkpt lat="48.96299000" lon="20.39540000">
        <ele>555.00000</ele>
        <time>2010-01-01T00:55:22Z</time>
      </trkpt>
      <trkpt lat="48.96337000" lon="20.39425000">
        <ele>547.00000</ele>
        <time>2010-01-01T00:55:55Z</time>
      </trkpt>
      <trkpt lat="48.96337000" lon="20.39409000">
        <ele>548.00000</ele>
        <time>2010-01-01T00:56:00Z</time>
      </trkpt>
      <trkpt lat="48.96336000" lon="20.39387000">
        <ele>549.00000</ele>
        <time>2010-01-01T00:56:05Z</time>
      </trkpt>
      <trkpt lat="48.96322000" lon="20.39320000">
        <ele>550.00000</ele>
        <time>2010-01-01T00:56:24Z</time>
      </trkpt>
      <trkpt lat="48.96313000" lon="20.39253000">
        <ele>553.00000</ele>
        <time>2010-01-01T00:56:42Z</time>
      </trkpt>
      <trkpt lat="48.96310000" lon="20.39216000">
        <ele>553.00000</ele>
        <time>2010-01-01T00:56:52Z</time>
      </trkpt>
      <trkpt lat="48.96300000" lon="20.39053000">
        <ele>557.00000</ele>
        <time>2010-01-01T00:57:35Z</time>
      </trkpt>
      <trkpt lat="48.96300000" lon="20.39019000">
        <ele>557.00000</ele>
        <time>2010-01-01T00:57:44Z</time>
      </trkpt>
      <trkpt lat="48.96303000" lon="20.38982000">
        <ele>554.00000</ele>
        <time>2010-01-01T00:57:53Z</time>
      </trkpt>
      <trkpt lat="48.96313000" lon="20.38934000">
        <ele>548.00000</ele>
        <time>2010-01-01T00:58:07Z</time>
      </trkpt>
      <trkpt lat="48.96342000" lon="20.38842000">
        <ele>549.00000</ele>
        <time>2010-01-01T00:58:33Z</time>
      </trkpt>
      <trkpt lat="48.96437000" lon="20.38612000">
        <ele>544.00000</ele>
        <time>2010-01-01T00:59:45Z</time>
      </trkpt>
      <trkpt lat="48.96457000" lon="20.38608000">
        <ele>543.00000</ele>
        <time>2010-01-01T00:59:53Z</time>
      </trkpt>
      <trkpt lat="48.96489000" lon="20.38595000">
        <ele>543.00000</ele>
        <time>2010-01-01T01:00:06Z</time>
      </trkpt>
      <trkpt lat="48.96510000" lon="20.38593000">
        <ele>543.00000</ele>
        <time>2010-01-01T01:00:15Z</time>
      </trkpt>
      <trkpt lat="48.96591000" lon="20.38576000">
        <ele>543.00000</ele>
        <time>2010-01-01T01:00:47Z</time>
      </trkpt>
    </trkseg>
  </trk>
</gpx>

