<?xml version="1.0" encoding="UTF-8"?>
<gpx xmlns="http://www.topografix.com/GPX/1/1" creator="turistautak.openstreetmap.hu" version="1.1" xmlns:xsi="http://www.w3.org/2001/XMLSchema-instance" xsi:schemaLocation="http://www.garmin.com/xmlschemas/GpxExtensions/v3 http://www.garmin.com/xmlschemas/GpxExtensions/v3/GpxExtensionsv3.xsd http://www.topografix.com/GPX/1/1 http://www.topografix.com/GPX/1/1/gpx.xsd">
	<metadata>
		<name>1613462192soqr útvonal</name>
		<desc>1613462192soqr útvonal</desc>
	</metadata>
<trk>
  <name>utv</name>
<trkseg><trkpt lat="47.622743" lon="18.864388">
        <ele>272.5</ele>
      </trkpt>
<trkpt lat="47.622406" lon="18.865208">
        <ele>271.8</ele>
      </trkpt>
<trkpt lat="47.621966" lon="18.866319">
        <ele>270.6</ele>
      </trkpt>
<trkpt lat="47.622072" lon="18.866442">
        <ele>269.2</ele>
      </trkpt>
<trkpt lat="47.621890" lon="18.866903">
        <ele>269.6</ele>
      </trkpt>
<trkpt lat="47.621926" lon="18.867080">
        <ele>270</ele>
      </trkpt>
<trkpt lat="47.621892" lon="18.867377">
        <ele>270.4</ele>
      </trkpt>
<trkpt lat="47.621905" lon="18.867943">
        <ele>271</ele>
      </trkpt>
<trkpt lat="47.622002" lon="18.868421">
        <ele>271.4</ele>
      </trkpt>
<trkpt lat="47.622080" lon="18.869488">
        <ele>273.4</ele>
      </trkpt>
<trkpt lat="47.621996" lon="18.869917">
        <ele>276.8</ele>
      </trkpt>
<trkpt lat="47.622034" lon="18.870403">
        <ele>280.2</ele>
      </trkpt>
<trkpt lat="47.622131" lon="18.870560">
        <ele>284.8</ele>
      </trkpt>
<trkpt lat="47.622396" lon="18.870398">
        <ele>289.8</ele>
      </trkpt>
<trkpt lat="47.622767" lon="18.869992">
        <ele>295.2</ele>
      </trkpt>
<trkpt lat="47.623094" lon="18.869635">
        <ele>303.8</ele>
      </trkpt>
<trkpt lat="47.623614" lon="18.868770">
        <ele>313.8</ele>
      </trkpt>
<trkpt lat="47.624145" lon="18.868145">
        <ele>322.4</ele>
      </trkpt>
<trkpt lat="47.624697" lon="18.867074">
        <ele>330.6</ele>
      </trkpt>
<trkpt lat="47.625509" lon="18.866481">
        <ele>336.6</ele>
      </trkpt>
<trkpt lat="47.625554" lon="18.866903">
        <ele>339.4</ele>
      </trkpt>
<trkpt lat="47.625627" lon="18.866850">
        <ele>340.8</ele>
      </trkpt>
<trkpt lat="47.626147" lon="18.866468">
        <ele>342.2</ele>
      </trkpt>
<trkpt lat="47.626518" lon="18.866392">
        <ele>343.8</ele>
      </trkpt>
<trkpt lat="47.626643" lon="18.866368">
        <ele>345.4</ele>
      </trkpt>
<trkpt lat="47.626753" lon="18.866445">
        <ele>345</ele>
      </trkpt>
<trkpt lat="47.626667" lon="18.867353">
        <ele>345</ele>
      </trkpt>
<trkpt lat="47.626720" lon="18.867495">
        <ele>345</ele>
      </trkpt>
<trkpt lat="47.627120" lon="18.867476">
        <ele>344.8</ele>
      </trkpt>
<trkpt lat="47.627292" lon="18.868026">
        <ele>345.8</ele>
      </trkpt>
<trkpt lat="47.627560" lon="18.868162">
        <ele>347.4</ele>
      </trkpt>
<trkpt lat="47.627727" lon="18.868090">
        <ele>348.6</ele>
      </trkpt>
<trkpt lat="47.628004" lon="18.868003">
        <ele>351.4</ele>
      </trkpt>
<trkpt lat="47.628196" lon="18.867761">
        <ele>354.2</ele>
      </trkpt>
<trkpt lat="47.628345" lon="18.867820">
        <ele>354.4</ele>
      </trkpt>
<trkpt lat="47.628793" lon="18.867903">
        <ele>354.6</ele>
      </trkpt>
<trkpt lat="47.629088" lon="18.867785">
        <ele>354.8</ele>
      </trkpt>
<trkpt lat="47.629610" lon="18.867250">
        <ele>353.4</ele>
      </trkpt>
<trkpt lat="47.629756" lon="18.867168">
        <ele>352</ele>
      </trkpt>
<trkpt lat="47.630059" lon="18.867107">
        <ele>352</ele>
      </trkpt>
<trkpt lat="47.630149" lon="18.867314">
        <ele>350.2</ele>
      </trkpt>
<trkpt lat="47.630153" lon="18.867662">
        <ele>348.4</ele>
      </trkpt>
<trkpt lat="47.630165" lon="18.867852">
        <ele>346.6</ele>
      </trkpt>
<trkpt lat="47.630284" lon="18.868034">
        <ele>346.6</ele>
      </trkpt>
<trkpt lat="47.630398" lon="18.868498">
        <ele>346.6</ele>
      </trkpt>
<trkpt lat="47.630284" lon="18.868034">
        <ele>348.4</ele>
      </trkpt>
<trkpt lat="47.630165" lon="18.867852">
        <ele>350.2</ele>
      </trkpt>
<trkpt lat="47.630153" lon="18.867662">
        <ele>352</ele>
      </trkpt>
<trkpt lat="47.630149" lon="18.867314">
        <ele>352</ele>
      </trkpt>
<trkpt lat="47.630059" lon="18.867107">
        <ele>354</ele>
      </trkpt>
<trkpt lat="47.630200" lon="18.866999">
        <ele>356</ele>
      </trkpt>
<trkpt lat="47.630311" lon="18.866721">
        <ele>358</ele>
      </trkpt>
<trkpt lat="47.630740" lon="18.866097">
        <ele>359.4</ele>
      </trkpt>
<trkpt lat="47.631092" lon="18.865933">
        <ele>360.8</ele>
      </trkpt>
<trkpt lat="47.631238" lon="18.866071">
        <ele>359.8</ele>
      </trkpt>
<trkpt lat="47.631593" lon="18.865848">
        <ele>359.6</ele>
      </trkpt>
<trkpt lat="47.632037" lon="18.865545">
        <ele>359.4</ele>
      </trkpt>
<trkpt lat="47.632271" lon="18.865454">
        <ele>359</ele>
      </trkpt>
<trkpt lat="47.632746" lon="18.865159">
        <ele>358.6</ele>
      </trkpt>
<trkpt lat="47.632710" lon="18.865408">
        <ele>360</ele>
      </trkpt>
<trkpt lat="47.632762" lon="18.865523">
        <ele>360.6</ele>
      </trkpt>
<trkpt lat="47.632889" lon="18.865671">
        <ele>360.4</ele>
      </trkpt>
<trkpt lat="47.633125" lon="18.865647">
        <ele>360</ele>
      </trkpt>
<trkpt lat="47.633170" lon="18.865701">
        <ele>358.4</ele>
      </trkpt>
<trkpt lat="47.633206" lon="18.866819">
        <ele>354.6</ele>
      </trkpt>
<trkpt lat="47.633269" lon="18.867167">
        <ele>349.2</ele>
      </trkpt>
<trkpt lat="47.633015" lon="18.868149">
        <ele>343</ele>
      </trkpt>
<trkpt lat="47.633179" lon="18.869474">
        <ele>337.8</ele>
      </trkpt>
<trkpt lat="47.633208" lon="18.869949">
        <ele>333.2</ele>
      </trkpt>
<trkpt lat="47.633122" lon="18.870443">
        <ele>328.2</ele>
      </trkpt>
<trkpt lat="47.632972" lon="18.870666">
        <ele>322.4</ele>
      </trkpt>
<trkpt lat="47.632815" lon="18.870899">
        <ele>318.2</ele>
      </trkpt>
<trkpt lat="47.632711" lon="18.871322">
        <ele>313</ele>
      </trkpt>
<trkpt lat="47.632773" lon="18.872209">
        <ele>308.4</ele>
      </trkpt>
<trkpt lat="47.632729" lon="18.872349">
        <ele>305</ele>
      </trkpt>
<trkpt lat="47.632932" lon="18.872573">
        <ele>306.6</ele>
      </trkpt>
<trkpt lat="47.633108" lon="18.872561">
        <ele>308.2</ele>
      </trkpt>
<trkpt lat="47.633254" lon="18.872361">
        <ele>313.4</ele>
      </trkpt>
<trkpt lat="47.633274" lon="18.871907">
        <ele>313.2</ele>
      </trkpt>
<trkpt lat="47.633384" lon="18.871411">
        <ele>311.2</ele>
      </trkpt>
<trkpt lat="47.633652" lon="18.871148">
        <ele>306.6</ele>
      </trkpt>
<trkpt lat="47.633762" lon="18.870957">
        <ele>302</ele>
      </trkpt>
<trkpt lat="47.634024" lon="18.871368">
        <ele>296.6</ele>
      </trkpt>
<trkpt lat="47.634070" lon="18.871303">
        <ele>303.6</ele>
      </trkpt>
<trkpt lat="47.634024" lon="18.871368">
        <ele>312.4</ele>
      </trkpt>
<trkpt lat="47.633762" lon="18.870957">
        <ele>317.6</ele>
      </trkpt>
<trkpt lat="47.633559" lon="18.870126">
        <ele>322.8</ele>
      </trkpt>
<trkpt lat="47.633581" lon="18.869971">
        <ele>331.4</ele>
      </trkpt>
<trkpt lat="47.633833" lon="18.869411">
        <ele>333.8</ele>
      </trkpt>
<trkpt lat="47.633803" lon="18.869175">
        <ele>336.2</ele>
      </trkpt>
<trkpt lat="47.633621" lon="18.869106">
        <ele>343.4</ele>
      </trkpt>
<trkpt lat="47.633650" lon="18.868672">
        <ele>351.6</ele>
      </trkpt>
<trkpt lat="47.633482" lon="18.868315">
        <ele>354.6</ele>
      </trkpt>
<trkpt lat="47.633743" lon="18.867289">
        <ele>357.6</ele>
      </trkpt>
<trkpt lat="47.633676" lon="18.867035">
        <ele>360.4</ele>
      </trkpt>
<trkpt lat="47.633579" lon="18.866457">
        <ele>362</ele>
      </trkpt>
<trkpt lat="47.633692" lon="18.866168">
        <ele>363.6</ele>
      </trkpt>
<trkpt lat="47.634385" lon="18.865383">
        <ele>364.6</ele>
      </trkpt>
<trkpt lat="47.634458" lon="18.864968">
        <ele>365.6</ele>
      </trkpt>
<trkpt lat="47.634583" lon="18.864268">
        <ele>366</ele>
      </trkpt>
<trkpt lat="47.634767" lon="18.863869">
        <ele>366.8</ele>
      </trkpt>
<trkpt lat="47.634752" lon="18.863714">
        <ele>366.6</ele>
      </trkpt>
<trkpt lat="47.635238" lon="18.863996">
        <ele>367</ele>
      </trkpt>
<trkpt lat="47.635794" lon="18.864923">
        <ele>368.4</ele>
      </trkpt>
<trkpt lat="47.635912" lon="18.865150">
        <ele>370.6</ele>
      </trkpt>
<trkpt lat="47.636078" lon="18.865115">
        <ele>373</ele>
      </trkpt>
<trkpt lat="47.636342" lon="18.864797">
        <ele>377.4</ele>
      </trkpt>
<trkpt lat="47.636690" lon="18.864653">
        <ele>381.8</ele>
      </trkpt>
<trkpt lat="47.637552" lon="18.864643">
        <ele>383.4</ele>
      </trkpt>
<trkpt lat="47.638463" lon="18.864661">
        <ele>385</ele>
      </trkpt>
<trkpt lat="47.638644" lon="18.864610">
        <ele>386</ele>
      </trkpt>
<trkpt lat="47.638950" lon="18.864737">
        <ele>380.8</ele>
      </trkpt>
<trkpt lat="47.639308" lon="18.864729">
        <ele>371.8</ele>
      </trkpt>
<trkpt lat="47.639562" lon="18.864860">
        <ele>363.4</ele>
      </trkpt>
<trkpt lat="47.640276" lon="18.865227">
        <ele>355</ele>
      </trkpt>
<trkpt lat="47.640422" lon="18.865353">
        <ele>341.8</ele>
      </trkpt>
<trkpt lat="47.640686" lon="18.865433">
        <ele>334.2</ele>
      </trkpt>
<trkpt lat="47.640976" lon="18.865714">
        <ele>330.4</ele>
      </trkpt>
<trkpt lat="47.641499" lon="18.865845">
        <ele>323</ele>
      </trkpt>
<trkpt lat="47.641571" lon="18.865367">
        <ele>314.4</ele>
      </trkpt>
<trkpt lat="47.641843" lon="18.865310">
        <ele>310.6</ele>
      </trkpt>
<trkpt lat="47.642776" lon="18.865515">
        <ele>305.6</ele>
      </trkpt>
<trkpt lat="47.642934" lon="18.865013">
        <ele>299.4</ele>
      </trkpt>
<trkpt lat="47.643186" lon="18.865292">
        <ele>297.2</ele>
      </trkpt>
<trkpt lat="47.643617" lon="18.865575">
        <ele>296.2</ele>
      </trkpt>
<trkpt lat="47.643958" lon="18.865911">
        <ele>295.2</ele>
      </trkpt>
<trkpt lat="47.644192" lon="18.865946">
        <ele>294</ele>
      </trkpt>
<trkpt lat="47.644739" lon="18.865803">
        <ele>294</ele>
      </trkpt>
<trkpt lat="47.644979" lon="18.865821">
        <ele>294</ele>
      </trkpt>
<trkpt lat="47.645363" lon="18.865788">
        <ele>294</ele>
      </trkpt>
<trkpt lat="47.645871" lon="18.865841">
        <ele>295</ele>
      </trkpt>
<trkpt lat="47.646403" lon="18.865946">
        <ele>296</ele>
      </trkpt>
<trkpt lat="47.646270" lon="18.865689">
        <ele>299.8</ele>
      </trkpt>
<trkpt lat="47.645756" lon="18.865175">
        <ele>304.2</ele>
      </trkpt>
<trkpt lat="47.645410" lon="18.864799">
        <ele>309.2</ele>
      </trkpt>
<trkpt lat="47.644434" lon="18.863111">
        <ele>312.4</ele>
      </trkpt>
<trkpt lat="47.644308" lon="18.862752">
        <ele>317.2</ele>
      </trkpt>
<trkpt lat="47.643801" lon="18.861684">
        <ele>319.2</ele>
      </trkpt>
<trkpt lat="47.643713" lon="18.861470">
        <ele>320.6</ele>
      </trkpt>
<trkpt lat="47.643497" lon="18.861187">
        <ele>323.4</ele>
      </trkpt>
<trkpt lat="47.642964" lon="18.860639">
        <ele>328.6</ele>
      </trkpt>
<trkpt lat="47.642792" lon="18.859891">
        <ele>332.2</ele>
      </trkpt>
<trkpt lat="47.642443" lon="18.859298">
        <ele>335.8</ele>
      </trkpt>
<trkpt lat="47.641931" lon="18.858391">
        <ele>339.4</ele>
      </trkpt>
<trkpt lat="47.641824" lon="18.858217">
        <ele>338.2</ele>
      </trkpt>
<trkpt lat="47.641698" lon="18.858119">
        <ele>326</ele>
      </trkpt>
<trkpt lat="47.641377" lon="18.858123">
        <ele>313.2</ele>
      </trkpt>
<trkpt lat="47.640563" lon="18.857234">
        <ele>298</ele>
      </trkpt>
<trkpt lat="47.639510" lon="18.855268">
        <ele>282</ele>
      </trkpt>
<trkpt lat="47.638819" lon="18.854228">
        <ele>268.8</ele>
      </trkpt>
<trkpt lat="47.638616" lon="18.853757">
        <ele>263.2</ele>
      </trkpt>
<trkpt lat="47.638502" lon="18.853381">
        <ele>258.2</ele>
      </trkpt>
<trkpt lat="47.638454" lon="18.852973">
        <ele>254.4</ele>
      </trkpt>
<trkpt lat="47.638249" lon="18.851838">
        <ele>252.2</ele>
      </trkpt>
<trkpt lat="47.638110" lon="18.851446">
        <ele>250</ele>
      </trkpt>
<trkpt lat="47.637209" lon="18.849814">
        <ele>250.2</ele>
      </trkpt>
<trkpt lat="47.636340" lon="18.850675">
        <ele>250.8</ele>
      </trkpt>
<trkpt lat="47.636467" lon="18.850864">
        <ele>254.8</ele>
      </trkpt>
<trkpt lat="47.636774" lon="18.851321">
        <ele>258</ele>
      </trkpt>
<trkpt lat="47.636389" lon="18.852630">
        <ele>261.2</ele>
      </trkpt>
<trkpt lat="47.635825" lon="18.853826">
        <ele>264.8</ele>
      </trkpt>
<trkpt lat="47.635951" lon="18.854089">
        <ele>268</ele>
      </trkpt>
<trkpt lat="47.635846" lon="18.854238">
        <ele>270.4</ele>
      </trkpt>
<trkpt lat="47.635498" lon="18.854733">
        <ele>272.8</ele>
      </trkpt>
<trkpt lat="47.635440" lon="18.854811">
        <ele>276.4</ele>
      </trkpt>
<trkpt lat="47.635280" lon="18.855025">
        <ele>282.4</ele>
      </trkpt>
<trkpt lat="47.635098" lon="18.855113">
        <ele>289.8</ele>
      </trkpt>
<trkpt lat="47.634772" lon="18.855680">
        <ele>296.8</ele>
      </trkpt>
<trkpt lat="47.634504" lon="18.855817">
        <ele>303.8</ele>
      </trkpt>
<trkpt lat="47.634281" lon="18.856717">
        <ele>310.6</ele>
      </trkpt>
<trkpt lat="47.634293" lon="18.857147">
        <ele>314</ele>
      </trkpt>
<trkpt lat="47.634205" lon="18.857606">
        <ele>316.8</ele>
      </trkpt>
<trkpt lat="47.634001" lon="18.858136">
        <ele>321.4</ele>
      </trkpt>
<trkpt lat="47.633843" lon="18.858506">
        <ele>325.8</ele>
      </trkpt>
<trkpt lat="47.633843" lon="18.859182">
        <ele>329.2</ele>
      </trkpt>
<trkpt lat="47.633750" lon="18.859754">
        <ele>332.6</ele>
      </trkpt>
<trkpt lat="47.633467" lon="18.860479">
        <ele>337</ele>
      </trkpt>
<trkpt lat="47.633150" lon="18.860742">
        <ele>338.6</ele>
      </trkpt>
<trkpt lat="47.633067" lon="18.861056">
        <ele>340.4</ele>
      </trkpt>
<trkpt lat="47.632814" lon="18.861415">
        <ele>342.6</ele>
      </trkpt>
<trkpt lat="47.632549" lon="18.861670">
        <ele>345.2</ele>
      </trkpt>
<trkpt lat="47.632396" lon="18.862004">
        <ele>346.6</ele>
      </trkpt>
<trkpt lat="47.632172" lon="18.862262">
        <ele>348</ele>
      </trkpt>
<trkpt lat="47.631980" lon="18.862661">
        <ele>350.6</ele>
      </trkpt>
<trkpt lat="47.632010" lon="18.863162">
        <ele>352.8</ele>
      </trkpt>
<trkpt lat="47.632143" lon="18.863688">
        <ele>355.4</ele>
      </trkpt>
<trkpt lat="47.632134" lon="18.863876">
        <ele>357.4</ele>
      </trkpt>
<trkpt lat="47.632218" lon="18.864438">
        <ele>359.4</ele>
      </trkpt>
<trkpt lat="47.632497" lon="18.864875">
        <ele>359.4</ele>
      </trkpt>
<trkpt lat="47.632717" lon="18.865056">
        <ele>359.8</ele>
      </trkpt>
<trkpt lat="47.632746" lon="18.865159">
        <ele>359.4</ele>
      </trkpt>
<trkpt lat="47.632271" lon="18.865454">
        <ele>359.6</ele>
      </trkpt>
<trkpt lat="47.632037" lon="18.865545">
        <ele>359.8</ele>
      </trkpt>
<trkpt lat="47.631593" lon="18.865848">
        <ele>359</ele>
      </trkpt>
<trkpt lat="47.631238" lon="18.866071">
        <ele>354.2</ele>
      </trkpt>
<trkpt lat="47.631092" lon="18.865933">
        <ele>349.4</ele>
      </trkpt>
<trkpt lat="47.629858" lon="18.864601">
        <ele>344</ele>
      </trkpt>
<trkpt lat="47.629047" lon="18.863726">
        <ele>335.4</ele>
      </trkpt>
<trkpt lat="47.628910" lon="18.863166">
        <ele>328.6</ele>
      </trkpt>
<trkpt lat="47.628810" lon="18.863004">
        <ele>325.4</ele>
      </trkpt>
<trkpt lat="47.628643" lon="18.862954">
        <ele>322.6</ele>
      </trkpt>
<trkpt lat="47.628481" lon="18.863155">
        <ele>319.8</ele>
      </trkpt>
<trkpt lat="47.628334" lon="18.863099">
        <ele>318.2</ele>
      </trkpt>
<trkpt lat="47.628131" lon="18.862769">
        <ele>313.4</ele>
      </trkpt>
<trkpt lat="47.627976" lon="18.862215">
        <ele>308.6</ele>
      </trkpt>
<trkpt lat="47.627942" lon="18.861879">
        <ele>303.4</ele>
      </trkpt>
<trkpt lat="47.627810" lon="18.861627">
        <ele>298.2</ele>
      </trkpt>
<trkpt lat="47.627485" lon="18.861320">
        <ele>296.4</ele>
      </trkpt>
<trkpt lat="47.627403" lon="18.861403">
        <ele>295.6</ele>
      </trkpt>
<trkpt lat="47.627187" lon="18.861482">
        <ele>294.8</ele>
      </trkpt>
<trkpt lat="47.627008" lon="18.861547">
        <ele>294</ele>
      </trkpt>
<trkpt lat="47.626835" lon="18.861053">
        <ele>291.2</ele>
      </trkpt>
<trkpt lat="47.626821" lon="18.860691">
        <ele>287</ele>
      </trkpt>
<trkpt lat="47.626743" lon="18.860541">
        <ele>285</ele>
      </trkpt>
<trkpt lat="47.626734" lon="18.860078">
        <ele>283</ele>
      </trkpt>
<trkpt lat="47.626679" lon="18.859867">
        <ele>281</ele>
      </trkpt>
<trkpt lat="47.626577" lon="18.859768">
        <ele>281.4</ele>
      </trkpt>
<trkpt lat="47.626426" lon="18.859774">
        <ele>283.2</ele>
      </trkpt>
<trkpt lat="47.626317" lon="18.859911">
        <ele>285</ele>
      </trkpt>
<trkpt lat="47.626200" lon="18.860249">
        <ele>291.4</ele>
      </trkpt>
<trkpt lat="47.625881" lon="18.860833">
        <ele>294.4</ele>
      </trkpt>
<trkpt lat="47.625765" lon="18.860932">
        <ele>298.2</ele>
      </trkpt>
<trkpt lat="47.625482" lon="18.862197">
        <ele>300.6</ele>
      </trkpt>
<trkpt lat="47.625228" lon="18.862714">
        <ele>301.4</ele>
      </trkpt>
<trkpt lat="47.624896" lon="18.863072">
        <ele>297.6</ele>
      </trkpt>
<trkpt lat="47.624678" lon="18.863431">
        <ele>297.2</ele>
      </trkpt>
<trkpt lat="47.624556" lon="18.863764">
        <ele>296.4</ele>
      </trkpt>
<trkpt lat="47.624352" lon="18.864011">
        <ele>295.6</ele>
      </trkpt>
<trkpt lat="47.624116" lon="18.864167">
        <ele>297.8</ele>
      </trkpt>
<trkpt lat="47.623872" lon="18.864724">
        <ele>297.4</ele>
      </trkpt>
<trkpt lat="47.623929" lon="18.865093">
        <ele>297</ele>
      </trkpt>
<trkpt lat="47.623916" lon="18.865619">
        <ele>295.8</ele>
      </trkpt>
<trkpt lat="47.623532" lon="18.866746">
        <ele>294.6</ele>
      </trkpt>
<trkpt lat="47.623442" lon="18.866922">
        <ele>289.8</ele>
      </trkpt>
<trkpt lat="47.623023" lon="18.866966">
        <ele>287.6</ele>
      </trkpt>
<trkpt lat="47.622973" lon="18.866930">
        <ele>285.4</ele>
      </trkpt>
<trkpt lat="47.622674" lon="18.866715">
        <ele>280.8</ele>
      </trkpt>
<trkpt lat="47.622344" lon="18.866378">
        <ele>276.2</ele>
      </trkpt>
<trkpt lat="47.622144" lon="18.866470">
        <ele>275.4</ele>
      </trkpt>
<trkpt lat="47.622072" lon="18.866442">
        <ele>274.2</ele>
      </trkpt>
<trkpt lat="47.621966" lon="18.866319">
        <ele>272.5</ele>
      </trkpt>
<trkpt lat="47.622406" lon="18.865208">
        <ele>273.66666666667</ele>
      </trkpt>
<trkpt lat="47.622743" lon="18.864388">
        <ele>276</ele>
      </trkpt>
</trkseg>
</trk>
</gpx>



