<?xml version='1.0' encoding='UTF-8' standalone='yes' ?>
<gpx version="1.1" creator="Locus Map web planner" xsi:schemaLocation="http://www.topografix.com/GPX/1/1 http://www.topografix.com/GPX/1/1/gpx.xsd" xmlns="http://www.topografix.com/GPX/1/1" xmlns:xsi="http://www.w3.org/2001/XMLSchema-instance" xmlns:locus="http://www.locusmap.eu" xmlns:gpxx="http://www.garmin.com/xmlschemas/GpxExtensions/v3" xmlns:gpxtrkx="http://www.garmin.com/xmlschemas/TrackStatsExtension/v1" xmlns:gpxtpx="http://www.garmin.com/xmlschemas/TrackPointExtension/v2">
  <metadata>
    <desc>File with points/tracks from LocusWorld/</desc>
    <time>2024-12-16T13:56:04.823Z</time>
  </metadata>
  <wpt lat="47.5445380" lon="18.9567490">
    <ele>266.50</ele>
    <time>2024-12-16T13:56:04.823Z</time>
    <name>Fazekas-hegy</name>
  </wpt>
  <trk>
    <name>2024-12-16 13:56</name>
    <extensions>
      <locus:activity>no_activity</locus:activity>
    </extensions>
    <trkseg>
      <trkpt lat="47.5165260" lon="18.9762470">
        <ele>221.75</ele>
      </trkpt>
      <trkpt lat="47.5165160" lon="18.9761600">
        <ele>222.00</ele>
      </trkpt>
      <trkpt lat="47.5164780" lon="18.9758700">
        <ele>224.00</ele>
      </trkpt>
      <trkpt lat="47.5163630" lon="18.9751660">
        <ele>228.75</ele>
      </trkpt>
      <trkpt lat="47.5162620" lon="18.9746590">
        <ele>231.50</ele>
      </trkpt>
      <trkpt lat="47.5161910" lon="18.9743880">
        <ele>231.00</ele>
      </trkpt>
      <trkpt lat="47.5160350" lon="18.9740400">
        <ele>231.75</ele>
      </trkpt>
      <trkpt lat="47.5159440" lon="18.9738960">
        <ele>234.00</ele>
      </trkpt>
      <trkpt lat="47.5158530" lon="18.9737670">
        <ele>236.50</ele>
      </trkpt>
      <trkpt lat="47.5157580" lon="18.9736560">
        <ele>238.50</ele>
      </trkpt>
      <trkpt lat="47.5156550" lon="18.9735730">
        <ele>240.00</ele>
      </trkpt>
      <trkpt lat="47.5155620" lon="18.9735310">
        <ele>241.50</ele>
      </trkpt>
      <trkpt lat="47.5152620" lon="18.9734770">
        <ele>244.75</ele>
      </trkpt>
      <trkpt lat="47.5152120" lon="18.9734570">
        <ele>244.25</ele>
      </trkpt>
      <trkpt lat="47.5151760" lon="18.9734270">
        <ele>243.50</ele>
      </trkpt>
      <trkpt lat="47.5151470" lon="18.9733630">
        <ele>243.00</ele>
      </trkpt>
      <trkpt lat="47.5151330" lon="18.9732720">
        <ele>242.50</ele>
      </trkpt>
      <trkpt lat="47.5151350" lon="18.9731590">
        <ele>241.75</ele>
      </trkpt>
      <trkpt lat="47.5151520" lon="18.9730270">
        <ele>241.25</ele>
      </trkpt>
      <trkpt lat="47.5152210" lon="18.9728630">
        <ele>241.25</ele>
      </trkpt>
      <trkpt lat="47.5153340" lon="18.9726000">
        <ele>243.50</ele>
      </trkpt>
      <trkpt lat="47.5154020" lon="18.9724130">
        <ele>245.75</ele>
      </trkpt>
      <trkpt lat="47.5154580" lon="18.9722210">
        <ele>248.25</ele>
      </trkpt>
      <trkpt lat="47.5154860" lon="18.9720400">
        <ele>250.50</ele>
      </trkpt>
      <trkpt lat="47.5154880" lon="18.9720290">
        <ele>250.50</ele>
      </trkpt>
      <trkpt lat="47.5154970" lon="18.9718610">
        <ele>252.50</ele>
      </trkpt>
      <trkpt lat="47.5154910" lon="18.9716860">
        <ele>254.50</ele>
      </trkpt>
      <trkpt lat="47.5154510" lon="18.9713840">
        <ele>259.00</ele>
      </trkpt>
      <trkpt lat="47.5154190" lon="18.9711800">
        <ele>261.50</ele>
      </trkpt>
      <trkpt lat="47.5153800" lon="18.9710590">
        <ele>262.50</ele>
      </trkpt>
      <trkpt lat="47.5153060" lon="18.9709490">
        <ele>262.75</ele>
      </trkpt>
      <trkpt lat="47.5151440" lon="18.9707780">
        <ele>262.75</ele>
      </trkpt>
      <trkpt lat="47.5148840" lon="18.9704530">
        <ele>263.25</ele>
      </trkpt>
      <trkpt lat="47.5149220" lon="18.9703960">
        <ele>265.25</ele>
      </trkpt>
      <trkpt lat="47.5148810" lon="18.9703400">
        <ele>266.25</ele>
      </trkpt>
      <trkpt lat="47.5148980" lon="18.9703180">
        <ele>267.00</ele>
      </trkpt>
      <trkpt lat="47.5149430" lon="18.9703250">
        <ele>267.50</ele>
      </trkpt>
      <trkpt lat="47.5150940" lon="18.9704120">
        <ele>269.00</ele>
      </trkpt>
      <trkpt lat="47.5151880" lon="18.9704930">
        <ele>269.25</ele>
      </trkpt>
      <trkpt lat="47.5153380" lon="18.9705700">
        <ele>271.00</ele>
      </trkpt>
      <trkpt lat="47.5156390" lon="18.9708130">
        <ele>272.50</ele>
      </trkpt>
      <trkpt lat="47.5157400" lon="18.9708610">
        <ele>273.00</ele>
      </trkpt>
      <trkpt lat="47.5157890" lon="18.9708630">
        <ele>273.75</ele>
      </trkpt>
      <trkpt lat="47.5158380" lon="18.9708140">
        <ele>275.25</ele>
      </trkpt>
      <trkpt lat="47.5158550" lon="18.9707320">
        <ele>276.25</ele>
      </trkpt>
      <trkpt lat="47.5158620" lon="18.9706220">
        <ele>278.00</ele>
      </trkpt>
      <trkpt lat="47.5157900" lon="18.9705020">
        <ele>279.75</ele>
      </trkpt>
      <trkpt lat="47.5157470" lon="18.9703860">
        <ele>282.00</ele>
      </trkpt>
      <trkpt lat="47.5157080" lon="18.9702410">
        <ele>285.00</ele>
      </trkpt>
      <trkpt lat="47.5157040" lon="18.9701290">
        <ele>288.50</ele>
      </trkpt>
      <trkpt lat="47.5157130" lon="18.9699980">
        <ele>292.50</ele>
      </trkpt>
      <trkpt lat="47.5156760" lon="18.9698560">
        <ele>296.25</ele>
      </trkpt>
      <trkpt lat="47.5156490" lon="18.9698100">
        <ele>297.50</ele>
      </trkpt>
      <trkpt lat="47.5155650" lon="18.9697220">
        <ele>300.00</ele>
      </trkpt>
      <trkpt lat="47.5154730" lon="18.9696610">
        <ele>301.75</ele>
      </trkpt>
      <trkpt lat="47.5153640" lon="18.9696040">
        <ele>303.50</ele>
      </trkpt>
      <trkpt lat="47.5151490" lon="18.9695930">
        <ele>302.00</ele>
      </trkpt>
      <trkpt lat="47.5150350" lon="18.9695650">
        <ele>301.25</ele>
      </trkpt>
      <trkpt lat="47.5149990" lon="18.9695440">
        <ele>301.75</ele>
      </trkpt>
      <trkpt lat="47.5149530" lon="18.9695180">
        <ele>301.75</ele>
      </trkpt>
      <trkpt lat="47.5147050" lon="18.9691960">
        <ele>311.00</ele>
      </trkpt>
      <trkpt lat="47.5143910" lon="18.9689400">
        <ele>315.25</ele>
      </trkpt>
      <trkpt lat="47.5142470" lon="18.9688050">
        <ele>317.00</ele>
      </trkpt>
      <trkpt lat="47.5141430" lon="18.9687040">
        <ele>318.00</ele>
      </trkpt>
      <trkpt lat="47.5140690" lon="18.9686770">
        <ele>317.50</ele>
      </trkpt>
      <trkpt lat="47.5138540" lon="18.9685280">
        <ele>317.25</ele>
      </trkpt>
      <trkpt lat="47.5137270" lon="18.9684750">
        <ele>315.75</ele>
      </trkpt>
      <trkpt lat="47.5134610" lon="18.9684020">
        <ele>311.75</ele>
      </trkpt>
      <trkpt lat="47.5133720" lon="18.9683250">
        <ele>312.00</ele>
      </trkpt>
      <trkpt lat="47.5132440" lon="18.9679750">
        <ele>317.25</ele>
      </trkpt>
      <trkpt lat="47.5131740" lon="18.9678410">
        <ele>318.25</ele>
      </trkpt>
      <trkpt lat="47.5130510" lon="18.9675230">
        <ele>323.25</ele>
      </trkpt>
      <trkpt lat="47.5130100" lon="18.9674420">
        <ele>325.50</ele>
      </trkpt>
      <trkpt lat="47.5128970" lon="18.9674180">
        <ele>326.75</ele>
      </trkpt>
      <trkpt lat="47.5128970" lon="18.9673750">
        <ele>327.75</ele>
      </trkpt>
      <trkpt lat="47.5128840" lon="18.9673290">
        <ele>329.25</ele>
      </trkpt>
      <trkpt lat="47.5128640" lon="18.9673040">
        <ele>330.00</ele>
      </trkpt>
      <trkpt lat="47.5128360" lon="18.9672910">
        <ele>330.50</ele>
      </trkpt>
      <trkpt lat="47.5127820" lon="18.9673020">
        <ele>330.50</ele>
      </trkpt>
      <trkpt lat="47.5126080" lon="18.9675010">
        <ele>328.00</ele>
      </trkpt>
      <trkpt lat="47.5124220" lon="18.9676970">
        <ele>325.75</ele>
      </trkpt>
      <trkpt lat="47.5122740" lon="18.9678260">
        <ele>324.50</ele>
      </trkpt>
      <trkpt lat="47.5121520" lon="18.9679030">
        <ele>324.50</ele>
      </trkpt>
      <trkpt lat="47.5120620" lon="18.9679700">
        <ele>324.50</ele>
      </trkpt>
      <trkpt lat="47.5118980" lon="18.9679930">
        <ele>326.25</ele>
      </trkpt>
      <trkpt lat="47.5118210" lon="18.9679760">
        <ele>327.25</ele>
      </trkpt>
      <trkpt lat="47.5117560" lon="18.9679440">
        <ele>328.25</ele>
      </trkpt>
      <trkpt lat="47.5117130" lon="18.9678930">
        <ele>329.25</ele>
      </trkpt>
      <trkpt lat="47.5115320" lon="18.9679150">
        <ele>330.25</ele>
      </trkpt>
      <trkpt lat="47.5115070" lon="18.9674500">
        <ele>334.00</ele>
      </trkpt>
      <trkpt lat="47.5115030" lon="18.9672080">
        <ele>335.00</ele>
      </trkpt>
      <trkpt lat="47.5115100" lon="18.9669760">
        <ele>338.00</ele>
      </trkpt>
      <trkpt lat="47.5114970" lon="18.9668170">
        <ele>340.75</ele>
      </trkpt>
      <trkpt lat="47.5114240" lon="18.9663780">
        <ele>348.00</ele>
      </trkpt>
      <trkpt lat="47.5113910" lon="18.9660700">
        <ele>351.25</ele>
      </trkpt>
      <trkpt lat="47.5113270" lon="18.9659050">
        <ele>353.50</ele>
      </trkpt>
      <trkpt lat="47.5112720" lon="18.9658140">
        <ele>355.00</ele>
      </trkpt>
      <trkpt lat="47.5112660" lon="18.9658060">
        <ele>355.00</ele>
      </trkpt>
      <trkpt lat="47.5111620" lon="18.9656820">
        <ele>357.25</ele>
      </trkpt>
      <trkpt lat="47.5109190" lon="18.9654410">
        <ele>360.75</ele>
      </trkpt>
      <trkpt lat="47.5106800" lon="18.9651820">
        <ele>367.75</ele>
      </trkpt>
      <trkpt lat="47.5105880" lon="18.9648700">
        <ele>373.25</ele>
      </trkpt>
      <trkpt lat="47.5104720" lon="18.9646320">
        <ele>376.50</ele>
      </trkpt>
      <trkpt lat="47.5103520" lon="18.9644960">
        <ele>380.00</ele>
      </trkpt>
      <trkpt lat="47.5101810" lon="18.9644330">
        <ele>383.50</ele>
      </trkpt>
      <trkpt lat="47.5100730" lon="18.9644780">
        <ele>384.25</ele>
      </trkpt>
      <trkpt lat="47.5100040" lon="18.9644190">
        <ele>386.25</ele>
      </trkpt>
      <trkpt lat="47.5097140" lon="18.9642940">
        <ele>399.50</ele>
      </trkpt>
      <trkpt lat="47.5096470" lon="18.9643040">
        <ele>401.50</ele>
      </trkpt>
      <trkpt lat="47.5095010" lon="18.9644440">
        <ele>403.75</ele>
      </trkpt>
      <trkpt lat="47.5094240" lon="18.9645930">
        <ele>403.00</ele>
      </trkpt>
      <trkpt lat="47.5092090" lon="18.9648760">
        <ele>403.50</ele>
      </trkpt>
      <trkpt lat="47.5091300" lon="18.9649460">
        <ele>404.00</ele>
      </trkpt>
      <trkpt lat="47.5088830" lon="18.9650840">
        <ele>404.75</ele>
      </trkpt>
      <trkpt lat="47.5087850" lon="18.9651530">
        <ele>404.75</ele>
      </trkpt>
      <trkpt lat="47.5085490" lon="18.9651070">
        <ele>407.00</ele>
      </trkpt>
      <trkpt lat="47.5082460" lon="18.9650760">
        <ele>409.50</ele>
      </trkpt>
      <trkpt lat="47.5081880" lon="18.9650550">
        <ele>410.25</ele>
      </trkpt>
      <trkpt lat="47.5079850" lon="18.9651150">
        <ele>411.25</ele>
      </trkpt>
      <trkpt lat="47.5078590" lon="18.9650850">
        <ele>413.50</ele>
      </trkpt>
      <trkpt lat="47.5076510" lon="18.9649730">
        <ele>418.75</ele>
      </trkpt>
      <trkpt lat="47.5074970" lon="18.9648370">
        <ele>422.75</ele>
      </trkpt>
      <trkpt lat="47.5073710" lon="18.9647010">
        <ele>427.00</ele>
      </trkpt>
      <trkpt lat="47.5073370" lon="18.9646640">
        <ele>427.00</ele>
      </trkpt>
      <trkpt lat="47.5072060" lon="18.9646530">
        <ele>428.00</ele>
      </trkpt>
      <trkpt lat="47.5070820" lon="18.9646120">
        <ele>430.00</ele>
      </trkpt>
      <trkpt lat="47.5070230" lon="18.9645670">
        <ele>431.25</ele>
      </trkpt>
      <trkpt lat="47.5069250" lon="18.9644630">
        <ele>433.75</ele>
      </trkpt>
      <trkpt lat="47.5068760" lon="18.9643540">
        <ele>435.75</ele>
      </trkpt>
      <trkpt lat="47.5068420" lon="18.9641760">
        <ele>438.25</ele>
      </trkpt>
      <trkpt lat="47.5068240" lon="18.9637860">
        <ele>442.75</ele>
      </trkpt>
      <trkpt lat="47.5068550" lon="18.9635470">
        <ele>445.00</ele>
      </trkpt>
      <trkpt lat="47.5069370" lon="18.9634470">
        <ele>445.75</ele>
      </trkpt>
      <trkpt lat="47.5069980" lon="18.9632530">
        <ele>447.50</ele>
      </trkpt>
      <trkpt lat="47.5070860" lon="18.9631560">
        <ele>448.25</ele>
      </trkpt>
      <trkpt lat="47.5071420" lon="18.9630640">
        <ele>448.75</ele>
      </trkpt>
      <trkpt lat="47.5071760" lon="18.9629740">
        <ele>449.00</ele>
      </trkpt>
      <trkpt lat="47.5072120" lon="18.9626110">
        <ele>451.00</ele>
      </trkpt>
      <trkpt lat="47.5072810" lon="18.9624330">
        <ele>452.25</ele>
      </trkpt>
      <trkpt lat="47.5073600" lon="18.9623100">
        <ele>453.00</ele>
      </trkpt>
      <trkpt lat="47.5074300" lon="18.9620640">
        <ele>453.50</ele>
      </trkpt>
      <trkpt lat="47.5074520" lon="18.9618950">
        <ele>453.50</ele>
      </trkpt>
      <trkpt lat="47.5074120" lon="18.9618050">
        <ele>454.25</ele>
      </trkpt>
      <trkpt lat="47.5073800" lon="18.9617660">
        <ele>454.50</ele>
      </trkpt>
      <trkpt lat="47.5072680" lon="18.9616320">
        <ele>455.75</ele>
      </trkpt>
      <trkpt lat="47.5069650" lon="18.9609720">
        <ele>461.75</ele>
      </trkpt>
      <trkpt lat="47.5068280" lon="18.9606520">
        <ele>464.75</ele>
      </trkpt>
      <trkpt lat="47.5067210" lon="18.9604310">
        <ele>466.50</ele>
      </trkpt>
      <trkpt lat="47.5069120" lon="18.9602520">
        <ele>467.25</ele>
      </trkpt>
      <trkpt lat="47.5070930" lon="18.9600500">
        <ele>468.50</ele>
      </trkpt>
      <trkpt lat="47.5072700" lon="18.9598370">
        <ele>469.75</ele>
      </trkpt>
      <trkpt lat="47.5074360" lon="18.9596840">
        <ele>470.75</ele>
      </trkpt>
      <trkpt lat="47.5075800" lon="18.9595180">
        <ele>472.00</ele>
      </trkpt>
      <trkpt lat="47.5076540" lon="18.9594260">
        <ele>472.50</ele>
      </trkpt>
      <trkpt lat="47.5077500" lon="18.9593660">
        <ele>473.25</ele>
      </trkpt>
      <trkpt lat="47.5078190" lon="18.9593030">
        <ele>474.00</ele>
      </trkpt>
      <trkpt lat="47.5079090" lon="18.9591750">
        <ele>475.25</ele>
      </trkpt>
      <trkpt lat="47.5080080" lon="18.9590460">
        <ele>476.50</ele>
      </trkpt>
      <trkpt lat="47.5081370" lon="18.9589540">
        <ele>478.25</ele>
      </trkpt>
      <trkpt lat="47.5081890" lon="18.9588700">
        <ele>479.25</ele>
      </trkpt>
      <trkpt lat="47.5082270" lon="18.9587710">
        <ele>479.75</ele>
      </trkpt>
      <trkpt lat="47.5082680" lon="18.9585940">
        <ele>480.75</ele>
      </trkpt>
      <trkpt lat="47.5082880" lon="18.9584690">
        <ele>480.50</ele>
      </trkpt>
      <trkpt lat="47.5082930" lon="18.9583610">
        <ele>480.25</ele>
      </trkpt>
      <trkpt lat="47.5082910" lon="18.9581790">
        <ele>479.00</ele>
      </trkpt>
      <trkpt lat="47.5083310" lon="18.9579010">
        <ele>478.25</ele>
      </trkpt>
      <trkpt lat="47.5083570" lon="18.9578600">
        <ele>480.00</ele>
      </trkpt>
      <trkpt lat="47.5084470" lon="18.9577270">
        <ele>480.00</ele>
      </trkpt>
      <trkpt lat="47.5086280" lon="18.9573770">
        <ele>481.00</ele>
      </trkpt>
      <trkpt lat="47.5086980" lon="18.9572600">
        <ele>480.50</ele>
      </trkpt>
      <trkpt lat="47.5087210" lon="18.9572010">
        <ele>480.00</ele>
      </trkpt>
      <trkpt lat="47.5088060" lon="18.9571390">
        <ele>480.00</ele>
      </trkpt>
      <trkpt lat="47.5088750" lon="18.9572200">
        <ele>480.75</ele>
      </trkpt>
      <trkpt lat="47.5089830" lon="18.9572980">
        <ele>482.00</ele>
      </trkpt>
      <trkpt lat="47.5090510" lon="18.9573130">
        <ele>482.25</ele>
      </trkpt>
      <trkpt lat="47.5091620" lon="18.9572390">
        <ele>482.75</ele>
      </trkpt>
      <trkpt lat="47.5092910" lon="18.9570960">
        <ele>481.75</ele>
      </trkpt>
      <trkpt lat="47.5095530" lon="18.9571070">
        <ele>481.00</ele>
      </trkpt>
      <trkpt lat="47.5096690" lon="18.9571510">
        <ele>481.00</ele>
      </trkpt>
      <trkpt lat="47.5098460" lon="18.9572010">
        <ele>480.75</ele>
      </trkpt>
      <trkpt lat="47.5103730" lon="18.9573830">
        <ele>481.50</ele>
      </trkpt>
      <trkpt lat="47.5104380" lon="18.9574400">
        <ele>481.75</ele>
      </trkpt>
      <trkpt lat="47.5104890" lon="18.9575180">
        <ele>481.75</ele>
      </trkpt>
      <trkpt lat="47.5105400" lon="18.9576190">
        <ele>481.50</ele>
      </trkpt>
      <trkpt lat="47.5105780" lon="18.9576610">
        <ele>481.25</ele>
      </trkpt>
      <trkpt lat="47.5106280" lon="18.9577530">
        <ele>481.00</ele>
      </trkpt>
      <trkpt lat="47.5107000" lon="18.9577900">
        <ele>480.75</ele>
      </trkpt>
      <trkpt lat="47.5108740" lon="18.9578090">
        <ele>480.75</ele>
      </trkpt>
      <trkpt lat="47.5111760" lon="18.9579180">
        <ele>483.00</ele>
      </trkpt>
      <trkpt lat="47.5112610" lon="18.9579320">
        <ele>484.25</ele>
      </trkpt>
      <trkpt lat="47.5113590" lon="18.9579560">
        <ele>485.75</ele>
      </trkpt>
      <trkpt lat="47.5114540" lon="18.9579160">
        <ele>486.75</ele>
      </trkpt>
      <trkpt lat="47.5116020" lon="18.9579350">
        <ele>487.50</ele>
      </trkpt>
      <trkpt lat="47.5117190" lon="18.9579620">
        <ele>487.50</ele>
      </trkpt>
      <trkpt lat="47.5117980" lon="18.9580320">
        <ele>486.50</ele>
      </trkpt>
      <trkpt lat="47.5118540" lon="18.9581080">
        <ele>485.50</ele>
      </trkpt>
      <trkpt lat="47.5119260" lon="18.9581740">
        <ele>484.25</ele>
      </trkpt>
      <trkpt lat="47.5121380" lon="18.9582890">
        <ele>485.75</ele>
      </trkpt>
      <trkpt lat="47.5122400" lon="18.9583210">
        <ele>487.25</ele>
      </trkpt>
      <trkpt lat="47.5123940" lon="18.9583420">
        <ele>489.25</ele>
      </trkpt>
      <trkpt lat="47.5125800" lon="18.9584290">
        <ele>489.75</ele>
      </trkpt>
      <trkpt lat="47.5127420" lon="18.9585300">
        <ele>488.75</ele>
      </trkpt>
      <trkpt lat="47.5127570" lon="18.9585430">
        <ele>487.50</ele>
      </trkpt>
      <trkpt lat="47.5128530" lon="18.9586330">
        <ele>487.50</ele>
      </trkpt>
      <trkpt lat="47.5128750" lon="18.9586570">
        <ele>487.25</ele>
      </trkpt>
      <trkpt lat="47.5129510" lon="18.9587750">
        <ele>486.25</ele>
      </trkpt>
      <trkpt lat="47.5130530" lon="18.9588960">
        <ele>485.75</ele>
      </trkpt>
      <trkpt lat="47.5131500" lon="18.9590260">
        <ele>486.50</ele>
      </trkpt>
      <trkpt lat="47.5132600" lon="18.9591920">
        <ele>487.00</ele>
      </trkpt>
      <trkpt lat="47.5133230" lon="18.9593020">
        <ele>487.25</ele>
      </trkpt>
      <trkpt lat="47.5134470" lon="18.9594880">
        <ele>487.50</ele>
      </trkpt>
      <trkpt lat="47.5134790" lon="18.9595490">
        <ele>487.25</ele>
      </trkpt>
      <trkpt lat="47.5135450" lon="18.9596500">
        <ele>486.75</ele>
      </trkpt>
      <trkpt lat="47.5136190" lon="18.9598280">
        <ele>485.00</ele>
      </trkpt>
      <trkpt lat="47.5136950" lon="18.9599510">
        <ele>484.00</ele>
      </trkpt>
      <trkpt lat="47.5137670" lon="18.9600410">
        <ele>483.50</ele>
      </trkpt>
      <trkpt lat="47.5139580" lon="18.9601260">
        <ele>484.50</ele>
      </trkpt>
      <trkpt lat="47.5140790" lon="18.9601000">
        <ele>485.50</ele>
      </trkpt>
      <trkpt lat="47.5143560" lon="18.9600180">
        <ele>486.75</ele>
      </trkpt>
      <trkpt lat="47.5145080" lon="18.9599640">
        <ele>487.50</ele>
      </trkpt>
      <trkpt lat="47.5148120" lon="18.9600480">
        <ele>488.75</ele>
      </trkpt>
      <trkpt lat="47.5150880" lon="18.9601000">
        <ele>489.50</ele>
      </trkpt>
      <trkpt lat="47.5152280" lon="18.9601170">
        <ele>489.75</ele>
      </trkpt>
      <trkpt lat="47.5153280" lon="18.9601490">
        <ele>489.75</ele>
      </trkpt>
      <trkpt lat="47.5154230" lon="18.9601570">
        <ele>489.50</ele>
      </trkpt>
      <trkpt lat="47.5155740" lon="18.9601530">
        <ele>489.25</ele>
      </trkpt>
      <trkpt lat="47.5155850" lon="18.9600120">
        <ele>489.75</ele>
      </trkpt>
      <trkpt lat="47.5156840" lon="18.9600230">
        <ele>489.25</ele>
      </trkpt>
      <trkpt lat="47.5158500" lon="18.9600200">
        <ele>488.50</ele>
      </trkpt>
      <trkpt lat="47.5159910" lon="18.9599730">
        <ele>488.00</ele>
      </trkpt>
      <trkpt lat="47.5161170" lon="18.9599100">
        <ele>487.25</ele>
      </trkpt>
      <trkpt lat="47.5161840" lon="18.9598760">
        <ele>486.75</ele>
      </trkpt>
      <trkpt lat="47.5161950" lon="18.9599930">
        <ele>486.50</ele>
      </trkpt>
      <trkpt lat="47.5162120" lon="18.9600610">
        <ele>486.25</ele>
      </trkpt>
      <trkpt lat="47.5162410" lon="18.9601160">
        <ele>486.00</ele>
      </trkpt>
      <trkpt lat="47.5162780" lon="18.9601580">
        <ele>485.75</ele>
      </trkpt>
      <trkpt lat="47.5163630" lon="18.9602280">
        <ele>485.25</ele>
      </trkpt>
      <trkpt lat="47.5164560" lon="18.9602510">
        <ele>485.25</ele>
      </trkpt>
      <trkpt lat="47.5165250" lon="18.9602280">
        <ele>485.75</ele>
      </trkpt>
      <trkpt lat="47.5165520" lon="18.9601960">
        <ele>486.00</ele>
      </trkpt>
      <trkpt lat="47.5165740" lon="18.9601540">
        <ele>486.25</ele>
      </trkpt>
      <trkpt lat="47.5166070" lon="18.9601620">
        <ele>486.50</ele>
      </trkpt>
      <trkpt lat="47.5168160" lon="18.9601080">
        <ele>490.25</ele>
      </trkpt>
      <trkpt lat="47.5169670" lon="18.9600580">
        <ele>494.00</ele>
      </trkpt>
      <trkpt lat="47.5170110" lon="18.9600350">
        <ele>495.25</ele>
      </trkpt>
      <trkpt lat="47.5170750" lon="18.9599850">
        <ele>497.25</ele>
      </trkpt>
      <trkpt lat="47.5176760" lon="18.9596790">
        <ele>515.25</ele>
      </trkpt>
      <trkpt lat="47.5179010" lon="18.9595640">
        <ele>517.50</ele>
      </trkpt>
      <trkpt lat="47.5180180" lon="18.9594870">
        <ele>518.50</ele>
      </trkpt>
      <trkpt lat="47.5180990" lon="18.9594210">
        <ele>518.50</ele>
      </trkpt>
      <trkpt lat="47.5181290" lon="18.9593670">
        <ele>518.25</ele>
      </trkpt>
      <trkpt lat="47.5181180" lon="18.9593320">
        <ele>518.00</ele>
      </trkpt>
      <trkpt lat="47.5181180" lon="18.9592800">
        <ele>517.75</ele>
      </trkpt>
      <trkpt lat="47.5181470" lon="18.9591940">
        <ele>517.75</ele>
      </trkpt>
      <trkpt lat="47.5181720" lon="18.9591660">
        <ele>517.75</ele>
      </trkpt>
      <trkpt lat="47.5181960" lon="18.9591550">
        <ele>517.75</ele>
      </trkpt>
      <trkpt lat="47.5182210" lon="18.9591500">
        <ele>517.75</ele>
      </trkpt>
      <trkpt lat="47.5182580" lon="18.9591650">
        <ele>518.25</ele>
      </trkpt>
      <trkpt lat="47.5182690" lon="18.9591770">
        <ele>518.50</ele>
      </trkpt>
      <trkpt lat="47.5183510" lon="18.9590870">
        <ele>518.50</ele>
      </trkpt>
      <trkpt lat="47.5184750" lon="18.9589520">
        <ele>518.50</ele>
      </trkpt>
      <trkpt lat="47.5185430" lon="18.9588580">
        <ele>519.00</ele>
      </trkpt>
      <trkpt lat="47.5186830" lon="18.9586500">
        <ele>519.25</ele>
      </trkpt>
      <trkpt lat="47.5188040" lon="18.9584850">
        <ele>518.50</ele>
      </trkpt>
      <trkpt lat="47.5189210" lon="18.9585960">
        <ele>519.50</ele>
      </trkpt>
      <trkpt lat="47.5189900" lon="18.9588070">
        <ele>517.75</ele>
      </trkpt>
      <trkpt lat="47.5189900" lon="18.9590110">
        <ele>516.25</ele>
      </trkpt>
      <trkpt lat="47.5190670" lon="18.9591920">
        <ele>513.25</ele>
      </trkpt>
      <trkpt lat="47.5191430" lon="18.9592070">
        <ele>511.50</ele>
      </trkpt>
      <trkpt lat="47.5192480" lon="18.9590890">
        <ele>509.25</ele>
      </trkpt>
      <trkpt lat="47.5192500" lon="18.9589460">
        <ele>510.50</ele>
      </trkpt>
      <trkpt lat="47.5193070" lon="18.9587990">
        <ele>511.00</ele>
      </trkpt>
      <trkpt lat="47.5195190" lon="18.9583480">
        <ele>510.00</ele>
      </trkpt>
      <trkpt lat="47.5195680" lon="18.9583530">
        <ele>508.25</ele>
      </trkpt>
      <trkpt lat="47.5196090" lon="18.9584820">
        <ele>505.00</ele>
      </trkpt>
      <trkpt lat="47.5195620" lon="18.9586300">
        <ele>505.00</ele>
      </trkpt>
      <trkpt lat="47.5194690" lon="18.9587870">
        <ele>506.00</ele>
      </trkpt>
      <trkpt lat="47.5194390" lon="18.9591310">
        <ele>500.75</ele>
      </trkpt>
      <trkpt lat="47.5194530" lon="18.9593670">
        <ele>496.50</ele>
      </trkpt>
      <trkpt lat="47.5194800" lon="18.9593730">
        <ele>494.75</ele>
      </trkpt>
      <trkpt lat="47.5195610" lon="18.9590950">
        <ele>495.25</ele>
      </trkpt>
      <trkpt lat="47.5197300" lon="18.9588120">
        <ele>493.75</ele>
      </trkpt>
      <trkpt lat="47.5197500" lon="18.9588160">
        <ele>491.25</ele>
      </trkpt>
      <trkpt lat="47.5197660" lon="18.9588190">
        <ele>491.25</ele>
      </trkpt>
      <trkpt lat="47.5196900" lon="18.9592430">
        <ele>484.75</ele>
      </trkpt>
      <trkpt lat="47.5196800" lon="18.9594730">
        <ele>480.00</ele>
      </trkpt>
      <trkpt lat="47.5197040" lon="18.9594950">
        <ele>478.00</ele>
      </trkpt>
      <trkpt lat="47.5197470" lon="18.9593800">
        <ele>478.00</ele>
      </trkpt>
      <trkpt lat="47.5198240" lon="18.9591730">
        <ele>478.00</ele>
      </trkpt>
      <trkpt lat="47.5199260" lon="18.9591030">
        <ele>473.25</ele>
      </trkpt>
      <trkpt lat="47.5199500" lon="18.9591100">
        <ele>471.50</ele>
      </trkpt>
      <trkpt lat="47.5199480" lon="18.9592030">
        <ele>469.25</ele>
      </trkpt>
      <trkpt lat="47.5199020" lon="18.9594890">
        <ele>465.25</ele>
      </trkpt>
      <trkpt lat="47.5199120" lon="18.9595410">
        <ele>463.50</ele>
      </trkpt>
      <trkpt lat="47.5198980" lon="18.9595950">
        <ele>463.25</ele>
      </trkpt>
      <trkpt lat="47.5198210" lon="18.9598580">
        <ele>462.00</ele>
      </trkpt>
      <trkpt lat="47.5196920" lon="18.9602250">
        <ele>459.25</ele>
      </trkpt>
      <trkpt lat="47.5196380" lon="18.9603440">
        <ele>458.25</ele>
      </trkpt>
      <trkpt lat="47.5195330" lon="18.9604920">
        <ele>458.50</ele>
      </trkpt>
      <trkpt lat="47.5193850" lon="18.9606030">
        <ele>459.75</ele>
      </trkpt>
      <trkpt lat="47.5192370" lon="18.9606870">
        <ele>460.00</ele>
      </trkpt>
      <trkpt lat="47.5191040" lon="18.9607860">
        <ele>459.75</ele>
      </trkpt>
      <trkpt lat="47.5190780" lon="18.9608050">
        <ele>460.00</ele>
      </trkpt>
      <trkpt lat="47.5191040" lon="18.9607860">
        <ele>459.75</ele>
      </trkpt>
      <trkpt lat="47.5193220" lon="18.9608030">
        <ele>453.75</ele>
      </trkpt>
      <trkpt lat="47.5194400" lon="18.9607790">
        <ele>452.00</ele>
      </trkpt>
      <trkpt lat="47.5194880" lon="18.9607890">
        <ele>450.25</ele>
      </trkpt>
      <trkpt lat="47.5195630" lon="18.9608050">
        <ele>447.25</ele>
      </trkpt>
      <trkpt lat="47.5196160" lon="18.9608010">
        <ele>446.00</ele>
      </trkpt>
      <trkpt lat="47.5198000" lon="18.9606890">
        <ele>442.25</ele>
      </trkpt>
      <trkpt lat="47.5200360" lon="18.9604540">
        <ele>437.50</ele>
      </trkpt>
      <trkpt lat="47.5201090" lon="18.9603260">
        <ele>437.50</ele>
      </trkpt>
      <trkpt lat="47.5201560" lon="18.9601850">
        <ele>438.25</ele>
      </trkpt>
      <trkpt lat="47.5201910" lon="18.9600520">
        <ele>439.25</ele>
      </trkpt>
      <trkpt lat="47.5202270" lon="18.9598030">
        <ele>442.00</ele>
      </trkpt>
      <trkpt lat="47.5202640" lon="18.9596970">
        <ele>442.00</ele>
      </trkpt>
      <trkpt lat="47.5203700" lon="18.9595610">
        <ele>439.50</ele>
      </trkpt>
      <trkpt lat="47.5204060" lon="18.9595480">
        <ele>438.00</ele>
      </trkpt>
      <trkpt lat="47.5204210" lon="18.9596030">
        <ele>436.25</ele>
      </trkpt>
      <trkpt lat="47.5203740" lon="18.9599350">
        <ele>433.25</ele>
      </trkpt>
      <trkpt lat="47.5204040" lon="18.9600650">
        <ele>430.25</ele>
      </trkpt>
      <trkpt lat="47.5204350" lon="18.9600890">
        <ele>428.50</ele>
      </trkpt>
      <trkpt lat="47.5204980" lon="18.9600680">
        <ele>425.75</ele>
      </trkpt>
      <trkpt lat="47.5205550" lon="18.9600230">
        <ele>423.75</ele>
      </trkpt>
      <trkpt lat="47.5207020" lon="18.9598660">
        <ele>418.75</ele>
      </trkpt>
      <trkpt lat="47.5207090" lon="18.9598600">
        <ele>418.75</ele>
      </trkpt>
      <trkpt lat="47.5207980" lon="18.9597150">
        <ele>416.75</ele>
      </trkpt>
      <trkpt lat="47.5209600" lon="18.9592930">
        <ele>417.25</ele>
      </trkpt>
      <trkpt lat="47.5210440" lon="18.9589920">
        <ele>418.25</ele>
      </trkpt>
      <trkpt lat="47.5210940" lon="18.9588360">
        <ele>418.50</ele>
      </trkpt>
      <trkpt lat="47.5211480" lon="18.9587200">
        <ele>417.00</ele>
      </trkpt>
      <trkpt lat="47.5212310" lon="18.9585670">
        <ele>414.25</ele>
      </trkpt>
      <trkpt lat="47.5212700" lon="18.9585580">
        <ele>412.00</ele>
      </trkpt>
      <trkpt lat="47.5212990" lon="18.9585870">
        <ele>409.75</ele>
      </trkpt>
      <trkpt lat="47.5213070" lon="18.9586620">
        <ele>408.25</ele>
      </trkpt>
      <trkpt lat="47.5213010" lon="18.9589180">
        <ele>404.75</ele>
      </trkpt>
      <trkpt lat="47.5213040" lon="18.9590170">
        <ele>403.00</ele>
      </trkpt>
      <trkpt lat="47.5213340" lon="18.9590020">
        <ele>401.50</ele>
      </trkpt>
      <trkpt lat="47.5213910" lon="18.9588620">
        <ele>400.25</ele>
      </trkpt>
      <trkpt lat="47.5214210" lon="18.9588250">
        <ele>399.25</ele>
      </trkpt>
      <trkpt lat="47.5214520" lon="18.9588460">
        <ele>397.25</ele>
      </trkpt>
      <trkpt lat="47.5214740" lon="18.9590350">
        <ele>393.50</ele>
      </trkpt>
      <trkpt lat="47.5214920" lon="18.9591380">
        <ele>391.00</ele>
      </trkpt>
      <trkpt lat="47.5221750" lon="18.9583050">
        <ele>378.00</ele>
      </trkpt>
      <trkpt lat="47.5225030" lon="18.9579810">
        <ele>371.50</ele>
      </trkpt>
      <trkpt lat="47.5227670" lon="18.9577930">
        <ele>367.00</ele>
      </trkpt>
      <trkpt lat="47.5228250" lon="18.9576560">
        <ele>367.50</ele>
      </trkpt>
      <trkpt lat="47.5229300" lon="18.9573150">
        <ele>368.00</ele>
      </trkpt>
      <trkpt lat="47.5230190" lon="18.9567710">
        <ele>369.00</ele>
      </trkpt>
      <trkpt lat="47.5230990" lon="18.9563630">
        <ele>371.25</ele>
      </trkpt>
      <trkpt lat="47.5231810" lon="18.9561430">
        <ele>372.75</ele>
      </trkpt>
      <trkpt lat="47.5233070" lon="18.9560370">
        <ele>371.75</ele>
      </trkpt>
      <trkpt lat="47.5235280" lon="18.9559140">
        <ele>371.50</ele>
      </trkpt>
      <trkpt lat="47.5238180" lon="18.9557040">
        <ele>371.00</ele>
      </trkpt>
      <trkpt lat="47.5239840" lon="18.9555850">
        <ele>371.00</ele>
      </trkpt>
      <trkpt lat="47.5243960" lon="18.9553100">
        <ele>368.25</ele>
      </trkpt>
      <trkpt lat="47.5249410" lon="18.9549700">
        <ele>369.00</ele>
      </trkpt>
      <trkpt lat="47.5255600" lon="18.9548470">
        <ele>364.00</ele>
      </trkpt>
      <trkpt lat="47.5256870" lon="18.9547410">
        <ele>363.25</ele>
      </trkpt>
      <trkpt lat="47.5257330" lon="18.9546360">
        <ele>363.50</ele>
      </trkpt>
      <trkpt lat="47.5258560" lon="18.9545050">
        <ele>362.75</ele>
      </trkpt>
      <trkpt lat="47.5260600" lon="18.9542520">
        <ele>361.00</ele>
      </trkpt>
      <trkpt lat="47.5261670" lon="18.9540920">
        <ele>361.25</ele>
      </trkpt>
      <trkpt lat="47.5263490" lon="18.9535850">
        <ele>362.75</ele>
      </trkpt>
      <trkpt lat="47.5264670" lon="18.9531950">
        <ele>362.00</ele>
      </trkpt>
      <trkpt lat="47.5265870" lon="18.9528630">
        <ele>361.50</ele>
      </trkpt>
      <trkpt lat="47.5266520" lon="18.9528760">
        <ele>360.00</ele>
      </trkpt>
      <trkpt lat="47.5267120" lon="18.9529120">
        <ele>358.50</ele>
      </trkpt>
      <trkpt lat="47.5267500" lon="18.9529480">
        <ele>357.75</ele>
      </trkpt>
      <trkpt lat="47.5267670" lon="18.9529490">
        <ele>357.50</ele>
      </trkpt>
      <trkpt lat="47.5267930" lon="18.9530290">
        <ele>357.00</ele>
      </trkpt>
      <trkpt lat="47.5268520" lon="18.9531230">
        <ele>356.25</ele>
      </trkpt>
      <trkpt lat="47.5269290" lon="18.9532040">
        <ele>355.00</ele>
      </trkpt>
      <trkpt lat="47.5270060" lon="18.9532460">
        <ele>354.25</ele>
      </trkpt>
      <trkpt lat="47.5270880" lon="18.9532520">
        <ele>352.75</ele>
      </trkpt>
      <trkpt lat="47.5271710" lon="18.9532590">
        <ele>352.75</ele>
      </trkpt>
      <trkpt lat="47.5273850" lon="18.9532760">
        <ele>351.50</ele>
      </trkpt>
      <trkpt lat="47.5275070" lon="18.9535780">
        <ele>350.00</ele>
      </trkpt>
      <trkpt lat="47.5275050" lon="18.9536610">
        <ele>349.75</ele>
      </trkpt>
      <trkpt lat="47.5274600" lon="18.9537230">
        <ele>350.00</ele>
      </trkpt>
      <trkpt lat="47.5274990" lon="18.9538070">
        <ele>350.00</ele>
      </trkpt>
      <trkpt lat="47.5275370" lon="18.9538960">
        <ele>349.75</ele>
      </trkpt>
      <trkpt lat="47.5276240" lon="18.9538200">
        <ele>349.50</ele>
      </trkpt>
      <trkpt lat="47.5277580" lon="18.9536400">
        <ele>349.00</ele>
      </trkpt>
      <trkpt lat="47.5281890" lon="18.9537810">
        <ele>350.00</ele>
      </trkpt>
      <trkpt lat="47.5282690" lon="18.9537880">
        <ele>350.50</ele>
      </trkpt>
      <trkpt lat="47.5283570" lon="18.9537340">
        <ele>350.50</ele>
      </trkpt>
      <trkpt lat="47.5284110" lon="18.9536850">
        <ele>350.50</ele>
      </trkpt>
      <trkpt lat="47.5284480" lon="18.9536710">
        <ele>350.75</ele>
      </trkpt>
      <trkpt lat="47.5288450" lon="18.9536530">
        <ele>358.00</ele>
      </trkpt>
      <trkpt lat="47.5288940" lon="18.9534510">
        <ele>357.75</ele>
      </trkpt>
      <trkpt lat="47.5289550" lon="18.9532030">
        <ele>357.75</ele>
      </trkpt>
      <trkpt lat="47.5290680" lon="18.9527980">
        <ele>357.50</ele>
      </trkpt>
      <trkpt lat="47.5291870" lon="18.9522860">
        <ele>353.00</ele>
      </trkpt>
      <trkpt lat="47.5293050" lon="18.9517640">
        <ele>346.50</ele>
      </trkpt>
      <trkpt lat="47.5293390" lon="18.9516390">
        <ele>345.75</ele>
      </trkpt>
      <trkpt lat="47.5294100" lon="18.9514430">
        <ele>345.00</ele>
      </trkpt>
      <trkpt lat="47.5295130" lon="18.9512530">
        <ele>344.75</ele>
      </trkpt>
      <trkpt lat="47.5296190" lon="18.9511100">
        <ele>344.75</ele>
      </trkpt>
      <trkpt lat="47.5297410" lon="18.9509850">
        <ele>344.25</ele>
      </trkpt>
      <trkpt lat="47.5299320" lon="18.9507930">
        <ele>344.25</ele>
      </trkpt>
      <trkpt lat="47.5301110" lon="18.9506380">
        <ele>344.50</ele>
      </trkpt>
      <trkpt lat="47.5302210" lon="18.9505540">
        <ele>344.25</ele>
      </trkpt>
      <trkpt lat="47.5307690" lon="18.9502020">
        <ele>343.50</ele>
      </trkpt>
      <trkpt lat="47.5311490" lon="18.9499960">
        <ele>343.00</ele>
      </trkpt>
      <trkpt lat="47.5314520" lon="18.9498210">
        <ele>343.00</ele>
      </trkpt>
      <trkpt lat="47.5316540" lon="18.9496770">
        <ele>343.00</ele>
      </trkpt>
      <trkpt lat="47.5319760" lon="18.9493470">
        <ele>340.50</ele>
      </trkpt>
      <trkpt lat="47.5322180" lon="18.9491170">
        <ele>337.50</ele>
      </trkpt>
      <trkpt lat="47.5323620" lon="18.9490270">
        <ele>337.50</ele>
      </trkpt>
      <trkpt lat="47.5324860" lon="18.9489770">
        <ele>338.25</ele>
      </trkpt>
      <trkpt lat="47.5325700" lon="18.9489580">
        <ele>337.75</ele>
      </trkpt>
      <trkpt lat="47.5332030" lon="18.9489700">
        <ele>336.50</ele>
      </trkpt>
      <trkpt lat="47.5332510" lon="18.9489810">
        <ele>337.25</ele>
      </trkpt>
      <trkpt lat="47.5333600" lon="18.9490330">
        <ele>338.75</ele>
      </trkpt>
      <trkpt lat="47.5334240" lon="18.9490920">
        <ele>339.75</ele>
      </trkpt>
      <trkpt lat="47.5335660" lon="18.9492680">
        <ele>343.00</ele>
      </trkpt>
      <trkpt lat="47.5337090" lon="18.9495040">
        <ele>346.25</ele>
      </trkpt>
      <trkpt lat="47.5338140" lon="18.9497220">
        <ele>350.25</ele>
      </trkpt>
      <trkpt lat="47.5339510" lon="18.9499770">
        <ele>355.50</ele>
      </trkpt>
      <trkpt lat="47.5340040" lon="18.9500700">
        <ele>357.75</ele>
      </trkpt>
      <trkpt lat="47.5340490" lon="18.9501310">
        <ele>359.25</ele>
      </trkpt>
      <trkpt lat="47.5342580" lon="18.9503530">
        <ele>364.75</ele>
      </trkpt>
      <trkpt lat="47.5343640" lon="18.9504420">
        <ele>366.75</ele>
      </trkpt>
      <trkpt lat="47.5345770" lon="18.9505990">
        <ele>368.75</ele>
      </trkpt>
      <trkpt lat="47.5346650" lon="18.9506850">
        <ele>369.50</ele>
      </trkpt>
      <trkpt lat="47.5347400" lon="18.9508250">
        <ele>371.00</ele>
      </trkpt>
      <trkpt lat="47.5348580" lon="18.9510320">
        <ele>371.50</ele>
      </trkpt>
      <trkpt lat="47.5350300" lon="18.9512770">
        <ele>371.00</ele>
      </trkpt>
      <trkpt lat="47.5350950" lon="18.9513470">
        <ele>370.25</ele>
      </trkpt>
      <trkpt lat="47.5352990" lon="18.9514870">
        <ele>367.50</ele>
      </trkpt>
      <trkpt lat="47.5357560" lon="18.9517350">
        <ele>363.00</ele>
      </trkpt>
      <trkpt lat="47.5357990" lon="18.9517690">
        <ele>362.75</ele>
      </trkpt>
      <trkpt lat="47.5358740" lon="18.9518510">
        <ele>363.00</ele>
      </trkpt>
      <trkpt lat="47.5359270" lon="18.9519310">
        <ele>363.50</ele>
      </trkpt>
      <trkpt lat="47.5360170" lon="18.9520930">
        <ele>364.00</ele>
      </trkpt>
      <trkpt lat="47.5361080" lon="18.9522920">
        <ele>363.50</ele>
      </trkpt>
      <trkpt lat="47.5362600" lon="18.9521420">
        <ele>357.50</ele>
      </trkpt>
      <trkpt lat="47.5363240" lon="18.9520660">
        <ele>355.25</ele>
      </trkpt>
      <trkpt lat="47.5364200" lon="18.9519430">
        <ele>353.25</ele>
      </trkpt>
      <trkpt lat="47.5365090" lon="18.9517920">
        <ele>351.00</ele>
      </trkpt>
      <trkpt lat="47.5365640" lon="18.9516150">
        <ele>349.75</ele>
      </trkpt>
      <trkpt lat="47.5365820" lon="18.9515740">
        <ele>349.25</ele>
      </trkpt>
      <trkpt lat="47.5366450" lon="18.9514820">
        <ele>348.50</ele>
      </trkpt>
      <trkpt lat="47.5367090" lon="18.9514160">
        <ele>347.25</ele>
      </trkpt>
      <trkpt lat="47.5367640" lon="18.9513380">
        <ele>345.50</ele>
      </trkpt>
      <trkpt lat="47.5368550" lon="18.9511620">
        <ele>342.50</ele>
      </trkpt>
      <trkpt lat="47.5369470" lon="18.9509530">
        <ele>339.50</ele>
      </trkpt>
      <trkpt lat="47.5369780" lon="18.9509240">
        <ele>339.00</ele>
      </trkpt>
      <trkpt lat="47.5370770" lon="18.9508720">
        <ele>337.75</ele>
      </trkpt>
      <trkpt lat="47.5371250" lon="18.9508380">
        <ele>337.25</ele>
      </trkpt>
      <trkpt lat="47.5373770" lon="18.9505780">
        <ele>334.25</ele>
      </trkpt>
      <trkpt lat="47.5375940" lon="18.9504170">
        <ele>331.75</ele>
      </trkpt>
      <trkpt lat="47.5377340" lon="18.9502680">
        <ele>330.00</ele>
      </trkpt>
      <trkpt lat="47.5378860" lon="18.9501260">
        <ele>327.50</ele>
      </trkpt>
      <trkpt lat="47.5379370" lon="18.9500710">
        <ele>326.75</ele>
      </trkpt>
      <trkpt lat="47.5379960" lon="18.9499800">
        <ele>326.25</ele>
      </trkpt>
      <trkpt lat="47.5381140" lon="18.9497270">
        <ele>325.00</ele>
      </trkpt>
      <trkpt lat="47.5381370" lon="18.9496670">
        <ele>324.50</ele>
      </trkpt>
      <trkpt lat="47.5382040" lon="18.9494300">
        <ele>322.75</ele>
      </trkpt>
      <trkpt lat="47.5382730" lon="18.9492720">
        <ele>321.00</ele>
      </trkpt>
      <trkpt lat="47.5384070" lon="18.9488540">
        <ele>315.50</ele>
      </trkpt>
      <trkpt lat="47.5384530" lon="18.9487430">
        <ele>313.75</ele>
      </trkpt>
      <trkpt lat="47.5384920" lon="18.9486670">
        <ele>312.50</ele>
      </trkpt>
      <trkpt lat="47.5385890" lon="18.9485190">
        <ele>310.50</ele>
      </trkpt>
      <trkpt lat="47.5386300" lon="18.9484410">
        <ele>309.00</ele>
      </trkpt>
      <trkpt lat="47.5386850" lon="18.9483040">
        <ele>305.50</ele>
      </trkpt>
      <trkpt lat="47.5388370" lon="18.9479690">
        <ele>296.75</ele>
      </trkpt>
      <trkpt lat="47.5388740" lon="18.9479180">
        <ele>295.50</ele>
      </trkpt>
      <trkpt lat="47.5388930" lon="18.9478790">
        <ele>294.50</ele>
      </trkpt>
      <trkpt lat="47.5389200" lon="18.9478050">
        <ele>292.50</ele>
      </trkpt>
      <trkpt lat="47.5390720" lon="18.9472490">
        <ele>285.00</ele>
      </trkpt>
      <trkpt lat="47.5390710" lon="18.9471420">
        <ele>284.50</ele>
      </trkpt>
      <trkpt lat="47.5390560" lon="18.9470790">
        <ele>284.25</ele>
      </trkpt>
      <trkpt lat="47.5390410" lon="18.9470430">
        <ele>284.00</ele>
      </trkpt>
      <trkpt lat="47.5389900" lon="18.9469570">
        <ele>283.50</ele>
      </trkpt>
      <trkpt lat="47.5388570" lon="18.9467690">
        <ele>281.50</ele>
      </trkpt>
      <trkpt lat="47.5387550" lon="18.9465470">
        <ele>277.50</ele>
      </trkpt>
      <trkpt lat="47.5387840" lon="18.9465350">
        <ele>278.00</ele>
      </trkpt>
      <trkpt lat="47.5388100" lon="18.9465230">
        <ele>278.25</ele>
      </trkpt>
      <trkpt lat="47.5388360" lon="18.9464920">
        <ele>278.25</ele>
      </trkpt>
      <trkpt lat="47.5389160" lon="18.9462790">
        <ele>276.75</ele>
      </trkpt>
      <trkpt lat="47.5390230" lon="18.9461120">
        <ele>275.25</ele>
      </trkpt>
      <trkpt lat="47.5391020" lon="18.9460460">
        <ele>275.25</ele>
      </trkpt>
      <trkpt lat="47.5392550" lon="18.9459430">
        <ele>275.25</ele>
      </trkpt>
      <trkpt lat="47.5394290" lon="18.9458610">
        <ele>275.75</ele>
      </trkpt>
      <trkpt lat="47.5395950" lon="18.9458870">
        <ele>276.50</ele>
      </trkpt>
      <trkpt lat="47.5397070" lon="18.9459770">
        <ele>276.75</ele>
      </trkpt>
      <trkpt lat="47.5397530" lon="18.9460760">
        <ele>277.00</ele>
      </trkpt>
      <trkpt lat="47.5397550" lon="18.9462840">
        <ele>277.50</ele>
      </trkpt>
      <trkpt lat="47.5396670" lon="18.9467100">
        <ele>279.00</ele>
      </trkpt>
      <trkpt lat="47.5396410" lon="18.9468670">
        <ele>279.00</ele>
      </trkpt>
      <trkpt lat="47.5395700" lon="18.9471390">
        <ele>278.50</ele>
      </trkpt>
      <trkpt lat="47.5394900" lon="18.9476240">
        <ele>278.00</ele>
      </trkpt>
      <trkpt lat="47.5395360" lon="18.9481430">
        <ele>276.00</ele>
      </trkpt>
      <trkpt lat="47.5396540" lon="18.9491200">
        <ele>270.00</ele>
      </trkpt>
      <trkpt lat="47.5395950" lon="18.9497430">
        <ele>267.25</ele>
      </trkpt>
      <trkpt lat="47.5395250" lon="18.9499520">
        <ele>267.50</ele>
      </trkpt>
      <trkpt lat="47.5394940" lon="18.9505290">
        <ele>264.25</ele>
      </trkpt>
      <trkpt lat="47.5395380" lon="18.9507550">
        <ele>261.50</ele>
      </trkpt>
      <trkpt lat="47.5395710" lon="18.9510970">
        <ele>259.25</ele>
      </trkpt>
      <trkpt lat="47.5395710" lon="18.9513500">
        <ele>258.00</ele>
      </trkpt>
      <trkpt lat="47.5395720" lon="18.9514160">
        <ele>258.00</ele>
      </trkpt>
      <trkpt lat="47.5396340" lon="18.9516240">
        <ele>256.50</ele>
      </trkpt>
      <trkpt lat="47.5398200" lon="18.9519630">
        <ele>253.50</ele>
      </trkpt>
      <trkpt lat="47.5399120" lon="18.9524140">
        <ele>252.25</ele>
      </trkpt>
      <trkpt lat="47.5399390" lon="18.9529920">
        <ele>247.75</ele>
      </trkpt>
      <trkpt lat="47.5398820" lon="18.9532140">
        <ele>246.75</ele>
      </trkpt>
      <trkpt lat="47.5398840" lon="18.9534310">
        <ele>245.25</ele>
      </trkpt>
      <trkpt lat="47.5399130" lon="18.9536530">
        <ele>243.75</ele>
      </trkpt>
      <trkpt lat="47.5398840" lon="18.9538840">
        <ele>243.50</ele>
      </trkpt>
      <trkpt lat="47.5399430" lon="18.9544670">
        <ele>245.00</ele>
      </trkpt>
      <trkpt lat="47.5399380" lon="18.9546160">
        <ele>244.00</ele>
      </trkpt>
      <trkpt lat="47.5399430" lon="18.9548110">
        <ele>242.75</ele>
      </trkpt>
      <trkpt lat="47.5399640" lon="18.9549570">
        <ele>241.50</ele>
      </trkpt>
      <trkpt lat="47.5399960" lon="18.9550610">
        <ele>240.50</ele>
      </trkpt>
      <trkpt lat="47.5401520" lon="18.9551240">
        <ele>239.00</ele>
      </trkpt>
      <trkpt lat="47.5402650" lon="18.9551130">
        <ele>238.25</ele>
      </trkpt>
      <trkpt lat="47.5404070" lon="18.9552030">
        <ele>236.00</ele>
      </trkpt>
      <trkpt lat="47.5404220" lon="18.9552100">
        <ele>236.00</ele>
      </trkpt>
      <trkpt lat="47.5405480" lon="18.9553120">
        <ele>235.00</ele>
      </trkpt>
      <trkpt lat="47.5404990" lon="18.9555560">
        <ele>236.25</ele>
      </trkpt>
      <trkpt lat="47.5405610" lon="18.9558000">
        <ele>236.75</ele>
      </trkpt>
      <trkpt lat="47.5406120" lon="18.9558830">
        <ele>237.25</ele>
      </trkpt>
      <trkpt lat="47.5406860" lon="18.9559060">
        <ele>237.50</ele>
      </trkpt>
      <trkpt lat="47.5407290" lon="18.9558840">
        <ele>237.25</ele>
      </trkpt>
      <trkpt lat="47.5408360" lon="18.9557960">
        <ele>236.75</ele>
      </trkpt>
      <trkpt lat="47.5411480" lon="18.9554420">
        <ele>235.25</ele>
      </trkpt>
      <trkpt lat="47.5413140" lon="18.9553800">
        <ele>234.75</ele>
      </trkpt>
      <trkpt lat="47.5415290" lon="18.9553080">
        <ele>235.25</ele>
      </trkpt>
      <trkpt lat="47.5416490" lon="18.9552350">
        <ele>235.50</ele>
      </trkpt>
      <trkpt lat="47.5418570" lon="18.9550820">
        <ele>234.75</ele>
      </trkpt>
      <trkpt lat="47.5418950" lon="18.9550470">
        <ele>233.25</ele>
      </trkpt>
      <trkpt lat="47.5420540" lon="18.9549030">
        <ele>233.25</ele>
      </trkpt>
      <trkpt lat="47.5422220" lon="18.9547810">
        <ele>233.25</ele>
      </trkpt>
      <trkpt lat="47.5423280" lon="18.9546540">
        <ele>233.75</ele>
      </trkpt>
      <trkpt lat="47.5426090" lon="18.9542910">
        <ele>235.00</ele>
      </trkpt>
      <trkpt lat="47.5426400" lon="18.9542450">
        <ele>234.75</ele>
      </trkpt>
      <trkpt lat="47.5426500" lon="18.9542180">
        <ele>234.75</ele>
      </trkpt>
      <trkpt lat="47.5427100" lon="18.9540180">
        <ele>234.00</ele>
      </trkpt>
      <trkpt lat="47.5428260" lon="18.9537110">
        <ele>233.25</ele>
      </trkpt>
      <trkpt lat="47.5430100" lon="18.9533620">
        <ele>233.75</ele>
      </trkpt>
      <trkpt lat="47.5430970" lon="18.9532850">
        <ele>234.25</ele>
      </trkpt>
      <trkpt lat="47.5431160" lon="18.9532570">
        <ele>234.25</ele>
      </trkpt>
      <trkpt lat="47.5431800" lon="18.9530080">
        <ele>234.75</ele>
      </trkpt>
      <trkpt lat="47.5432640" lon="18.9529860">
        <ele>235.50</ele>
      </trkpt>
      <trkpt lat="47.5441700" lon="18.9527220">
        <ele>233.75</ele>
      </trkpt>
      <trkpt lat="47.5442530" lon="18.9526790">
        <ele>233.25</ele>
      </trkpt>
      <trkpt lat="47.5445990" lon="18.9525920">
        <ele>231.75</ele>
      </trkpt>
      <trkpt lat="47.5447860" lon="18.9525610">
        <ele>230.75</ele>
      </trkpt>
      <trkpt lat="47.5448130" lon="18.9525570">
        <ele>230.50</ele>
      </trkpt>
      <trkpt lat="47.5449440" lon="18.9524670">
        <ele>229.25</ele>
      </trkpt>
      <trkpt lat="47.5448490" lon="18.9538520">
        <ele>244.25</ele>
      </trkpt>
      <trkpt lat="47.5447970" lon="18.9544210">
        <ele>251.00</ele>
      </trkpt>
      <trkpt lat="47.5447790" lon="18.9548490">
        <ele>257.25</ele>
      </trkpt>
      <trkpt lat="47.5447760" lon="18.9551450">
        <ele>260.50</ele>
      </trkpt>
      <trkpt lat="47.5447170" lon="18.9560070">
        <ele>266.00</ele>
      </trkpt>
      <trkpt lat="47.5447580" lon="18.9559790">
        <ele>245.50</ele>
      </trkpt>
      <trkpt lat="47.5447170" lon="18.9560070">
        <ele>266.00</ele>
      </trkpt>
      <trkpt lat="47.5446520" lon="18.9561520">
        <ele>266.25</ele>
      </trkpt>
      <trkpt lat="47.5444170" lon="18.9564780">
        <ele>268.00</ele>
      </trkpt>
      <trkpt lat="47.5442710" lon="18.9567150">
        <ele>267.50</ele>
      </trkpt>
      <trkpt lat="47.5443100" lon="18.9568370">
        <ele>267.25</ele>
      </trkpt>
      <trkpt lat="47.5443900" lon="18.9569080">
        <ele>267.00</ele>
      </trkpt>
      <trkpt lat="47.5445060" lon="18.9568480">
        <ele>266.25</ele>
      </trkpt>
      <trkpt lat="47.5445380" lon="18.9567490">
        <ele>266.50</ele>
      </trkpt>
      <trkpt lat="47.5445060" lon="18.9568480">
        <ele>266.25</ele>
      </trkpt>
      <trkpt lat="47.5443900" lon="18.9569080">
        <ele>267.00</ele>
      </trkpt>
      <trkpt lat="47.5442590" lon="18.9570000">
        <ele>266.75</ele>
      </trkpt>
      <trkpt lat="47.5440920" lon="18.9571010">
        <ele>266.25</ele>
      </trkpt>
      <trkpt lat="47.5440330" lon="18.9571490">
        <ele>265.75</ele>
      </trkpt>
      <trkpt lat="47.5438410" lon="18.9575640">
        <ele>263.75</ele>
      </trkpt>
      <trkpt lat="47.5437200" lon="18.9578240">
        <ele>263.50</ele>
      </trkpt>
      <trkpt lat="47.5436690" lon="18.9579740">
        <ele>262.50</ele>
      </trkpt>
      <trkpt lat="47.5436080" lon="18.9580780">
        <ele>261.50</ele>
      </trkpt>
      <trkpt lat="47.5436020" lon="18.9580900">
        <ele>261.50</ele>
      </trkpt>
      <trkpt lat="47.5432940" lon="18.9585540">
        <ele>257.00</ele>
      </trkpt>
      <trkpt lat="47.5431930" lon="18.9587670">
        <ele>256.50</ele>
      </trkpt>
      <trkpt lat="47.5431580" lon="18.9588910">
        <ele>256.50</ele>
      </trkpt>
      <trkpt lat="47.5430900" lon="18.9592210">
        <ele>255.75</ele>
      </trkpt>
      <trkpt lat="47.5429480" lon="18.9595000">
        <ele>256.00</ele>
      </trkpt>
      <trkpt lat="47.5427520" lon="18.9596140">
        <ele>255.50</ele>
      </trkpt>
      <trkpt lat="47.5424790" lon="18.9601120">
        <ele>251.00</ele>
      </trkpt>
      <trkpt lat="47.5423190" lon="18.9601220">
        <ele>250.25</ele>
      </trkpt>
      <trkpt lat="47.5421510" lon="18.9600550">
        <ele>250.25</ele>
      </trkpt>
      <trkpt lat="47.5421340" lon="18.9609370">
        <ele>246.75</ele>
      </trkpt>
      <trkpt lat="47.5420910" lon="18.9619200">
        <ele>236.50</ele>
      </trkpt>
      <trkpt lat="47.5420660" lon="18.9625080">
        <ele>236.50</ele>
      </trkpt>
      <trkpt lat="47.5420320" lon="18.9628850">
        <ele>232.50</ele>
      </trkpt>
      <trkpt lat="47.5420310" lon="18.9629960">
        <ele>231.00</ele>
      </trkpt>
      <trkpt lat="47.5420380" lon="18.9630610">
        <ele>230.25</ele>
      </trkpt>
      <trkpt lat="47.5420470" lon="18.9631270">
        <ele>229.25</ele>
      </trkpt>
      <trkpt lat="47.5420280" lon="18.9631590">
        <ele>229.25</ele>
      </trkpt>
      <trkpt lat="47.5420510" lon="18.9632670">
        <ele>228.00</ele>
      </trkpt>
      <trkpt lat="47.5420590" lon="18.9634080">
        <ele>226.75</ele>
      </trkpt>
      <trkpt lat="47.5420650" lon="18.9634870">
        <ele>226.00</ele>
      </trkpt>
      <trkpt lat="47.5420910" lon="18.9634770">
        <ele>225.75</ele>
      </trkpt>
      <trkpt lat="47.5420910" lon="18.9635150">
        <ele>225.50</ele>
      </trkpt>
      <trkpt lat="47.5420770" lon="18.9637390">
        <ele>224.00</ele>
      </trkpt>
      <trkpt lat="47.5420650" lon="18.9638000">
        <ele>224.00</ele>
      </trkpt>
      <trkpt lat="47.5420580" lon="18.9638230">
        <ele>224.00</ele>
      </trkpt>
      <trkpt lat="47.5420350" lon="18.9638790">
        <ele>224.00</ele>
      </trkpt>
      <trkpt lat="47.5419810" lon="18.9639190">
        <ele>224.75</ele>
      </trkpt>
      <trkpt lat="47.5419570" lon="18.9639190">
        <ele>225.25</ele>
      </trkpt>
      <trkpt lat="47.5419280" lon="18.9639150">
        <ele>225.75</ele>
      </trkpt>
      <trkpt lat="47.5419270" lon="18.9639410">
        <ele>225.25</ele>
      </trkpt>
      <trkpt lat="47.5418910" lon="18.9640400">
        <ele>224.25</ele>
      </trkpt>
      <trkpt lat="47.5418680" lon="18.9641670">
        <ele>222.75</ele>
      </trkpt>
      <trkpt lat="47.5418780" lon="18.9642240">
        <ele>221.75</ele>
      </trkpt>
      <trkpt lat="47.5419110" lon="18.9644820">
        <ele>217.75</ele>
      </trkpt>
      <trkpt lat="47.5419490" lon="18.9647760">
        <ele>213.00</ele>
      </trkpt>
      <trkpt lat="47.5421540" lon="18.9647440">
        <ele>212.25</ele>
      </trkpt>
      <trkpt lat="47.5421670" lon="18.9648930">
        <ele>211.25</ele>
      </trkpt>
      <trkpt lat="47.5421720" lon="18.9649520">
        <ele>211.00</ele>
      </trkpt>
      <trkpt lat="47.5422630" lon="18.9649310">
        <ele>211.00</ele>
      </trkpt>
      <trkpt lat="47.5423010" lon="18.9649220">
        <ele>210.75</ele>
      </trkpt>
      <trkpt lat="47.5424460" lon="18.9648900">
        <ele>210.25</ele>
      </trkpt>
      <trkpt lat="47.5424980" lon="18.9648480">
        <ele>210.00</ele>
      </trkpt>
      <trkpt lat="47.5425800" lon="18.9647930">
        <ele>210.00</ele>
      </trkpt>
    </trkseg>
  </trk>
</gpx>